Sr No.,State,NH-No.,Toll Plaza Name,Toll Plaza Location,Section / Stretch,TollPlazaID,latitude,longitude,place_id,address_partial_match
1,Andhra Pradesh,16,Aganampudi,Km 728.055,Vishakhapatnam - Ankapalli [Km 2.837 to &Km 395.870 to Km358.00(New Chainage From Km 700.544 to Km 740.255)],236,17.6854173,83.14995069999999,ChIJyaj65ttuOToRH26fq-li1fY,False
2,Andhra Pradesh,7 (new 44),Amakathadu,Km 250.700,Hyderabad Bangalore (km 211.000 to km 462.164),258,15.4864765,77.9009433,ChIJG6ZfoqN_tjsR6hw94uU86QQ,False
3,Andhra Pradesh,NH-216,Annampalli,Annampalli,Gurajanapalli To pasarlapudi,5977,16.6722283,82.1473895,ChIJcw8uBaz1NzoRMva9Ii5taRE,False
4,Andhra Pradesh,221,Badava,35.800,Imbrahimpatnam to AP Telangana Border,4486,16.8504745,80.63358439999999,ChIJr0zTpNLaNToReLaGbihNfUU,False
5,Andhra Pradesh,NH40,Bandaplli,119.945 Bandaplli,Rayachoty Kadapa Section,5697,14.1311987,78.75668209999999,ChIJ2T3B-NwFszsRs_e_vnu63yw,True
6,Andhra Pradesh,NH42,Bandlapalli,Bandlapalli village,Madanapalli to punganur to palmner,5952,14.1311987,78.75668209999999,ChIJ2T3B-NwFszsRs_e_vnu63yw,False
7,Andhra Pradesh,NH 67,Basapuram,Km 604.450,Km 589.000 to Km 641.000,4542,14.7083358,78.8723771,ChIJ4_R8zQRjszsRkEOmZw1aqqk,False
8,Andhra Pradesh,NH 42,Bathalapalli,AT KM 104.405,RAPTHADUMUDIGUBBA,5753,14.5001074,77.7966071,ChIJid-qWD5bsTsRNqTOBrQzN6Q,False
9,Andhra Pradesh,5,Bellupada,Km 473.632,Icchapuram - Puintola (Km 477.054 to Km 419.600),233,19.1113097,84.6992649,ChIJVyVbW_1pPToRAqCixwnTQPg,False
10,Andhra Pradesh,5,Bollapalli,Km 1200.000,Chilkaluripet - Nellore (Km 1182.802 - Km 1366.547),252,15.8865647,80.07081560000002,ChIJ823aWrD1SjoRnBgUBxXInl4,False
11,Andhra Pradesh,71,Brahmanapalli,348.720,Telangana Border to Erpedu,4495,16.5168351,79.8306076,ChIJSQ-ifCtvNToRdv35c16W5t8,True
12,Andhra Pradesh,NH 67,Buchireddypalem,Km 722.450,Km 695.000 to Km 741.950,4557,14.5431722,79.8620955,ChIJjSzd2n-RTDoRGUQIxCN_lck,False
13,Andhra Pradesh,5,Budhanam,Km 124.500,Tada - Nellore,229,14.059887,79.894466,ChIJHdgtWmgdTToRJU_SANbh4ko,False
14,Andhra Pradesh,40,Chagalmarri,Km 228.350,Kadapa - Kurnool(Km 167.750 - km 356.502),452,14.9795772,78.57480679999999,ChIJTYeL94JjtDsRSg8ZJxVi4xg,True
15,Andhra Pradesh,NH18 (New NH40),Chapirevula,Km. 288.500,Design Engineering Fi0ncing Procurement Construction Operation Mainte0nce of 4 laning of CuddapahKurnool section of NH18 from the existing Km 167.750 to Km 356.502 in the State of Andhra Pra,5876,15.459914,78.4516785,ChIJabh_8V1NtDsRPQ1y4twgssE,False
16,Andhra Pradesh,65,Chillakallu,Km 205.025,Hyderabad - Vijayawada,376,16.8849567,80.1606791,ChIJNQxhjpSoNToRKLrwjoKJCB4,False
17,Andhra Pradesh,NH 216,Chinaganjam Toll Plaza,Chinaganjam,Eepuripalem to Ongole section,6632,15.6929955,80.24185779999999,ChIJP3vrpg5RSjoR2BSv_n7mrm4,True
18,Andhra Pradesh,565,Chintalapalem,500.150,Penchalkona to yerpedu,4485,13.7885144,79.5896139,ChIJ_2EAJCc6TToRn0D8lqNUZMg,False
19,Andhra Pradesh,NH67,Chitimiti Chintala,535.170 at Chittimiti Chintala,Muddanuru to Jammalamadugu section (Km 542.100 to Km 545.150),5698,15.9128998,79.7399875,ChIJf9STrvhGNToRg82tlb670TM,True
20,Andhra Pradesh,NH 544E,Cholasamudram,Cholasamudram,Kodikonda junction to Madakasira,6588,13.808445,77.5655242,ChIJv_-6gHaYsTsRsDY-i1mBls8,True
21,Andhra Pradesh,42,Danamaiahgari palli,Danamaiahgari palli,KrishnagiriPalamaneru,6607,15.9128998,79.7399875,ChIJf9STrvhGNToRg82tlb670TM,True
22,Andhra Pradesh,NH 65,Davuluru,km. 18,Vijayawada Machilipatnam section of NH65,4578,16.4125669,80.7881687,ChIJCYWFwgn_NToRfyY5PwxqVag,True
23,Andhra Pradesh,NH 67,DC PALLI,Km 680.100,Km 641.000 to Km 695.000,4558,14.6853379,79.5155972,ChIJEyn_fCevTDoR2G8E5AHKXGI,True
24,Andhra Pradesh,1033,Dukkavanipalem,Km. 686.540,50.780 KM,5928,17.8885915,83.34503339999999,ChIJT3WHHwBZOToRyl4ueXmyxGo,True
25,Andhra Pradesh,Old NH 18 (New NH 40),Dumpalagattu Paatimeeda Palli,km 181.250 (Toll plaza shifted from 168.300 to 181.250 on 191.02022),Kadapa to Kurnool from Km 167.750 to 356.502 to 188.752,6792,14.6133556,78.7646228,ChIJNX6Y8016szsRZENOORciqS0,True
26,Andhra Pradesh,18,Durgamvaripalli,Km 69.015,PILERU RAYACHOTI,4556,13.7142622,78.87318479999999,ChIJ12pCs7ftsjsRXdceblWjVlE,False
27,Andhra Pradesh,16,Eathakota,Km 946.300,Diwancheruvu - Siddhantham(Km 901.753 to Km 950.283),450,16.7152266,81.8277944,ChIJCRDk_lnANzoRK0U7_EoLE7g,True
28,Andhra Pradesh,140,Gadanki,Gadanki village Chittoor District,NH140 from Chittoor (Design Km 0.000 Existing Km 158.000 of NH4) to Mallavaram (Design km 61.128 existing km 41.800 of NH140,5770,13.4780527,79.18777539999999,ChIJ7WmZG3ylsjsRTQTJ2KjzEAU,False
29,Andhra Pradesh,516 E,Gantyada,At Km 20.650 of NH 516 E,Rehabilitation and Upgradation to 2lane with paved shoulders configuration of Bowdara Vizianagaram Section (Km 0.000 to Km 26.937) of NH516E in the state of Andhra Pradesh,6805,18.1426384,83.29311129999999,ChIJBWPOYGDoOzoR40_KkihaN6M,True
30,Andhra Pradesh,216,Gollaprolu,KM 15.00,Kathipudi Kaki0da,4617,17.1387566,82.2717498,ChIJ_SzktTQrODoRAn12B0FuzfM,False
31,Andhra Pradesh,326 A,Gorribanda,19.780,From 00.000 to 41.979,6604,18.5968049,84.0551768,ChIJvx5CusVbPDoRAUAPzqz_VhY,True
32,Andhra Pradesh,516 C,Goshtani,KM 0.00 For a length of 10.336km On NH16,VISAKHAPATNAM PORT CONNECTIVTY PROJECT (2.262 KM),6606,15.9128998,79.7399875,ChIJf9STrvhGNToRg82tlb670TM,True
33,Andhra Pradesh,NH167,Halaharvi,Km. 101.650,From Km 70.000 to Km 125.150 (Adoni to Madhavaram via Mantralayam section),4567,15.8188003,77.4539968,ChIJNY-7xsY4tjsRNZXsGs3DkOM,True
34,Andhra Pradesh,42,Jellilpalli,KM 47.400,A.P Boarder to Antapur,5670,14.8049402,77.3493933,ChIJ08ik7LvRtjsRBUOK7rSjBZo,True
35,Andhra Pradesh,NH 67,Jodi Dharampuram,AT KM 460.600,GOOTY TADIPATRI,5755,14.96373,77.92135259999999,ChIJZfd7WUKntjsRNDvbzTry6mk,True
36,Andhra Pradesh,26,Jonnada,Jonnada,4 laning of Raipur Visakhapatnam section of NH43 (New NH26) from Km.537.600 to Km.563.620 (Design chainage from Km.0000 to Km.28800) including 4 lane bypass to Vizianagaram town in the state of,6818,18.0112654,83.40777899999999,ChIJOWp3FgDjOzoRmrejlegMEhY,False
37,Andhra Pradesh,16,Kalaparru,Km 1050.794,Gundugolanu - Vijayawada,248,16.6643297,81.0079147,ChIJya9ptiUTNjoRca4YDs-sE9Q,False
38,Andhra Pradesh,44 and 7,Kasepalli,Km 310.200,Karidikonda - Marur,255,15.0617571,77.6303444,ChIJb5d92yG-tjsRKTz116q8IJ0,True
39,Andhra Pradesh,16,Kaza,Km 416.800,Vijayawada - Chilakaluripet,228,16.3853284,80.53320889999999,ChIJ_wXkryT0NToRhxU9lwqm8k8,False
40,Andhra Pradesh,9,Keesara,Km 231.900,Nandigama - Vijayawada,227,16.7181505,80.3243561,ChIJU36oTaa9NToRW1bkgtFgry0,True
41,Andhra Pradesh,16,Krishnavaram,Km 865.553,Tuni - Diwancheruvu [Km 272.000 to Km 200.000 (New Chainage From Km 901.753 to 830.525)],173,17.2153597,82.1108433,ChIJS-UD9lN5NzoR8ONzBQSI_Mk,True
42,Andhra Pradesh,16,Laxmipuram,Km 530.404,Icchapuram - Nandigaon (Km 226.15 to Km160.00(New Chainage Km 477.054 to Km 543.204)),203,18.7330646,84.389326,ChIJEcy-TqkHPToRIu78LUnTaic,False
43,Andhra Pradesh,16,Madapam,Km 589.554,Nandigama - Srikakulam ( Km 160.00 to Km 97.00(New Chainage Km 543.204 to Km 606.204)),235,18.3773156,84.000399,ChIJ8wz7095APDoRDimO1Om32Fo,False
44,Andhra Pradesh,NH4 (New69),Mahasamudram,Km 164.100Km 159.300 to Km 219.687 NHDPIV,APTN Border to 0lagampalli to 0lagampalli to APKA Border,5661,13.195033,79.0159474,ChIJhUMFz09drTsR0AYD0CQoUto,False
45,Andhra Pradesh,5,Main Toll (Panchvati),Km 9.158,Vishakhapatnam Port Connectivity Project,240,15.9128998,79.7399875,ChIJf9STrvhGNToRg82tlb670TM,True
46,Andhra Pradesh,1033,Marripalem,722.170 Km,50.780 KM,5927,17.7475253,83.06895,ChIJ2eMrCfh7OToR8WuEcQhOqMs,False
47,Andhra Pradesh,7(new 44),Marur,Km 376.075,Hyderabad - Bangalore,230,14.5020692,77.6312836,ChIJmwlM8RdGsTsRUT9OC85y5Zo,False
48,Andhra Pradesh,NH 544D,Medapi,Km 297.650,Giidaluru to Vinukonda section of NH544D,5737,16.0248494,79.48182229999999,ChIJn7uPgnyxSjoRhbowoEtIefk,False
49,Andhra Pradesh,565,Mekalavaripalli,217.050,Markapuram to Vaggampalle,4493,15.6675733,79.351901,ChIJnTg-AxwttTsRmzWNPl4R-eQ,False
50,Andhra Pradesh,NH 216,Mopidevi Toll Plaza,Km. 116.332,Machilipatnam to Avanigadda (Km. 82.300 to 117.060) Section of NH216 in the State of Andhra Pradesh,6659,16.0634313,80.9243584,ChIJq1GPmWbxSToRV9gg6fWv3Vs,True
51,Andhra Pradesh,NH 340,Mudiveedu,Mudiveedu Fee Plaza at Km 50.050,Rehabilitation and Upgradation from Km 0.00 to Km 60.280 of Rayachoty to Angallu road of NH340 to two lanes with paved shoulders on EPC Mode under NH (O) Plan 201617 in the State of Andhra Pradesh,6630,13.7075719,78.5075126,ChIJF0-qb-5csjsR026gWvnsUo0,True
52,Andhra Pradesh,NH 216,Munjuluru,Km. 66.700,Loasri to Machavaram (Km. 32.900 to 82.300) Section of NH216 in the State of Andhra Pradesh,6594,16.3017392,81.2160809,ChIJ7VL-r_3eSToR3nHpx8GZZrs,True
53,Andhra Pradesh,NH40 (Old NH18),Nannur,349.700,46 laning of Kadapa Kurnool section from existing Km.167.750 to Km.356.502,4543,15.7409164,78.0707785,ChIJd3d5mYbctTsRhT5N2AiUL4Q,False
54,Andhra Pradesh,16,Nathavalasa/ Vizianagaram,Km 656.704,Champavati/ Kopperla - Visakhapatnam [km 49.00 to Km 2.837 (New Chainage From Km 700.544 to Km 654.204)],246,18.0640813,83.52301229999999,ChIJSafno275OzoR_IvSs4SR77w,True
55,Andhra Pradesh,516 C,Panchvati,KM 0.00 For a length of 10.336km On NH16,VISAKHAPATNAM PORT CONNECTIVTY PROJECT (9.158 KM),6605,17.7138902,83.21215819999999,ChIJG5lubRhpOToRY5p7Qvb89Tg,True
56,Andhra Pradesh,NH 544D,Pandillapalli,Km. 231.500,Giidaluru to Vinukonda section of NH544D,5738,15.7575949,80.2711588,ChIJHZomwrJaSjoRIlDG2jXcdKE,True
57,Andhra Pradesh,NH 365 A,Paninampalli Khalu,Painampalli,Kodad to Khammam,6820,15.9128998,79.7399875,ChIJf9STrvhGNToRg82tlb670TM,True
58,Andhra Pradesh,16,Pottipadu,Km 1072.191,Gundugolanu - Vijayawada,247,16.5723594,80.86256139999999,ChIJAWEQVQIJNjoRU1PklXLlquM,False
59,Andhra Pradesh,44,Pullur,Km 200.95,Kothakota bypass - Kurnool (Km 135.469 to Km 211.00),219,15.88775,78.0169762,ChIJ0xC-hjThtTsRLnxIAsC9NW4,False
60,Andhra Pradesh,565,Rapur,443.800,Penchalkona to yerpedu,4484,14.1998609,79.5343786,ChIJIwKVI_bQTDoRFWViceUcnJc,True
61,Andhra Pradesh,565,Raviguntapalli,285.100,Markapuram to Vaggampalle,4494,15.2252211,79.45918809999999,ChIJ0zSlKiM0SzoR-tFkaCmKbLU,False
62,Andhra Pradesh,NH 216,Reddypalem Toll Plaza,Km. 157.950,Repalle to Eeprupalem (Km. 122.725 to Km. 184.855) Section of NH216 in the State of Andhra Pradesh,6754,15.993588,80.5988081,ChIJUVI8FgAXSjoR4FLmqoBZeTA,True
63,Andhra Pradesh,544E,Rolla,Rolla User Fee Plaza,Madakasira to Sira section,6817,13.8553485,77.11723169999999,ChIJ9R7NucxVsDsR6v4HzMscAdI,True
64,Andhra Pradesh,363,Sarandi Toll Plaza,SARANDI,Four laning of NH 363 from Repallewada (Design Km.42.000) to TealnganaMaharashtr Border (Design Km. 94.602),6759,15.9128998,79.7399875,ChIJf9STrvhGNToRg82tlb670TM,True
65,Andhra Pradesh,5,Secondary Toll (Gosthani Gate /Sheela Nagar),Km 2.262,Vishakhapatnam Port Connectivity Project,240,17.7138902,83.21215819999999,ChIJ99b6jl5oOToRSoZkyV8gFdE,True
66,Andhra Pradesh,NH 216,Seetharampuram,Seetharampuram,Dhindi to Digamarru and Digamarru to Losari,6725,16.5120128,80.6418056,ChIJw3c-I636NToR2TpBdr58Ewo,True
67,Andhra Pradesh,44,Shakhapur,Km 114.850,Hyderabad Bangalore Section (Km 80.050 to Km 135.740),217,15.9128998,79.7399875,ChIJf9STrvhGNToRg82tlb670TM,True
68,Andhra Pradesh,NH 365 BB,Singarenipalli Toll Plaza,KM 37.400,Suryapet to khammam from (Ch0.420 to Ch59.046),6586,15.9128998,79.7399875,ChIJf9STrvhGNToRg82tlb670TM,True
69,Andhra Pradesh,5,Sullurpet,Km 86.000,Tada - Nellore,250,13.7448772,79.99090729999999,ChIJe-wvCpIMTToRROiODVh5utM,False
70,Andhra Pradesh,16,Sunambatti (Musunuru),Km 1326.000,Chilkaluripet - Nellore (Km 1182.802 - Km 1366.547),251,16.8273552,80.9343322,ChIJA57qTXJxNjoRsVr8guFDiJ0,True
71,Andhra Pradesh,16,Tangatur,Km 1264.000,Chilkaluripet - Nellore (Km 1182.802 - Km 1366.547),253,15.3417343,80.0346878,ChIJmSWyRu4ISzoRGLZEhVMpofg,True
72,Andhra Pradesh,NH 40,Thenepalli,336.543 km of NH40,Thenepalli Toll Plaza Rehabilitation and up gradation of NH40 (Old NH18) from Km 300193 to Km 337693 (Old Km 18350 to Km 56000 (Piler Puthalapattu Section) to two lanes with paved shoulders,6596,13.3755704,79.0783131,ChIJWZgUMUuhsjsRLY5hO5twPck,False
73,Andhra Pradesh,16,Unguturu,Km 999.600,Siddhantham - Gundugolanu( Km 950.283 to Km 1022.494),451,16.8237472,81.4306735,ChIJM2Sp9_5LNjoRndS5qH4oj0w,True
74,Andhra Pradesh,544DD,Vaddupalli,Km 14.500 near Vaddupalli,A0npur Kalyandurg,5788,14.1768641,79.31521939999999,ChIJ6QgoTkgsszsRf_PpeetjCEk,True
75,Andhra Pradesh,NH 16,Veeravalli,Km.53.700,Ch 15.320 to Ch 85.204,6633,16.9851173,81.4764142,ChIJaYjPfDNTNjoRZtJxdtN8zG0,False
76,Andhra Pradesh,16,Vempadu,Km 795.498,Ankapalli Tuni Km 358.00 to Km 272.00(New Chainage From Km 830.525 to Km 741.255),220,17.3976984,82.6757884,ChIJtyz0-rO7OToRY4Z9EQh9i2w,False
77,Andhra Pradesh,5 (Old 16 ),Venkatachalam (Old Nellore),Km 155.000,Tada - Nellore,243,14.3184075,79.9183729,ChIJzX4udifuTDoRfzfCimwqgOk,True
78,Andhra Pradesh,NH 42,Yerradoddi,KM 158.215,MUDIGUBBA TO A0NTAPUR (DT) BOARDER,5672,14.1692458,78.1348261,ChIJiRJv5WHPszsRpB__c_xk264,False
79,Assam,27 (old NH54E),Balachera,Km 277.300,From Km 27500 to Km 300760 ( Balachera to Silchar),5791,24.9463476,92.75614560000001,ChIJIz9nF6zLTzcRT0aoiIMj9bY,False
80,Assam,36,Daboka (Mikirati Hawgaon),Km 15.652,Nagao-Daboka-Udauli,425,26.1231708,92.8600419,ChIJVfvNXc8WRTcRJmsTndUcR9I,True
81,Assam,31,Dahalapara,Km 971.200,Rakhaladobi - Kohora Section ( Km 962.200 to Km 1023.900),395,26.4763556,90.7120846,ChIJ3YvX2_kGWTcRzSFrYXG_80Y,False
82,Assam,NH31 (New NH27),Galia,Bhawanipur,from 2 lane to 4 lane from Km 1040.300 to Km 1013.000 0lbari to Bijni section of NH31 in the state of Assam on East West Corridor under phase II programme of NHDP (Contract Package EWIIAS07),5872,26.4417041,91.0484178,ChIJz-qwAAB3WTcRC_fH5pxHN4Y,False
83,Assam,31,Gangadhar Bridge (MoRTH),Km 841.000,Gangadhar Bridge (Km 837.00 to 837.481),330,26.2006043,92.9375739,ChIJYy0xTMkWRTcR-xlnc7tzGtE,True
84,Assam,37A,Kalia Bhomora Bridge (MoRTH),Km 7.100,Kalia Bhomora Bridge (Km 9.280 to 12.295 Km),326,26.5986149,92.8574653,ChIJY-AMSEvvRDcRh2zg4ge7iNo,True
85,Assam,NH 31,Madanpur,Km 1040.300 to Km 1119.814,Nalbari to Bijni to Guwahati,5660,26.3090568,91.71620709999999,ChIJ63lPm9dRWjcRGc_l2nLTmIo,False
86,Assam,NH 54,Manderdisa,Manderdisa District Dima Hasao,Lanka to Hatikhali,5666,25.7365827,93.1385782,ChIJd46n8EWDRTcR2LiCO5OXRng,False
87,Assam,NH 27,Mikirati Hawgaon,Mikirati hawgaon km. 33.625,0lbari Bijni Guwahati 0gaon Lanka hatikhali,5646,26.1231708,92.8600419,ChIJVfvNXc8WRTcRJmsTndUcR9I,True
88,Assam,37,Nazirakhat,Km 179.600,Nagao-Daboka-Udauli,426,26.1216997,91.9233596,ChIJ0wvgYV_xWjcRr9KVFI3d_l4,True
89,Assam,NH27 (New)NH31C (Old),Patgaon,Patgaon District Kokrajhar,Ch. 30.000 to Ch. 32.000 Km.,4627,26.5650414,90.2382013,ChIJC5NmiKONWDcRavXMqWq0GmI,False
90,Assam,37,Raha(Saragaon),Km 254.514,Nagao-Daboka-Udauli,424,26.2462052,92.55694360000001,ChIJ6QiK62EuRTcR8Jud8fBw7vg,True
91,Assam,27,Telipara,Telipara Village Ch Km 08.390,Kachugaon to Srirampur,6809,26.4440179,89.9426376,ChIJg2OAclx_4jkRhupDsbsjilU,True
92,Bihar,57,Asanpur,Km 150.390,Phulparash - Forbesganj,294,26.297759,86.6329431,ChIJLcCHeZBe7jkRPHVqt8DwbIQ,False
93,Bihar,319,Babhniyawan Toll Plaza,Near Babhniyawan village at Ch. 16030 on NH319,50.030 Km,6600,25.4982341,84.4881711,ChIJHcz9NgBjjTkRDqouPAxp2Xs,True
94,Bihar,80,Balgudar,Km 23.500,Mokama - Munger (Km 1.43 - Km 70.00),237,25.2023832,86.0819094,ChIJ86c8Jzo98jkRpQus8XAD1Xo,False
95,Bihar,31,Barsoni,Km 416.000,Purnea - Dalkola (Km 410.700 - Km 447.000),284,25.8047416,87.59073289999999,ChIJuQ5VyA1X5TkR8U4F5ymbiy0,False
96,Bihar,New NH 527 ( Old NH 57A ),Bhadeswar Toll Plaza,At Km. 2.850,4.LANING FORBESGANJ TO JOGBANI SECTION,6679,25.9644427,85.2722472,ChIJA2m78ERY7TkRJeO6G-0_rVc,True
97,Bihar,80,Bhagalpur,Km. 137.275,124.175 to 140.850,5705,25.2307364,87.0086326,ChIJDfUFqMdJ8DkRyoaR1AaMru8,True
98,Bihar,NH28B,Bishunpurwa,Km 53.625 at Bishunpurwa (West Champaran Bihar),Bettiah (Km 25000) to Paniahwa (Km 64000),5683,27.1099884,84.4933758,ChIJ-dEYJfKclDkR8LHcgLoG2y4,True
99,Bihar,531 (Old NH85),Chainwa (Chapraitha),At Km. 34.500,Chhapra Siwan Gopalganj,5916,26.0334685,84.4927201,ChIJmZafdZ3ukjkR6nzGpxv1fpA,True
100,Bihar,NH 922,Dalsagar Toll Plaza,Vill Dalsagar P.S Behea Dist Buxar,Bhojpur to Buxar section from design km. 77.100 to km. 125.000 (existing km. 27.370 to km. 75.000 of NH84) of NH922 in state of Bihar.,6672,25.5806703,84.0606505,ChIJpaJ3YnR3kjkR7NbRydrMjMg,False
101,Bihar,30,Deederganj,Km 194.00,Patna - Bakhtiyarpur,415,25.5721084,85.24244949999999,ChIJG_jvlW-g8jkRETwP3hTnEBk,False
102,Bihar,NH 122 (OLD NH 28),Govindpur (Murli),Km 602.200,Km. 576.600 to Km 627.163,488,25.5902776,85.87594519999999,ChIJd3XXppF18jkRhjadVbIhJRI,True
103,Bihar,57,Hariabara,Km 244.860,Forbesganj - Purnea,283,26.1526741,87.445263,ChIJyV6TT2aP7zkRQc1CDHgdsmY,False
104,Bihar,327 E,Jeerangachh,At Km 22.410,Galgaliya to Harwa Chowk,6804,26.3500259,88.0566138,ChIJvVPpTwAH5TkRSvY3CqMVE2s,True
105,Bihar,NH 20,Karigawan Toll Plaza,Karigawan,Rajauli to Bhakhtiyarpur(Pkg II),6661,24.6812246,85.5058773,ChIJXWFUPQAF8zkRMLv4kCIew1w,True
106,Bihar,NH 327E,Khaikhat,At. Km 39.500,Galgaliya to Rahman Chauk,5707,26.3189171,87.90265269999999,ChIJ1TOirh0L5TkR2m7jKWYhgOU,False
107,Bihar,31,Kharik,Km 333.150,Khagaria - Purnea (Km 270.000 - Km 410.000),285,25.3772375,87.0485975,ChIJYwIveZcw8DkRyshkCigbIHA,True
108,Bihar,NH 922,Kulhariya Toll Plaza,Vill Kulhariya P.S Koilwar DistBhojpur,Koilwar Bhojpur section from design kilometer 33.250 to kilometer 77.100 (existing Km 137.375 of NH 30 to Km 27.370 of NH 84),6671,25.5802339,84.7686386,ChIJAYkyX0unkjkRvoZ3u2rOLCg,True
109,Bihar,28,Mahanth Maniyari,Km 534.669,Muzaffarpur - Barsoni (km 519.600 - km 627.000),487,26.0387804,85.4473787,ChIJQQABZY0N7TkRlRlNRGkWNho,False
110,Bihar,57,Maithi,Km 26.200,Muzaffarpur - Darbhanga - Purnea,125,26.1130383,85.5641793,ChIJS6uLkaoJ7TkRp3DumZIkagE,False
111,Bihar,333B,Malhipur Toll Plaza,Khagaria,Construction of Approach Road to Railcum Road Bridge across river Ganga at Munger Ghat ( NH333 B),6819,25.4064022,86.0210857,ChIJHX1h5O8R8jkRofaCN_M2dk0,True
112,Bihar,31,Maranga,Km 397.885,Khagaria - Purnea (Km 270.000 - Km 410.000),286,25.7285769,87.45850759999999,ChIJ_wnjMQL87zkRul1t3yHqjkE,True
113,Bihar,2,Mohania,Km 860.000,Varanasi - Aurangabad,41,25.1882628,83.5615181,ChIJTbmndfcKjjkR2J8zWRlBZQQ,False
114,Bihar,28,Parsoni Khem,Km 468.700,Kotwa - Mehsi - Muzaffarpur (Km 440.000 - Km 520.000),123,26.4516622,85.0228182,ChIJlX2C-t_T7DkRjqIHjMB9R0E,False
115,Bihar,Chhapra Rewaghat Muzaffarpur,Pokhraira,54.35,Chhapra Rewaghat Muzaffarpur,4584,26.1198698,85.38551439999999,ChIJU3QWgegQ7TkRfw9y-Rbf9ak,True
116,Bihar,57,Raje(Old Naraur),Km 88.000,Darbhanga - Kosi Bund,204,26.2251613,86.15013590000001,ChIJ7zmt9uHQ7TkREX2ChQ_T_zE,False
117,Bihar,131 A,Routara,At Km 42.180,Narenpur Purnea,6803,25.6727524,87.5224589,ChIJl6RTjJb_7zkRsHz64ip7oNU,False
118,Bihar,NH 22 (OLD NH 77),Runni saidpur,Km 28.890,Muzzaffarpur Sonbarsa (Km 2.800 Km 85.497),442,26.3736096,85.49412579999999,ChIJW03X4L397DkRTFhesSo81I0,False
119,Bihar,77,Saidpur Patedha,Km 12.687,Hajipur - Muzaffarpur,471,25.8010898,85.283887,ChIJ02gnjhdo7TkRhG6tFKQiUX8,True
120,Bihar,2,Sasaram,Km 907.100,Varanasi - Aurangabad,43,24.9571606,83.9549637,ChIJd2Qw_ZK3jTkRI2Zc7Dw9__M,False
121,Bihar,19,Saukala,Km 200.100,Aurangabad - Barachatti(Km 180.00 to Km 240.00),238,24.5995517,84.7028361,ChIJxbFgp73EjDkRrJzzVmOfA7U,True
122,Bihar,31,Shahpur,232.600,Four Laning of SimariaKhagaria Section of NH31 from Km. 206.050 to Km. 266.282 (Design Chainage) and (Existing Chainage Km. 209.945 to Km. 270.000 of NH31) in the State of Bihar on EPC Mode,6665,25.4102216,86.2111977,ChIJac4rHk8d8jkRjVSNX5OacGk,False
123,Bihar,722,Sonho,Sonho,ChhapraRewaghat Muzaffarpur Section of NH7 22,6849,25.9644427,85.2722472,ChIJA2m78ERY7TkRJeO6G-0_rVc,True
124,Bihar,531 (Old NH85),Thawe (Brindavan),At 86.600 Km,Chhapra Siwan Gopalganj,5917,26.4209248,84.3700044,ChIJp0by02oEkzkRhOsEB8_HO5w,True
125,Bihar,82,Toda,128,Two lanintg with paved shoulder of BiharsharifBarbighaMokama section,5779,25.242592,85.786368,ChIJF_v4wOhp8jkRM-USoHOet5U,False
126,Chandigarh,21 (Old 3),Jia Bridge (MoRTH),Km 262.200,Jia Bridge,341,30.7333148,76.7794179,ChIJa8lu5gvtDzkR_hlzUvln_6U,True
127,Chhattisgarh,Old43 (New NH30),Badayiguda,284.42,DahikongaJagdalpur Section from Km 241.000 to Km 298.000,4608,19.1614718,81.9847139,ChIJQQlQYOMQMDoRfBMZUUU3QCM,True
128,Chhattisgarh,NH 130,Bhojpuri,Village Bhojpuri,Bilaspur,5640,21.932321,82.01183639999999,ChIJscaSagdvKDoRl5JEahLz614,False
129,Chhattisgarh,6 (Old 53 ),Chhuhipali Toll Plaza,Km 123.206,Chhattisgarh/Orissa Border - Aurang Section,464,21.2998227,82.9428248,ChIJ86Ma7vCLJjoRv3g16rAAanQ,True
130,Chhattisgarh,130,Chotiya,Chotiya,Katghora Shiv0gar,5694,22.7665959,82.48030109999999,ChIJy62LglgViDkRlqV6qlTSPy8,True
131,Chhattisgarh,6,Dhank,Km 182.636,Chhattisgarh/Orissa Border - Aurang Section,465,21.2240211,82.4118137,ChIJibuaoiQXJjoRnPnWFSQL2rM,False
132,Chhattisgarh,6,Durg Bypass (Dhamdanaka),Km 312.780,Durg Bypass - Chhattisgarh/Maharashtra Border,7,21.2144833,81.2879701,ChIJacMtgaU9KToREqrPss1bI6k,False
133,Chhattisgarh,Old43 (New NH30),Jagtara,95,DhamtariKanker Section from 81.500 to 130.000,4606,20.604713,81.41963849999999,ChIJNdrfhLjbLjoRbNRrF0zWfGk,False
134,Chhattisgarh,NH 49 (Old NH 200),Jhalmala Toll Plaza,Near village Jhalmala DisttRaigarh (C.G.),Masaniyakala to Rengapali villageOdisha Border,6685,21.8175617,83.43409179999999,ChIJqSVF1QUpJzoR25ylrVPh6xc,True
135,Chhattisgarh,6 (Old 53),Kharun (MoRTH),Km 285.400,Raipur - Durg,367,21.2786567,81.8661442,ChIJrYt6xhYfJjoRlZ0X-xL0I1w,True
136,Chhattisgarh,6 (Old 53),Kosa Nala (MoRTH),Km 307.600,Raipur - Durg Four lane (Km 281.000 to Km 307.600),368,21.2786567,81.8661442,ChIJrYt6xhYfJjoRlZ0X-xL0I1w,True
137,Chhattisgarh,53,Kumhari,At Km 285.40 of Raipur Durg Section from Km 281.00 to 307.600 of NH6 (New NH53) in the State of Chattisgarh,RaipurDurg Km 281 to Km 307.60,5671,21.2527166,81.53693349999999,ChIJv-4_kOffKDoRHC9FfiS0ux4,True
138,Chhattisgarh,NH130,Limha Toll Plaza,Limha,53.300,6692,22.2794897,82.3044871,ChIJUZZtJn37JzoRcdkV5ZRkxls,True
139,Chhattisgarh,NH 43,Lodam Toll Plaza,at Km.593.350 VillageLodam DistrictJashpur (CG),Kunkuri to CGJH Border section,6686,22.9544185,84.3593959,ChIJR0jC2ZbzijkRqVxcg8CivgI,True
140,Chhattisgarh,NH 130,Madanpur Toll Plaza,at Km.82.000 Village Madanpur District Korba (C.G.),BilaspurKatghora,6688,22.4549646,82.4832926,ChIJEYBXrGofiDkR3wSbF7BlqKM,True
141,Chhattisgarh,NH 43,Maharajpur Toll Plaza,at Km.278.150 VillageMaharajpur Toll Plaza,MP CG Border to Surajpur section,6687,23.2944324,82.38397479999999,ChIJC4EhlO-FiDkRWrfvyyCp-jY,True
142,Chhattisgarh,53,Mandir Hasaud,Ch. 258.650,RaipurArang Km. 238.535 to Km. 282.000,5668,21.231995,81.7593057,ChIJK6pHWwDDKDoR9uBQuzuABrA,True
143,Chhattisgarh,30,Maroud Toll Plaza,45.500,RaipurDhamtari (Km. 10.200 to Km. 82.209),6837,20.8952648,81.6868315,ChIJQ38fNgDTKDoRn40erMTFRYc,True
144,Chhattisgarh,Old43 (New NH30),Mashora,216.4,BedmaDahikonga Section from Km.180.000 to Km.241.000,4607,19.6624761,81.6595212,ChIJp2Bxp8nJLzoRdKEt5DzueQk,False
145,Chhattisgarh,NH 30,Mudhiyapara Toll Plaza,Ch 225.942,M P Border Chilpi to Kwardha Section Pkg I,6698,22.1559498,81.2285911,ChIJE0np-brDKToRopnr-uFNOFA,True
146,Chhattisgarh,NH 49,Mudipar,at Km 110.300,Bilaspur,5639,21.9671125,82.09820309999999,ChIJVTxtmPNzKDoRxJvnQ3YerC8,True
147,Chhattisgarh,200(Old 130),Nandghat Bridge (MoRTH),Km 65.800,H.L. Bridge at Nandghat,366,21.9158188,81.7444281,ChIJS_Smu4U3KDoRqUh6T7lC6Fg,True
148,Chhattisgarh,43,Pachira,Pachira,Surajpur Ambikapur,5695,23.1951571,82.9251091,ChIJVQVMiLariTkRvBmF8Cdd_8o,True
149,Chhattisgarh,49 (Old NH 200),Paraghat,138.5,Section of NH200 (New NH49) from Km.127500 to Km. 160687 (Village ThekaDarrighat to Vilage Ba0ri section) Route Kolkata to Mumbai EC,5794,22.0113244,82.3240988,ChIJPc7_mGXdJzoRu624YKhs6sE,False
150,Chhattisgarh,3,Shirpur,Km 205.000,MP/Maharashtra Border - Dhule,147,21.2786567,81.8661442,ChIJrYt6xhYfJjoRlZ0X-xL0I1w,True
151,Chhattisgarh,30,Tarpongi,Ch. 32.013,Raipur Simga,5997,21.4826995,81.6909101,ChIJ6c7twzL7KDoRPxkKhh0JRmk,True
152,Chhattisgarh,6,Thakurtola (End of Durg Bypass),Km 331.865,End of Durg Bypass Chhattisgarh Maharashtra Border,4,21.6499603,80.97881869999999,ChIJo7OCJduCKToRac9w0WFrQQ4,True
153,Delhi,2,Badarpur Elevated,Near Sarai Metro Station,km. 16.100 to km. 20.500,5768,28.5102495,77.2985884,ChIJSenKd1_mDDkRV473s9toxwc,True
154,Delhi,NE II,Chhajju Nagar(EPE),Km 132.085,From Km 114.00 to 136.000,5759,28.1067635,77.3701261,ChIJW8i-UaLSDDkRbOtNPa8Ah3A,True
155,Delhi,na,Gadhpuri,Palwal,KM. 20.500 to KM 179.5,5940,28.249093,77.29055410000001,ChIJ12Uuo2PRDDkRB5KrY7uVrzg,True
156,Delhi,248 A,Ghamroj (Sohna),KM.13.000,Km. 21.796,5583,28.3226188,77.0578855,ChIJ1_MYmn0kDTkRsIGaoAI-pJA,True
157,Delhi,48,IGI Airport,Km 19.100,Km. 11.060 to 42.000,299,28.5438426,77.11539189999999,ChIJWeHExhIcDTkRfvroXpzHszw,False
158,Delhi,NH 148 NA,Jita Kherli Kiranj Toll Plaza,Near Kiranj Village in District Nuh (Haryana) at Ch. 55880,6L Access Controlled Highway from Jn. with Sector 6265 dividing road on Faridabad Ballabhgarh Bypass to Jn. with KMP Expressway with NH148NA from km. 33.00 to km. 59.063,6702,28.6139298,77.2088282,ChIJLbZ-NFv9DDkRzk0gTkm3wlI,True
159,Delhi,19,Karman,Km. 94.00,Delhi to Agra,5939,27.8553906,77.4026664,ChIJpXUfD7Y7czkRvvPlY_B_9NU,True
160,Delhi,NH 11(148B),Kathuwas,Km. 22.150,REWARI ATELI 0R0UL,5922,28.1421875,76.35968749999999,ChIJecu6-d2vEjkRvCK2LqQ59F0,True
161,Delhi,48,Kherki Daula,Km 42.000,Km. 11.060 to 42.000,272,28.3955548,76.98195179999999,ChIJIbwR8Xk9DTkRhmhwpe81ohQ,True
162,Delhi,NE 3,Rasoolpur Sikrod,Km 31.343,DME Pkg.IV Greenfield DelhiMeerut Expressway from Dasna to Meerut (Km. 27.740 to Km 59.777) in UP on EPC Mode,5926,28.6959658,77.5081797,ChIJEZqjbVPyDDkRLS-kANJ7UYA,True
163,Delhi,148 B,Sirohi Bahali,Sirohi Bahali Village,Paniyala Mor to 0r0ul,5873,27.9207192,76.1305457,ChIJrZLgxf9KbTkR3qjKIpLKJbk,True
164,Gujarat,NE-1,Ahmedabad,Km 2.600,Ahmedabad Vadodra Expressways 1 & 2,311,22.9758301,72.65034159999999,ChIJr1BT0pyIXjkRz-98lUaEdHo,False
165,Gujarat,NE-1,Anand,Km 43.855,Ahmedabad Vadodra Expressways 1 & 2,311,22.5975501,72.98494710000001,ChIJleZyF9dOXjkRTRyzMJ2_X-k,True
166,Gujarat,NE 01,Anand Toll Plaza,Anand,Ahmedabad To Vadodara (NE01),6682,22.5975501,72.98494710000001,ChIJleZyF9dOXjkRTRyzMJ2_X-k,True
167,Gujarat,8A (Old 47),Bagodara (MoRTH),Km 61.400,N.H.8A Km 61.4 to Km 182.4,339,22.6307375,72.179222,ChIJP7JL6MjFXjkRbJCtVlik1eU,True
168,Gujarat,8A (Old 47 ),Bamanbore (MoRTH),Km 182.400,NH 8A Km 61.4 to Km 182.4,362,22.4155343,71.0412338,ChIJf6yzq4WvWTkR1gYjt1gKXLY,True
169,Gujarat,751,Bhadbhid,Km. 142.290,Adhelai Village to Nari Junction,5871,21.9849691,72.09173129999999,ChIJFRPyAitJXzkRXpa169TbVV0,False
170,Gujarat,8,Bhagwada,Km 356.200,Surat Dahisar,288,20.435004,72.9170484,ChIJt6ZZo1zF4DsRaBR5ZcyFmOQ,False
171,Gujarat,14,Bhalgam (Belgaum),Km 502.100,Projects comprising of 1 National Highway Stretch on Toll Operate Transfer (TOT) Mode Tolling Operation Maintenance Transfer of PalanpurRadhanpurSamakhiyali section of NH27 from Km 536000,259,15.8496953,74.4976741,ChIJLzaVUJ9mvzsRX_ve3B6zNH4,True
172,Gujarat,48,Bharthan Karjan,Km 157.750,Vadodara - Bharuch,302,22.0144231,73.11493999999999,ChIJpUxkA8rrXzkRO5VCvkWQ42w,True
173,Gujarat,27 (old 8B),Bharudi,Km 156.800,Gondal - Rajkot,48,22.0826762,70.7810092,ChIJib5XXE82WDkRT3iNuqFy8nY,False
174,Gujarat,6,Bhatia,Km 89.860,Gujrat/ Maharashtra Border - Surat Hazira Port,428,21.0902946,72.9225048,ChIJMTIdKD5a4DsR3TPErs1WoXU,False
175,Gujarat,59,Bhatwada (Godhra),Km 146.400,Godhra - Gujarat / MP Border,374,22.7788044,73.6142795,ChIJY1SOOU6aYDkRyLQsbFL0C5U,True
176,Gujarat,14,Bhiladi,Km 403.000,Projects comprising of 1 National Highway Stretch on Toll Operate Transfer (TOT) Mode Tolling Operation Maintenance Transfer of PalanpurRadhanpurSamakhiyali section of NH27 from Km 589600,99,24.1438883,71.97713449999999,ChIJGUgZQLWfXDkRo-WKrWmvh6Y,False
177,Gujarat,341,Bhirandiyara Fee Plaza,Near Bhirandiyara Village,Bhuj Khavda Dharamshala section,6829,23.6712989,69.7137997,ChIJTWY0jQ9TUDkRH9t_Zp2nfZM,True
178,Gujarat,168,Bhordu,Bhordu,Upgradation of New National Highway No.168 to two lane with paved side shoulder configuration between Km 00 to 41300 Km 43250 to 68174 (TharadDhaneraPanthawada Section) including improvement o,5913,24.4473687,71.7516486,ChIJY8k-fQBNWzkRfKLP5d0i1JY,False
179,Gujarat,8,Boriach,Km 297.300,Surat Dahisar,287,20.8857308,73.05206439999999,ChIJqTHUJ3Dz4DsRFt3sayjk924,False
180,Gujarat,8,Choryasi,Km 245.650,Bharuch - Surat,50,21.3030757,72.9541547,ChIJd3H9m_1G4DsRm5qysZN_4M4,False
181,Gujarat,8 D,Dari,Km 108.980,Jetpur-Somnath (Km 0.000 to Km127.600),423,20.961272,70.3343116,ChIJXwh23lUx_TsRvpQowK6DwtU,False
182,Gujarat,27 (Old 8B ),Dhumiyani,Km 82.215,Porbander Jetpur (Km 1.960 to Km 117.600),142,21.7514473,70.3268159,ChIJw49w5HrzVzkRCTsrmD4mrew,False
183,Gujarat,NE4,DodakaToll Plaza,Chainage Km 847.291,Vadodara Mumbai Expressway Package I,6864,22.6708317,71.5723953,ChIJlfcOXx8FWTkRLlJU7YfYG4Y,True
184,Gujarat,NE 4,Fajalpur Toll Plaza,Chainage Km 849.171,Vadodara Mumbai Expressway Package I,6865,22.429287,73.0852029,ChIJe8Bh0n_KXzkRJ__gNa6gq9I,True
185,Gujarat,151 (Old 8D ),Gadoi,Km 51.250,Jetpur Somnath(Km 0.000 to 127.600 ),422,21.4248694,70.2952188,ChIJO4D8D4T9VzkRv5QV8_0WqsI,False
186,Gujarat,51,Gorsar,Km 342.730,Gadu Porbandar,5687,21.3182772,69.90994540000001,ChIJ47a3kSRj_TsRL2QTxAz1LZg,False
187,Gujarat,8,Kathpur,Km 472.035,6L of Shamla ji to Motachilodha from km.401.200 to km. 494.410 of Old NH8 (PkgVI),309,23.4101554,72.8286074,ChIJLcBDI17OXTkRUi9itxfHVL4,False
188,Gujarat,14,Khemana,Km 602.750,Four laning of Palanpur to Swaroopganj Section km. 601.000 to km. 677.000 in the State Gujarat through BOT (Annuity) Mode,202,24.2413497,72.462656,ChIJYzd8DnHpXDkR_w7un-Yjfvs,True
189,Gujarat,Old NH 8E New NH 51,Kobadi,18.150,Bhavnagar to Talaja section of NH51,5691,21.6382525,72.1453156,ChIJXTTecgFYXzkR9RHO8IHBfbs,True
190,Gujarat,NH 8E,Kuchadi,Kuchhadi at Km 409.500,Porbandar to Dwarka,5655,21.6975406,69.5334692,ChIJsed7NABJVjkRNDA43lGBNto,True
191,Gujarat,Nh113(New 56),Limdi,240.700,Padhi to Dahod section of NH113 in the state of Gujarat Rajasthan,4554,22.5687621,71.801943,ChIJX0wjGFUwWTkRU0erEksrH6o,True
192,Gujarat,15,Makhel,Km 394.200,Samakhiyali Santalpur section of NH27 (from Km 339700 to Km 430100 and Km. 589600 to 601000) in the State of Gujarat,97,23.4905057,70.94267529999999,ChIJZQHYKsNEWjkRtFwXZH_HMZY,False
193,Gujarat,6,Mandal (Vyara),Km 28.590,Gujrat/ Maharashtra Border - Surat Hazira Port,427,21.1347841,73.4784647,ChIJV46qFA_W3zsR4eOhiehQE_Y,True
194,Gujarat,41,Mokha,Km 44.500,Kandla - Mundra,448,22.9349438,69.8025567,ChIJVUPI1w3RUDkR2wkBn8CciBg,False
195,Gujarat,NE-1,Nadiad,Km 3.800,Ahmedabad Vadodra Expressways 1 & 2,311,22.6966315,72.89681139999999,ChIJ5bkLE5lbXjkRVkT7u79PydM,True
196,Gujarat,NE 01,Nadiad Toll Plaza,Nadiad,Ahmedabad To Vadodara (NE 01),6683,22.6966315,72.89681139999999,ChIJ5bkLE5lbXjkRVkT7u79PydM,True
197,Gujarat,NH8E,Nageshwari,152.05,Kagavadar to Una,5692,20.9166216,71.3222548,ChIJ5zNuagBR4jsRfih-b9kBjmQ,True
198,Gujarat,48,Narmada Bridge ( Mandva ),Km 195.800,Km. 192.000 to Km. 198.000,4541,21.7143817,73.0448727,ChIJg0eT7GMg4DsRqPr89HWcA9I,True
199,Gujarat,NH 8E,Okhamadhi,Km 470.875,Porbandar to Dwarka,5656,22.0800893,69.1333308,ChIJqVuV5A2JVjkRR_6c87jvhC0,True
200,Gujarat,168,Panthwada,Panthwada,Upgradation of New National Highway No.168 to two lane with paved side shoulder configuration between Km 00 to 41300 Km 43250 to 68174 (TharadDhaneraPanthawada Section) including improvement o,5912,24.4937955,72.26899000000002,ChIJL-TGF8G3XDkRsBmKFNVyqm0,True
201,Gujarat,27 (old 8B),Pithadiya,Km 120.700,Gondal - Rajkot,49,21.8054042,70.6638499,ChIJfZb38LUXWDkR0S2TheZhDN4,False
202,Gujarat,47,Pithai,km 37.300,Ahmedabad to Godhra (Km 4.2 Km 122.42 of NH 59),385,22.9128306,72.957337,ChIJkQeULi5pXjkRgD7K_ompgsk,False
203,Gujarat,8,Radhvanaj (Kheda),Km 44.005,6 Laning of Ahmedabad Vadodara Section from km 6.400 to km 102.300,467,22.7160742,72.7409796,ChIJZzLjFE9fXjkRmM_7xbWD08E,False
204,Gujarat,NE-1,Ring Raod,Km 86.000,Ahmedabad Vadodra Expressways 1 & 2,311,22.6708317,71.5723953,ChIJlfcOXx8FWTkRLlJU7YfYG4Y,True
205,Gujarat,NE 01,Ring Road (Ahmedabad),Ring Road,Ahmedabad To Vadodara (NE 01),6681,23.0304569,72.53273159999999,ChIJa2RFGcaEXjkRnPYyE6N_Sus,True
206,Gujarat,51,Rohisa,At 79.370 Km (Rohisa village),Talaja Mahuva Kagvadar section NH51,6788,21.1905337,71.8656683,ChIJx9Fjj4Ih4jsR9X-V6J_spd4,False
207,Gujarat,41,Samakhiyali,Km 308.600,Samakhiyali - Gandhidham,68,23.3085297,70.4906208,ChIJH37_Cvp0WjkRwvsCQJmWqhI,True
208,Gujarat,NE 4,Samiyala,Chainage Km 869.836,Vadodara Mumbai Expressway PackageII,6866,22.2607727,73.1191015,ChIJ8ZhAr7vHXzkRq1QXRPvIVHw,True
209,Gujarat,NE 4,Sanpa,Chainage Km 900.439,Vadodara Mumbai Expressway PackageII,6867,22.0054365,73.00643389999999,ChIJKXEc-0aVXzkROHZEY8qDIYY,True
210,Gujarat,51,Sundarpara Toll Plaza,Sundarpara Village,KodinarSomnath,6831,20.9017622,70.5152183,ChIJKeHiVADN4jsRgigiagCjEGc,False
211,Gujarat,27,Surajbari,Km 286.655,Garamore Samakhiyali (Km 254.000 to Km 306.000)( New Chaianage Km 254.537 to Km 307.034),263,23.2336088,70.6896665,ChIJ_0-FthUTWjkR3QjgvXliEtQ,False
212,Gujarat,151 A,Taran Toll Plaza,Taran,50.416 km,6785,22.7414528,70.4885689,ChIJbdrqEdf9WTkRRjowTlf3RgU,True
213,Gujarat,14,Undavariya/ Sirohi,Km 270.250,Four laning of Palanpur to Swaroopganj Section km. 601.000 to km. 677.000 in the State Gujarat through BOT (Annuity) Mode,244,22.6708317,71.5723953,ChIJlfcOXx8FWTkRLlJU7YfYG4Y,True
214,Gujarat,NE 01,Vadodara,Km. 86.00,Four Laning of AhmedabadVadodara Expressway from km.0.000 to km 93.302,5642,22.3071588,73.1812187,ChIJ_wvgGADJXzkRVx_tc5Gd2Nc,False
215,Gujarat,NE-1,Vadodra,Km 58.616,Ahmedabad Vadodra Expressways 1 & 2,311,22.3071588,73.1812187,ChIJ_wvgGADJXzkRVx_tc5Gd2Nc,True
216,Gujarat,8 A,Vaghasia,Km 213.100 NH 8 A in Gujarat,Garamore Bamanbore (Km 182.60 to Km 254.00)Bamanbore Garamore Section ( Kms. 182.600 to Kms 254.537),140,22.6478924,70.95555279999999,ChIJoYVSFTWXWTkRCZz_DbiIr4c,True
217,Gujarat,8 B,Vanana,Km 10.755,Porbander - Bhiladi (Km 1.960 to Km 52.500),199,21.6650169,69.7095448,ChIJiVtE-2DLVzkRrYv7iZ_M-JE,True
218,Gujarat,8,Vantada,Km 415.00,6L of Shamla ji to Motachilodha from km.401.200 to km. 494.410 of Old NH8 (PkgVI),308,23.6161332,73.2542826,ChIJGacav7iSXTkRkFrqSphY8Bo,False
219,Gujarat,15,Varahi,Km 461.720,Projects comprising of 1 National Highway Stretch on Toll Operate Transfer (TOT) Mode Tolling Operation Maintenance Transfer of PalanpurRadhanpurSamakhiyali section of NH27 from Km 536000,101,23.7913648,71.4276636,ChIJC_5Z_VIIWzkRyaGNbiPMzeo,False
220,Gujarat,8,Vasad,Km 92.000,6 Laning of Ahmedabad Vadodara Section from km 6.400 to km 102.300,466,22.4532502,73.07042779999999,ChIJ42y05kO1XzkRifnnYmk-OGY,False
221,Gujarat,47,Vavadikhurd,Km 110.436,Ahmedabad Godhra (Km 4.2 Km 122.42 of NH 59),386,22.7922588,73.53327709999999,ChIJraS8LiKcYDkRA8zUeW3dj4s,True
222,Gujarat,51,Velva Toll Plaza,212.325,40.95 Kms,6827,20.8065298,70.8145914,ChIJvbfKSgDh4jsR70SOaLu9Xoc,False
223,Haryana,54,Abubshahar,51.400,27.400 to 62.200,6825,29.8599109,74.6151551,ChIJacbW-pfdFjkRu8mURHbexDM,True
224,Haryana,54,Alikan,34.000,27.400 to 62.200,6823,29.6814728,75.12097039999999,ChIJO8hoMdg3ETkRcQQX3MsFI5g,True
225,Haryana,NH 152D,Amrawali Khera,78.983 km,00.00 to 227.02km,6639,29.3696995,76.4793559,ChIJ05i6KBv5DTkRzhA0oTw1mR0,True
226,Haryana,52 (Old 65),Badopatti,87.000,Kaithal to Haryana Rajasthan Border,4503,29.2993068,75.8199715,ChIJA-xuarIuEjkRuSixhuom0f8,False
227,Haryana,NH 152 D,Bahri,65.526 km,00.00 to 227.02km,6638,29.4855756,76.5199195,ChIJXyBtS70ADjkRS48QmrcKB7I,True
228,Haryana,NH 152D,Bainsi,118.400,00.00 to 227.02km,6641,29.0341485,76.4143406,ChIJBYGibXZ2EjkRmqggT12aF6o,True
229,Haryana,NH 709E,Bamla,Bhiwani,24.259,5987,28.8047442,76.2231693,ChIJJ9r80ShlEjkRNYxuXn6io3c,False
230,Haryana,NH 709A,Bass,41.632 (Near village Bass),BhiwaniMundhalJind (Ch. 6.875 to Ch. 68.857),5896,29.1273728,76.2095581,ChIJx2QyqcoTEjkRFku1oRkB768,True
231,Haryana,1,Bhagan,Km 53.600,Delhi Haryana Kundli Border to Panipat,4507,29.0717384,77.0605315,ChIJzROdCw_9DDkRryf0ceE-nrs,False
232,Haryana,NH 5 (Old 95),Bhago Majra,12.07,Kharar to Ludhiana,5644,30.1188508,77.1287004,ChIJVZD0KR9XDjkRWrgk1LnyVyA,True
233,Haryana,NH 152D,Bhalki,211.400,00.00 to 227.02km,6647,29.0587757,76.085601,ChIJC0BwhguwDTkRQ8GmqrSqLnM,True
234,Haryana,NH 9,Bhavdeen,241.920 Km,Hisar Dabwali Pkg II,4566,29.5464204,75.2158171,ChIJJfFwaABFETkRDgDeBZW_yTk,True
235,Haryana,334B,Bisalwas,Km. 88.950,97.864,5903,28.4692277,75.8903863,ChIJOYfEv2jlEjkRWX6mFDm9nIY,True
236,Haryana,NH 152D,Buchawas,200.867,00.00 to 227.02km,6646,28.2908,76.2305308,ChIJHWTpIPC8EjkRJqIbisSAVy0,True
237,Haryana,NH 152D,Chandlana,21.450 and 21.762,00.00 to 227.02 km,6635,29.8633168,76.6362293,ChIJrzUFf54iDjkRzfnXhlGu4Hg,True
238,Haryana,52 (Old 65),Chaudhriwas,135.900,Kaithal to Haryana Rajasthan Border,4504,29.00874619999999,75.6048047,ChIJgwtNK-LJEzkRNxUmZgnXv1g,True
239,Haryana,54,Chautala,60.300,27.400 to 62.200,6826,29.7807517,74.5221285,ChIJ0zZcbZfoFjkRHw-aGaHSDrQ,True
240,Haryana,334 B,Chhara,67.900 Km,Rohna Hassangarh to jhajjar section from km 44.80 to 80.250,5679,28.7139673,76.72463379999999,ChIJFWY6b5h3DTkRcRzW5jDa8DE,True
241,Haryana,54,Dabwali,30.400,27.400 to 62.200,6822,29.948049,74.7341349,ChIJZz5ysavZFjkRlDqJGAoRbN0,True
242,Haryana,NH 152D,Dadri,166.200,00.00 to 227.02km,6645,28.6057177,76.30247349999999,ChIJ-0ip7MeFEjkRBmkjvsZJlCc,True
243,Haryana,71A,Dahar,Km 73.450,Rohtak - Panipat,291,29.3191728,76.9184167,ChIJP-0V3qnEDTkRV3F-0EgDHYc,False
244,Haryana,71,Dighal,Km 370.420,Rohtak - Bawal,150,28.7774495,76.6213416,ChIJPZu7u8CCDTkROPgUopa5H6M,False
245,Haryana,71,Gangaycha Jatt,Km 430.000,Rohtak - Bawal,152,28.2752237,76.613339,ChIJC0-UxGhbDTkRu3wdGyVwlU0,True
246,Haryana,44(Old NH 01),Ghaggar,Km 211.805,Panipat Jalandhar,156,30.4037963,76.7368378,ChIJ1-bcGqbHDzkRMVdjvBSFxAQ,True
247,Haryana,44(Old NH 01),Gharaunda (Karnal),Km 111.483,Panipat Jalandhar,155,29.5843523,76.9788744,ChIJ17DrHBd3DjkRoLuxwM0ZNhY,False
248,Haryana,NE4,Ghata Shamsabad Toll Plaza,66.587,Delhi Vadodara Exoressway Pkg3 (Km. 47.000 to Km. 78.800),6654,27.7593534,77.01614359999999,ChIJM_jkC7XccjkRf7D4_-oBm9g,True
249,Haryana,NH 5 (Old 95),Ghulal,60,Kharar to Ludhiana,5645,29.0587757,76.085601,ChIJC0BwhguwDTkRQ8GmqrSqLnM,True
250,Haryana,NE4,Hilalpur Toll Plaza,12.930,Delhi Vadodara Exoressway Pkg1 (Km. 0.000 to Km. 18.461),6651,28.1992094,77.1341351,ChIJKZpxIeIoDTkRbVrIucDqeK4,True
251,Haryana,NH 7 (OLD 73),Jaloli,158.579,Yamu00gar to Panchkula,5643,30.5815984,76.9405398,ChIJBcguNOu9DzkRJZAQFM_iLhU,True
252,Haryana,NH 152D,Jat Guwana,221.832,00.00 to 227.02km,6648,28.1211933,76.1794815,ChIJgeC_A5ixEjkRWuC970FQpv8,True
253,Haryana,NH 334B,Jharothi,jharothi,UPHarya0 Border to Roha0 Pkg1,5894,28.922431,76.9523538,ChIJM_iH7jilDTkRnB_x45s0i_Q,False
254,Haryana,NH 54,Jogewala,27.700 and 28.120,27.400 to 62.200,6821,29.0587757,76.085601,ChIJC0BwhguwDTkRQ8GmqrSqLnM,True
255,Haryana,NE4,Kalinger Toll Plaza,35.500,Delhi Vadodara Exoressway Pkg2 (Km. 18.500 to Km. 47.000),6653,29.0587757,76.085601,ChIJC0BwhguwDTkRQ8GmqrSqLnM,True
256,Haryana,NE4,Khalilpur Toll Plaza,19.803,Delhi Vadodara Exoressway Pkg2 (Km. 18.500 to Km. 47.000),6652,28.1582097,77.15393209999999,ChIJz9Ev1vQrDTkRV4Xy7yUVrk4,False
257,Haryana,NH 152D,Kharkhra,129.432,00.00 to 227.02km,6642,28.9367976,76.3666226,ChIJTZS1FDN3EjkRgs7Ek1LTYOs,True
258,Haryana,Old No.71 (New NH 52352),Khatkar,km. 286.125 (Near Village Khatkar),Punjab Border to Jind Section from km. 239.695 to km. 307.000,5744,29.3945192,76.252467,ChIJDTZ56GMdEjkRk5Azue6UmqU,True
259,Haryana,NH 152D,Kherari,141.045,00.00 to 227.02km,6644,28.7857136,76.36951669999999,ChIJwfxNOJ9-EjkRo4mrVx2zONk,True
260,Haryana,NH 152D,Kheri Sharaf Ali,57.831 km,00.00 to 227.02km,6637,29.0587757,76.085601,ChIJC0BwhguwDTkRQ8GmqrSqLnM,True
261,Haryana,NH 152D,Kilazafargarh,110.181 km,00.00 to 227.02km,6640,29.0983865,76.4254498,ChIJJSYICiQLEjkRDjMQdq6nQg4,True
262,Haryana,NH 148B,Kitlana,Km 94.600 to Km 125.920,Raj.Hr. Border to Bhiwani to Hansi to Punjab Border,5654,28.6792117,76.1747511,ChIJJX8NZR-KEjkR8NqBiN2gZ4Q,True
263,Haryana,9 (Old 10),Landhari,184.035,Hisar to Dabwali,4501,29.2923829,75.6481805,ChIJIYRVlHPUEzkR9KrLx3fHc2M,False
264,Haryana,352A,Ludana,CH. 23.922,50.505,5886,29.2410185,76.5098017,ChIJwad3GgL3DTkRjLNnD8kbH18,True
265,Haryana,10,Madina Korsan,Km 99.835,Rohtak Hisar (Km 87.00 to Km 170.00),468,28.9185062,76.4389549,ChIJcYxZm_N3EjkR1gddeOyDVSI,True
266,Haryana,71A,Makrauli Kalan,Km 14.600,Rohtak - Panipat,292,28.944213,76.60981880000001,ChIJxxHSq5GPDTkReaXnAATTaWU,True
267,Haryana,NH 152 D,Mohna,32.464 km,00.00 to 227.02 km,6636,29.77528079999999,76.6023338,ChIJMxeiR9EZDjkRWMf7luvUJyw,False
268,Haryana,334B,Morwala,Km. 32.460,97.864,5902,28.639011,76.40279369999999,ChIJp3gBRXyBEjkRXv9V6T7zfzU,True
269,Haryana,52 (Old 65),Narwana,36.776,Kaithal to Haryana Rajasthan Border,4502,29.5785349,76.0884794,ChIJI2uBCsvyETkR_UyNdPRsziM,False
270,Haryana,NH 152D,Pabnawa,16.400,00.00 to 227.02km,6634,29.9094158,76.6470952,ChIJ0coybaE9DjkRE1bV_n-4VkI,False
271,Haryana,44(Old NH 01),Panipat Elevated,Km 95,Panipat Elevated Highway (Km 86.000 to Km 96.000),154,29.4334065,76.9703239,ChIJK8oaWIPZDTkR-e-ytJ0hfMY,False
272,Haryana,709A,Peont,128.8,2lane with paved shoulder for JindKar0l section of NH709A,5709,29.6242056,76.7863953,ChIJSQAC70cNDjkRQeKdIi0XBR0,True
273,Haryana,NE 4,Pinan Toll Plaza,129.017,Delhi Vadodara Exoressway Pkg5 (Km. 115.700 to Km. 151.840),6658,29.0587757,76.085601,ChIJC0BwhguwDTkRQ8GmqrSqLnM,True
274,Haryana,10,Ramayana (Mayar),Km 161.500,Rohtak - Hisar (Km 87.00 to Km 170.00),469,29.1008245,75.8849029,ChIJ21gm1mg3EjkR7jz0bfOzbbc,True
275,Haryana,10,Rohad,Km 52.460,Delhi-Haryan -Rohtak- Hisar,455,28.7545182,76.7951868,ChIJwTIwiWV1DTkR-IPcjbD9a6I,False
276,Haryana,152(old NH65),Saini Majra,At Km 28.160,Ambala to Pehowa,5746,30.1968873,76.7054516,ChIJYwjBZ7wzDjkRfEIf2_WMwFM,True
277,Haryana,NE 4,Sheetal Toll Plaza,102.000,Delhi Vadodara Exoressway Pkg4 (Km. 78.800 to Km. 115.700),6657,29.0587757,76.085601,ChIJC0BwhguwDTkRQ8GmqrSqLnM,True
278,Haryana,54,Shergarh,40.600,27.400 to 62.200,6824,29.0587757,76.085601,ChIJC0BwhguwDTkRQ8GmqrSqLnM,True
279,Haryana,152(old NH65),Thana,At Km 68.680 design chainage (existing chainage at km. 64.000),Pehowa to Kaithal,5747,29.9101154,76.506677,ChIJfxxynRohDjkRu3mkoYiJQM0,True
280,Himachal Pradesh,NH2 1 (Now 205 and NH 154),Baloh Fee Plaza,Baloh Bilaspur,Kiratpur Ner Chowk,6701,31.6725175,76.631163,ChIJ4ZnCTo3XBDkRKt53pGJD6H8,True
281,Himachal Pradesh,3,Dolhu Nallah (Raison),Km. 285.600,Kullu Ma0li,5920,32.0718595,77.1302592,ChIJ7S7WPACLBDkR_qOfkaWBghE,True
282,Himachal Pradesh,NH 154 and NH 205,Moura Toll Plaza,KM. 81.620,KIRATPURNERCHONK,6700,32.1024076,77.5619419,ChIJ9wH5Z8NTBDkRJXdLVsUE_nw,True
283,Himachal Pradesh,5,Sanwara,Km 80.722,Parwanoo Solan,5745,30.8913155,77.00528369999999,ChIJ8dP2pweJDzkR_MNyP7e2wWs,False
284,Himachal Pradesh,NH3,Takoli Toll Plaza,203.921,PandohTakoliKullu (178795205188),6585,31.7989791,77.1889624,ChIJDU0mDaX5BDkRjANO9CCNyBs,False
285,Jammu and Kashmir,44,Bann,Km 22.400,Jammu Bypass - Udhampur (Km 15.000 to Km 67.000),190,32.8390127,74.9403467,ChIJFaQ4YUmAHjkRLI_uhbq6Gpw,True
286,Jammu and Kashmir,244 A,Dondpur,Dondpur,SEMI RING ROAD FROM RAYA MORH TO JAGTI,6846,32.7627737,74.8911493,ChIJxdT5LACDHjkR4O1s87tklPc,True
287,Jammu and Kashmir,44,Kaichachkoot,KM 258.564 (NH44),Srinagar Banhilal Banhilal Bypass,5787,33.277839,75.34121789999999,ChIJD-1cchha_TgREs7grBNmH2M,True
288,Jammu and Kashmir,1 A,Lakhanpur Rajbagh,Km 16.350,Jammu - Pathankot,141,34.0661987,74.8287807,ChIJEYhJYgqP4TgRAxcLB4ZuEF0,True
289,Jammu and Kashmir,44,Lamber,Km. 193.760,Banihal (km 189.350) to Quazigund (220.700),5771,33.4774375,75.1841875,ChIJKy7OE1_xHTkRtFMIoeY-C08,True
290,Jammu and Kashmir,1A,Mada,Km 90.176,Chenani Nashri section of NH44 (New alignment) from Chenani Rotary to Nashri Rotary including 9 km long tunnel,492,33.0231858,75.2473092,ChIJi_WmhdLOHTkR616j2mxHBO4,True
291,Jammu and Kashmir,NH 44,Nashri,99.800,Chenani Nashri section of NH44 (New alignment) from Chenani Rotary to Nashri Rotary including 9 km long tunnel,493,33.1305741,75.29414299999999,ChIJvTWtCITHHTkR-BC71gmFSD0,True
292,Jammu and Kashmir,44,Ujroo,Km. 204.563,Banihal (km 189.350) to Quazigund (220.700),5772,33.566817,75.1859101,ChIJTwt3dKf3HTkRz78uJIf0_kA,True
293,Jharkhand,33,Edalhatu,162.750 Km.,Existing from km. 140.000 to km. 217.300 (Ranchi Rargaon section),5796,23.1776966,85.57725119999999,ChIJUZEqNQAH9TkRIEUEsI4kgRg,False
294,Jharkhand,19,Ghanghri (Kulgo ),Km 346.100,Gorhar - Barwa Adda (Km 320.00 - Km 398.750),226,24.0021625,85.9764282,ChIJdUHdm5sL9DkRZeOH-2SlIyg,True
295,Jharkhand,NH 33,Hazaribag,at km 30.400,Barhi Hazaribagh Section from km 0.000 to km 40.500,5742,24.0444982,85.38610729999999,ChIJIURSVRKd9DkRiyTBrKvykjc,True
296,Jharkhand,75,Hesmi (Mandar),Hesmi,Ranchi Piska More Bijuparakuru section from design chai0ge km 3.600 to km. 55.00 of NH75 in the state of Jharkhand,5870,23.4674957,85.0729949,ChIJdemO40jQ9DkR3os53NsvQEg,True
297,Jharkhand,75 (New NH 39),Kauwakhoh (Hariharnath)Toll Plaza,32.750,Four laning between Km 23.284 (Hariharganj) to Km 57.000 (Near Parwa More) on NH98 on Hybrid Annuity Mode in the state of Bihar Jharkhand.,6793,24.5058349,84.2486539,ChIJh12GII5fjDkR3lUz_3B2Vt8,False
298,Jharkhand,NH18 and NH49,Kokpara,KOKPARA,MAHULIYA BAHARAGORA,5741,22.4460566,86.59834780000001,ChIJ90Tc52mNHToRpX84EUaqVLg,False
299,Jharkhand,NH 133,Kothiya,Km. 109.880,Km.94.000 To km.131.000,5751,24.5421459,86.9594391,ChIJKVKZl_rh8DkRRv6pq96xddA,True
300,Jharkhand,NH33,Nagwan Toll Plaza,AT Km 30.400 of BarhiHazaribagh section,From Km 0000 TO Km 41279,6650,24.0444982,85.38610729999999,ChIJIURSVRKd9DkRiyTBrKvykjc,True
301,Jharkhand,114A,Navasari,at Km. 232.385,User fee collection at Toll Plaza 0vasari (Km 232.385) near village 0vasari in Dist. Giridih for the stretch from Km. 216 to Km. 244.482 of NH114A in the state of Jharkhand,5756,24.2779047,86.3467982,ChIJpXE7P1JR8TkRC8VhWUBYgo0,True
302,Jharkhand,NH33,Pata,Pata Chandil Jharkhand,Four Laning of RanchiMahulia Section of NH 33 (from Km. 217.300 to km. 233.350 (16.05 km length) in the State of Jharkhand under NHDP PhaseIII on EPC mode (Item Rate) (PackageIII),6761,22.9301532,86.0638701,ChIJoRP8g6zp9TkRU4ueaht2sEg,True
303,Jharkhand,23,Patrachauli Toll Plaza,Patrachauli,4L of Piska More (Km. 2.90) to Palma (Km. 26.00) of NH 23,6742,23.3214381,85.150843,ChIJpcYVtU_Z9DkRvzas7jS7wYQ,True
304,Jharkhand,33,Pundag,Km 98.930,Hazaribagh - Ranchi (Km 40.500 - Km 114.000),178,23.5428265,85.50275049999999,ChIJY_YaO8Pw9DkRUlLMGTZAklc,False
305,Jharkhand,NH 32,Pupunki,Pupunki,Rajganj Chas West Bengal Border,6590,23.70793,86.20080109999999,ChIJQ57bfd0h9DkRy3CaEUoAyQg,True
306,Jharkhand,18,Putru,Putru,Four Laning of JamshedpurMahulia Section of NH 33 (from Km.233.350 to km. 277.568) in the State of Jharkhand under NHDP PhaseIII on EPC mode(item rate) (PackageIV).,6649,22.6837639,86.3959473,ChIJ3V5PCpkE9jkRKKVU-RZ7s2c,True
307,Jharkhand,19,Rasoiya Dhamna,Km 279.425,Barachetti - Gorhar (Km 240.00 - Km 320.00),225,24.3234251,85.3880896,ChIJtwSlhvpu8zkR1Dp0n9pBxr4,False
308,Jharkhand,23,Sosokhurd,Km 53.740,Chas Ramgarh Section,4508,23.548758,85.7569281,ChIJvZtPj89a9DkRbtn6zRIc8os,False
309,Jharkhand,23,Tand Balidih,Km 16.770,Chas Ramgarh Section,4509,23.6665269,86.0581267,ChIJ8Tfigqw99DkRo2lxgpDIsSM,True
310,Jharkhand,33,Turup Toll Plaza,Turup,Balance work of RanchiMahulia Section of NH33 from Km 113.730 (Vikas) to Km 140.000 (Rampur) (PkgI),6857,23.609661,85.2803461,ChIJMxU2TwDr9DkRvQuuY90SrhA,False
311,Karnataka,44,Attibele (BETPL),Km 32.700,Silk Board Junction Attibele,312,12.7769113,77.7771353,ChIJjxu4iaRxrjsRq8u9LCnNfKs,True
312,Karnataka,7,Bagepalli,Km 464.774,AP/ Karnataka Border - Devanhalli (Km 462.164 to Km 533.619),187,13.793022,77.7643183,ChIJGc8Ib1-FsTsRFI6JuOkkdI8,False
313,Karnataka,150 A,Balenahalli,397.400 Km.,Challakere to Hiriyur Section,6830,14.267297,76.5430429,ChIJ-YMnSACfsDsR4cmD9ncXrqg,True
314,Karnataka,4,Bankapur,Km 352.550,Gabbur - Devgiri (Km 404.000 To Km 340.000),5,14.9200706,75.2624898,ChIJ6a3uewBBuTsRSE1rqDSDO_Y,True
315,Karnataka,NH66 old NH17,Belekeri,131.2,Km. 93.700 to Km. 283.300,5631,14.7118905,74.293292,ChIJh8YBG6OJvjsRoDYHEgz3ld4,True
316,Karnataka,73,Brahamarakotlu,Km 331.290,B. C. Road to Padil 1.6 Km Bypass on NH73 from Padil towards Nanthoor,11,12.875261,75.0038619,ChIJA27XlZCnpDsRi1nQKQ2R3LU,False
317,Karnataka,4,Chalageri,Km 288.200,HadadiDevagiri (km.260.000 to km.340.000),29,14.5568588,75.7280533,ChIJO7XVBMUqujsR_dLwk-woFXE,False
318,Karnataka,75,Chowlaggere Toll plaza,Chowlgere Alur,Four laning of Hassan (Existing Km 189.700 Design Ch. 184.912) to Maranahally (Existing Km 237.000 Design Ch. 230.060),6858,14.5568588,75.7280533,ChIJO7XVBMUqujsR_dLwk-woFXE,True
319,Karnataka,75,Doddakarenahalli (Neelmangala ),Km 32.600,Neelmangala Junction to Devihalli,58,13.0686968,77.3450155,ChIJIT4dOcUvrjsR9ZU8xCfRvdI,True
320,Karnataka,44,Elevated Section/ Electronic City,Km 18.000,Silk Board Junction Electronic City,314,12.8419698,77.67547619999999,ChIJIU_LvYxsrjsR3l4xOl-M5hE,True
321,Karnataka,4,Gabbur (MoRTH),Km 408.000,Hubli â€“ Dharwad bypass from Km.403.800 to 433.200,316,15.366502,76.2623945,ChIJAbytALsyuDsRPtSUYiTlsw4,True
322,Karnataka,NH 48,Gabbur Toll Plaza,Gabbur,30.40 KM,6741,15.3186632,75.1399318,ChIJbQuBgpvXuDsRudkK6vNRccg,True
323,Karnataka,NH 75,Gaddur (Nangli),Km 217.450,Four Laning of Mulbagal APKNT Border section of Nh75 from Km 216.912 to 239.100 in the state of karnataka to be executed as BOT (Toll) on DBFO Pattern under NHDP Phase III,440,15.3172775,75.7138884,ChIJj0i_N0xaozsR1Xx10YzS8UE,True
324,Karnataka,NH 275,Gananguru Plaza,116.500,6Laning of Nidagatta to Mysuru section NH275 from Km 74.200 to Km 135.304,6693,12.4704045,76.7625073,ChIJ84cBd4p1rzsR8Tz_rl9V44Q,True
325,Karnataka,Old NH 4A ( New 748),Ganebail Toll Plaza,Km. 19.200 Ganebail,Km.0.000 to 30.000,6772,15.6872213,74.490661,ChIJ5SKHjQNsvzsRDcUeIcZRz_o,True
326,Karnataka,NH 48,Goa Road Interchange,Goa Road,30.40 KM,6747,15.3172775,75.7138884,ChIJj0i_N0xaozsR1Xx10YzS8UE,True
327,Karnataka,48,Guilalu,Km 172.770,Tumkur - Chitradurga,267,14.0537975,76.5605183,ChIJ085EYI-EsDsRa2jE1I9MKDA,False
328,Karnataka,66,Gundmi ( Sasthan ),Km 300.480,Kundapur to Udyavara,479,13.476403,74.71307929999999,ChIJN_UoAl2WvDsRXJCUq4pNFBM,False
329,Karnataka,NH67 (old NH63),Halligudi,Km. 220.160,Hubballi Hospet section of NH63 from Design Chai0ge Km.128.850 to Km. 272.571 (Existing Km.129.549 to Km. 267.00) in the state of Kar0taka,5885,15.3908223,75.8551505,ChIJg70pW-RTuDsR80FqUiJg_HQ,False
330,Karnataka,NH218 (New NH50),Harwal,at Km. 303.400 (Temporarily located at Km.302.500) Harwal Vllage Tq Jewargi Dist Kalaburagi),BijapurGulbargaHom0bad section,4629,17.059433,76.6864524,ChIJkTXX2CuQyDsR4N5ihu-yDTQ,True
331,Karnataka,4,Hattargi,Km 537.770,Hattargi - Hirebagewadi (Km 537.000 to Km 515.000),8,16.1433334,74.5169797,ChIJYz4Q_uOZwDsR3QcJzBo1OQw,True
332,Karnataka,66,Hazamady,347.180,Kundapur - Surathkal,480,15.3172775,75.7138884,ChIJj0i_N0xaozsR1Xx10YzS8UE,True
333,Karnataka,48,Hebbalu,Km 237.650,Doddasiddavanahally - Hadadi (Km 189.000 to Km 260.000),295,14.3756144,76.1066948,ChIJx0vitDcWujsRd6Reu5KLHSQ,False
334,Karnataka,66,Hejamadi,Km. 347.180,Udyavara to Surathkal,5718,13.109918,74.782777,ChIJT4ykWmCtvDsREHE2CMucHio,True
335,Karnataka,4,Hirebagewadi,Km 482.600,Belgaum - Dharwad,6,15.7630685,74.64784829999999,ChIJVf4uxBtDvzsR7d3wuCJd3FE,False
336,Karnataka,150 A,Hirehalli,Km. 341.300,BYRAPURA To CHALLAKERE,5890,15.3172775,75.7138884,ChIJj0i_N0xaozsR1Xx10YzS8UE,True
337,Karnataka,13,Hitnal,Km 288.000,Hungund - Hospet (Km 202.000 to 299.000),379,15.323393,76.30352549999999,ChIJ4ZpwBu_SuTsRgo-QTMeYYo8,False
338,Karnataka,NH66 old NH17,Holegadde,182.853,Km. 93.700 to Km. 283.300,5632,14.3667376,74.421785,ChIJ0ahqUnYlvDsRH2cj898Snms,True
339,Karnataka,75,Hoskote,Km 307.700,Bangalore Kolar Mulbagal,186,13.0596335,77.7705976,ChIJaYJ6iYwPrjsRNiDi_AAAoRA,True
340,Karnataka,648 (Old NH 207),Hulikunte,12.300 Km.,Dobaspet to Dodaballapur Bypass Section,6812,13.2708433,77.348219,ChIJ99UqytzXsTsRHl_Yea3v9Ko,False
341,Karnataka,150A,Jajirakallu Toll Plaza,JAJARAKALLU TOLL PLAZA,Four Laning BELLARY BYRAPURA Section,5979,15.3172775,75.7138884,ChIJj0i_N0xaozsR1Xx10YzS8UE,True
342,Karnataka,212 (New766),K N Hundy,km 200.400,Kerala border Kollegal,5720,12.2130339,76.6629785,ChIJT4Y1GixvrzsR9ZIItMmHQgM,False
343,Karnataka,NH 48,Kalghatagi Road Interchange,Kalghatagi Road,30.40 KM,6746,15.0607278,74.8559072,ChIJR-NdunuhwDsRro66-rnDEa8,True
344,Karnataka,65 (Old 9),Kamkole,Km 464.600,MH KNT Border to Sangareddy,4513,15.3172775,75.7138884,ChIJj0i_N0xaozsR1Xx10YzS8UE,True
345,Karnataka,NH 275,Kaniminini (LHS),Near Kengeri Kaniminke Toll Plaza Km 23.900,Laning of Bengaluru to Nidagatta section NH275 from Km 18.000 to Km 74.200,6695,15.3172775,75.7138884,ChIJj0i_N0xaozsR1Xx10YzS8UE,True
346,Karnataka,NH-50(Old NH-13),Kannanakatte,Kananakatte,59.570 ( 60.080 Kms),5992,14.5377675,76.4267983,ChIJjUERP5AHujsR4UsZLdRH0Uw,True
347,Karnataka,212 (New766),Kannegala,At km 144.130,Kerala border Kollegal,5722,11.7803417,76.6008334,ChIJiRgS89dSrzsRKagPKZXmcJs,True
348,Karnataka,NH218 (New NH50),Kannolli,at Km. 241.100 (Temporarily located at Km.240.100) Kannolli Vllage Tq Sindagi Dist Vijayapura),BijapurGulbargaHom0bad section,4628,16.8562957,76.15655029999999,ChIJ20Q5iB01xjsRddYNyFi-MGU,False
349,Karnataka,75,Karabylu (Bellur Cross),Km 101.250,Neelamangla Junction - Devihalli,116,12.9627657,76.7704188,ChIJbXA0HQXprzsRnvanH844G0A,False
350,Karnataka,48,Karjeevanhalli,Km 104.530,Tumkur - Chitradurga including Tumkur Bypass,269,13.6121216,76.9542932,ChIJ91IVwgJHsDsRyoEh0WrPXN4,False
351,Karnataka,NH 48,Karwar Road Interchange,Karwar Road,30.40 KM,6745,15.3482011,75.1333819,ChIJSSpVmj_XuDsRd0seXRxN2mc,True
352,Karnataka,50,Kasaba (Bijapur),Km 103.888 Vijaypur,Bijapur - Hungund,242,16.8301708,75.710031,ChIJb3CqmH1VxjsR0uiPTnmh1O0,True
353,Karnataka,4,Kaythsandra/Tumkur/Chokkanahalli,Km 61.500,Nelamangala - Tumkur,271,13.3020161,77.1620066,ChIJp58-YmMrsDsR5qoszChAfZQ,True
354,Karnataka,75,Kirisave (Kadabhalli),Km 119.100,Hassan - Devihalli,188,12.9583074,76.6235202,ChIJaxcx_MvxrzsRf4rnH6rgzi4,True
355,Karnataka,4,Kognoli,Km 591.240,Maharashtra Border -Belgaum (Km 592.240 to Km 537.000),9,16.5421837,74.31823299999999,ChIJMwP_eiz6wDsRLH_iS2-OZKU,False
356,Karnataka,65 (Old 9),Mangalgi,Km 407.500,MH KNT Border to Sangareddy,4512,17.7455609,77.3178981,ChIJI2qtgW7RzjsRczfBKCmSarM,True
357,Karnataka,75,Mulbagal,KM 246/750,Mulbagal-Kolar-Bangalore section (Km 237.000 to Km 318.000),387,13.1484632,78.2905463,ChIJAz8zizLzrTsRTCvPTwo5SHI,False
358,Karnataka,161 A,Mustapur,At Km.24.400 (Mustapur Village Aurad Taluk Bidar District),Aurad Bidar section,6863,17.9430092,77.0075055,ChIJPUhuFiw9zzsRrxIlBwSFsCI,True
359,Karnataka,50,Nagarahlla,Km 165.650,Bijapur Hungund 48.61,315,16.2904811,75.92360359999999,ChIJ33_IL16QxzsRD0OcFancb54,True
360,Karnataka,NH67 (Old NH63),Nalawadi,Km.161.200,4 laning of Hubli Hospet Section,5884,15.369722,75.3575,ChIJnf-q72jhuDsRRT3K0mtfpzc,False
361,Karnataka,648,Nalluru Devanahalli,Nalluru (64690),37.6 Km,6751,13.2074417,77.76191949999999,ChIJd7Q6yTkDrjsRb9sBiMfaTBo,True
362,Karnataka,NH 4,Narendra (MoRTH),Near Dharwad,Bangalore Pune Section,321,15.3172775,75.7138884,ChIJj0i_N0xaozsR1Xx10YzS8UE,True
363,Karnataka,NH 48,Narendra Toll Plaza,Narendra plaza,30.40 KM,6743,15.4887404,74.96985149999999,ChIJdVNZjSzNuDsR5-Yc2kOuDA4,False
364,Karnataka,4,Neelamangala - Tumkur /Kulumepalya,Km 30.000,Neelmangla - Tumkur,313,13.114773,77.374746,ChIJhTGEnWAvrjsR9bO91UTG-wA,True
365,Karnataka,NH-73,Rajatadripura Toll Plaza,Km 12+300 to 83+800 of Tumakuru Shivamogga section of NH-206,4L of TumkurShimoga (PkgI) from Mallasandra Km.12.3 to Km 65.195 (Karadi) of NH206,5975,13.3191086,76.6963033,ChIJi3GueUMbsDsRFnlqr1NnU_4,True
366,Karnataka,44,Sadahalli,Km 538.000,Devanahalli - Bangalore (Km 534.720 - Km 556.84 of Bangalore - Hyderabad),270,13.2111655,77.64609540000001,ChIJ9xW6FXEerjsRG-3JON-c2Mk,True
367,Karnataka,13,Shahapur,Km 283.500,Hungund - Hospet (Km 202.000 to 299.000),300,15.3578875,76.31282809999999,ChIJezdsdCstuDsRQLfkSmavf7Y,True
368,Karnataka,75,Shanthigrama,Km 169.350,Hassan - Devihalli,189,12.9827185,76.2289957,ChIJicIKy35FpTsRchoz2HUR6H0,False
369,Karnataka,NH 275,Sheshagirihalli Toll Plaza,Near Kengeri Kaniminke Toll Plaza Km 23.900 26.800,Laning of Bengaluru to Nidagatta section NH275 from Km 18.000 to Km 74.200,6694,12.840454,77.4184562,ChIJj_sdFgBHrjsRD21-6MOA8G4,True
370,Karnataka,NH66 old NH17,Shirur,239.64,Km. 93.700 to Km. 283.300,5633,13.9337518,74.59697899999999,ChIJIZawIoFnvDsRKKbm6L0hz7k,True
371,Karnataka,66,Surathkal,Km 358.042,Surathkal - Nantoor & Nantoor Bypass (Km 358.000 to 375.300 & 1.6 Km of Nantoor ByPass),459,13.013355,74.7929276,ChIJFyzAAhJSozsRLOswJWJDbts,False
372,Karnataka,66,Talapady,16.600,Nanthoor to Talapady,481,12.7646754,74.8890953,ChIJY3nvUHVeozsRaiH3w2CJl60,True
373,Karnataka,NH 48,Tarihal Road Interchange,Tarihal Road,30.40 KM,6748,15.3733119,75.0762491,ChIJc6vk707RuDsRPd5j-k9q9zA,True
374,Karnataka,NH50(Old NH13),Thimmalapura,Thimmalpura,59.924 Km,5891,15.0573092,76.3569291,ChIJn_hCuPPduTsRZTgM1cjxQK4,True
375,Karnataka,4,Towards Bengaluru,Km 26.075,Banglore - Neelamangla (Km 10.00 to Km 29.50),28,13.0570825,77.4719257,ChIJgXSKvn0jrjsRRH-KDUpucvs,True
376,Karnataka,4,Towards Neelmangla,Km 14.875,Banglore - Neelamangla (Km 10.00 to Km 29.50),28,13.097301,77.38563979999999,ChIJY8pZfYQlrjsRkzL3bbIj7vc,True
377,Karnataka,13,Vanagari,Km 229.061,Hungund - Hospet (Km 202.000 to 299.000),301,15.3172775,75.7138884,ChIJj0i_N0xaozsR1Xx10YzS8UE,True
378,Karnataka,212 (New766),Yeddore,km 236.550,Kerala border Kollegal,5721,12.245793,76.8843467,ChIJazagoLoTrzsR58UTk6SzHbE,True
379,Kerala,66,Akkulam (MoRTH),Km 6.400,Aroor - Kerala/Tamil Nadu Border Section (Km 5.750 to Km 6.119 on NH 66 Bypass),371,8.5334906,76.90474379999999,ChIJOdwY4h28BTsRWhBo6Eis6KE,True
380,Kerala,544,Chullimada Hamlet (Pampampallam),Km 189.400,Walayar - Vadakkanchery (Km 182.500 to Km 240.00 ),408,10.7977207,76.7927981,ChIJSaPE9ZBpqDsRUdlSvuBbogk,True
381,Kerala,66,Kollam,KOLLAM BYPASS,KM.486.500.TO KM.499.500,5783,8.921184499999999,76.5759257,ChIJXZkqIb79BTsRRwS5cttCKok,False
382,Kerala,66,Kumbalam,Km 356.500,Edapally Vytilla Aroor Section ( Km 342.00 to Km 358.750),100,9.8952733,76.3135293,ChIJWft_TCxyCDsRV8EyW9neEBE,False
383,Kerala,966 B,Kundannur (MoRTH),Km 5.800 & 2.800,Kundannur (Km 2.800 - 5.800),370,10.7082247,76.21115069999999,ChIJ8VWsI07CpzsRKQ1oU5Ntmxo,True
384,Kerala,544,Paliyekkara,Km 278.000,Thrissur - Angamali - Edapalli,114,10.4428845,76.26016039999999,ChIJAVyNVQDxpzsRPNGfd9vJSYk,True
385,Kerala,NH 544,Panniyankara Toll Plaza,Panniyankara Ch. 239.030,Vadakkenchery (Km 236.135) to Thrissur (Km 264.490) of NH544,6667,10.5910395,76.4585616,ChIJAwLWIXAJqDsRxZzQk0-vMa8,False
386,Kerala,966A (Old 47C ),Ponnarimangalam,Km 12.750,Kalamassery - ICTT Vallarpadam,412,10.0104702,76.25800470000001,ChIJSc2eoJoSCDsRtIaZAGhChi4,False
387,Kerala,66,Thiruvallam,THIRUVALLAM,KOLLAM TO KANYAKUMARI,5888,8.4478996,76.9556643,ChIJe2Zspy27BTsR1-PYNoOKdLU,True
388,Kerala,NH 66,Thiruvangad Toll Plaza,Thiruvangad,Thalassery Mahe Bypass Section of NH 66,6766,11.7460934,75.5009678,ChIJIT7o60smpDsRgmcVJVhcHkU,True
389,Kerala,66,Varapuzha Bridge (MoRTH),Km 430.800,Varapuzha Bridge,373,10.0728562,76.2815233,ChIJ5W5plRoOCDsR-cIFHB86Gw0,True
390,Madhya Pradesh,7,Ashoka DSC Katni bypass (MoRTH),Km 361.2 To 378.6,Katni bypass (Km 361.200 To 378.600),349,23.7687,80.33489999999999,ChIJB4Ee1JdjgTkR2MGHSUwct20,True
391,Madhya Pradesh,69,Bagwada,At Km. 31.700,Obedullaganj Itarsi,5793,22.7816496,77.73199269999999,ChIJV4BRwtjPfTkR_r8k-mqNbM8,True
392,Madhya Pradesh,47,Baharagaon,Village Baharagaon Harda Betul road NH47 Tehsil Timarni Dist. Harda Pin 461228,HardaBetul section from Km 0.400 to Km 61.000,6784,22.3116064,77.2376414,ChIJ8dR0tS6dfTkRnZatuKJghcM,True
393,Madhya Pradesh,7 (New 30 and 34),Bahoripar (Khursi),Km 481.385,Jabalpur to Lakhnadon,5628,23.0455201,79.92731529999999,ChIJRZebyqVSgDkR5WJiJuLFs9c,True
394,Madhya Pradesh,26,Bakoli,Km 357.739,Lalitpur Sagar Lakhnadon,266,22.843666,79.358392,ChIJr_eXheeHfzkRP9MOkxPf098,False
395,Madhya Pradesh,92,Barahi (MoRTH),Km 105.400,Gwalior to MP/UP Border (Km 0.000 to 107.500),360,24.6802727,82.1903963,ChIJxesQ1j6AhTkRTr938-KsBj0,True
396,Madhya Pradesh,92,Baretha (MoRTH),Km 21.120,Gwalior to MP/UP Border (Km 0.000 to 107.500),358,26.3246054,78.2749772,ChIJ6f_tDfK_djkRGCxGijjpAGQ,True
397,Madhya Pradesh,39,Bela,Bela,Satna Rewa,5994,25.0764462,79.32749539999999,ChIJ_5G2cKQJeDkRe7W_J0__cy0,False
398,Madhya Pradesh,NE 4,Bhuteda (Entry Exit )Toll Plaza,Km 586.420 (Interchange MP04 Fee plaza ) on (Jaora Ujjain Road) Bhuteda village in Ratlam District),DelhiVadodaraMumbai Expressway Greenfield Alignment (NE4) from (Km. 4524.20 to Km 696.920) (Length 244.500 Km) in the state of Madhya Pradesh. Pkg17 to 25,6720,23.6082814,75.145782,ChIJbcghTVUFZDkRM8fHqD9fVlk,True
399,Madhya Pradesh,7,Borkhedi (Nagpur ByPass),Km 35.600,MP/Maharashtra Border - Nagpur Section,195,22.9734229,78.6568942,ChIJBepa04FzZjkRHhxwTg1rEOA,True
400,Madhya Pradesh,NH3(old) NH52(New),Chhapra (TP I),229.900 km,Biaora to Dewas 141.459 Kms,4597,22.9734229,78.6568942,ChIJBepa04FzZjkRHhxwTg1rEOA,True
401,Madhya Pradesh,347BG (NH 753 L),Chhegaon Makhan (Mokalgaon),Near Chhegaon Makhan,Dhangaon Boregaon section,6814,21.8317669,76.2174935,ChIJyeykRM4R2DsRiYHLpysA868,True
402,Madhya Pradesh,347,Chikhalikala,Km 21.00,Multaichhindwara - Seroni ( Km 0.000 to Km 75.592),401,21.8419326,78.43333659999999,ChIJrwWcj82X1TsR4xF-yKZjtNQ,False
403,Madhya Pradesh,26,Chitora,Km 226.740,Lalitpur - Lakhnadon,265,23.7254265,78.809089,ChIJG3uRuTAtfzkRmBG7qZBYBzU,False
404,Madhya Pradesh,3,Choundha,Km 84.000,Morena Gwalior,30,26.5179677,77.9690244,ChIJcQwXmwGtdjkRckpUOEbyAPc,False
405,Madhya Pradesh,NH 44,Dagrai,At Km. 82.338 VillageDagrai Distt.Datia (M.P.),Gwalior Jhansi,5710,25.6162518,78.4795139,ChIJBeQGKBcNdzkRnBF10iVv4H4,True
406,Madhya Pradesh,NE 4,Dalavada (Entry Exit ) Toll Plaza,Km 537.320 (Interchange MP03 Fee plaza ) on (Dug Sitamau Road ) Dalavada village in Mandsaur District),DelhiVadodaraMumbai Expressway Greenfield Alignment (NE4) from (Km. 452.420 to Km 696.920) (Length 244.500 Km) in the state of Madhya Pradesh. Pkg17 to 25,6719,24.3846405,74.90041579999999,ChIJ9QbQfuh2ZjkRIXVKQUgpmW0,True
407,Madhya Pradesh,7,Daroda,Km 92.500,Borkhedi - Wadner,67,22.9734229,78.6568942,ChIJBepa04FzZjkRHhxwTg1rEOA,True
408,Madhya Pradesh,NH 47,Dattigaon,Km 118.650,From KM 9.500 to 171.00,4599,22.7416974,74.8363825,ChIJsSoYqPl5YTkRPvHmQvpOfsQ,False
409,Madhya Pradesh,39,Devgaon,Devgaon,From 124.732 to 162.132 57.936 to 74.000,5778,24.7824402,79.8169355,ChIJ8XcfSMftgjkRuFOR5UGRs3c,False
410,Madhya Pradesh,NE 4,Dhamnod (Entry Exit ) Toll Plaza,Km 613.720 (Interchange MP06 Fee plaza) on (Ratlam Sailana Road) Dhamnod village in Ratlam District),DelhiVadodaraMumbai Expressway Greenfield Alignment (NE4) from (Km. 452.420 to Km 696.920) (Length 244.500 Km) in the state of Madhya Pradesh. Pkg17 to 25,6723,22.2138885,75.4723411,ChIJC-IrQuZuYjkRKTfFKWJHJc4,True
411,Madhya Pradesh,347,Fulara,Km 139.000,Chindwara -Ring Road-Seoni ( Km 91.066 to Km 152.351),400,22.0435518,79.4187274,ChIJFddy9vuyKjoRSPnJAhA-6JA,False
412,Madhya Pradesh,47,Gadha Toll Plaza,Ch. 101800 VillageGadha HardaBetul Road NH47 Th. Betul Dist. Betul.,Harda Betul section from Ch. 61.000 to Ch. 121.248,6840,21.921406,77.73804179999999,ChIJDd5udwAR1jsRSPJczEX2gNk,True
413,Madhya Pradesh,NE4,Garoth (Entry Exit )Toll Plaza,Km 494.220 (Interchange MP02 Fee plaza ) on (Suwasara Bhanpura Road ) Garoth village in Mandsaur District),DelhiVadodaraMumbai Expressway Greenfield Alignment (NE4) from (Km. 452.420 to Km 696.920) (Length 244.500 Km) in the state of Madhya Pradesh. Pkg.17 to 25,6718,24.328077,75.6499025,ChIJN1ZIy2epZTkRbbilTfk0Gcg,True
414,Madhya Pradesh,NH 552 Extn.,Goragaon Toll Plaza,DABOH,Engagement of user fee collection agency etender at Goragaon fee plaza at Km.42.700 for use of Mihona to Lahar to Daboh Section from design Km.2.800 to Km.10.955 and design Km.17.355 to Km.36.540 and,6673,25.971769,78.8367135,ChIJSxiQPQCtdzkRyikXG0j7ChQ,True
415,Madhya Pradesh,3 (Old 75 ),Gwalior Bypass (Mehra),Km 32.607,Gwalior Byepass (Mehra),262,26.1974988,78.240787,ChIJLdRMdMnDdjkRnC0Jrc37pfI,True
416,Madhya Pradesh,Old NH 12 New NH 45,Harshili,Village Harshili District Raisen (MP),Bareli Bypass Goharganj,5865,23.0096605,78.1535928,ChIJT0oiQd6IfjkRzYmsU2ei2J0,True
417,Madhya Pradesh,Old NH 03(New no. NH 52),IDTL B (Indore Side ),0.55,Six Lanning of IndoreDewas Section of NH3 from km 577.550 to 610.000 and km 0.000 to 12.60 (Approx. length 45.05 km) in the State of Madhya Pradesh under NHDP V Executed as BOT (Toll) Project on DB,6790,22.959574,76.0842188,ChIJPXp-4P0XYzkRb4-6mUCz_Oo,True
418,Madhya Pradesh,Old NH 3 (New no. NH 52),IDTL A (Indore Bypass),591.799,Six Lanning of IndoreDewas Section of NH3 from km 577.550 to 610.000 and km 0.000 to 12.60 (Approx. length 45.05 km) in the State of Madhya Pradesh under NHDP V Executed as BOT (Toll) Project on DB,6789,22.8247253,75.938295,ChIJ42VVI_McYzkRpw4XrFborcY,True
419,Madhya Pradesh,3,Indore Dewas (Indore Bypass),Km 591.000,Indore - Dewas,35,22.8247253,75.938295,ChIJ42VVI_McYzkRpw4XrFborcY,True
420,Madhya Pradesh,3,Indore Dewas (Indore side),Km 591.000,Indore - Dewas,245,22.959574,76.0842188,ChIJPXp-4P0XYzkRb4-6mUCz_Oo,False
421,Madhya Pradesh,547,Jaitpur,Km 197.00,Amarwara - Narsinghpur ( Km 140.000 to Km 210.010),403,22.8342137,79.2374586,ChIJJVKW82WFfzkRc1PFKWxjnvM,False
422,Madhya Pradesh,3,Jajau (Old Baretha),Km 28.600,Agra - Dholpur (Km 8.00 - Km 51),95,22.9734229,78.6568942,ChIJBepa04FzZjkRHhxwTg1rEOA,True
423,Madhya Pradesh,NH46(Old NH3),Jogipura,165.197,41.8 KM,4537,24.0876533,76.984672,ChIJdaJWJr8RezkRUj73H1FuJPs,False
424,Madhya Pradesh,146,Joharia shaikh,Sihora,km81 to km175,5711,22.9734229,78.6568942,ChIJBepa04FzZjkRHhxwTg1rEOA,True
425,Madhya Pradesh,547,Jungawani,Km 136.00,Chindwara - Amarawara( km 23.590 to Km 57.070 & from Km 97.455 to Km 140.000),402,22.3778439,79.151028,ChIJkdZsxF7kfzkR3N5ar5HKMKM,False
426,Madhya Pradesh,Old NH12 New NH46,Kachnaria,At Ch.km 419.200 NH12 Village Kachnaria,Bhopal to Biaora,5667,23.8798146,76.90993689999999,ChIJXaLJUh1rezkR0OHFO_3rvBY,False
427,Madhya Pradesh,547,Kelwad,Km 13.000,Saoner - Chindwara Upto Chindwara Ring Road ( Km 0.000 to Km 75.460),406,22.9734229,78.6568942,ChIJBepa04FzZjkRHhxwTg1rEOA,True
428,Madhya Pradesh,39 (Old 75E),Khadda,6.00,Rewa to Sidhi,4499,24.5222251,81.36516720000002,ChIJaxYipfNQhDkREcbHkm-dtS8,True
429,Madhya Pradesh,3,Khalghat (Indore - Khalghat),Km 75.700,Indore - Khalghat,121,22.7195687,75.8577258,ChIJ2w1BG638YjkR9EBiNdrEbgk,True
430,Madhya Pradesh,3,"Khalghat -MP/Maharashtra Border(Sendhwa, Jamli)",Km 141.850,Khalghat MP/Maharashtra (Km 84.700 to Km 167.500),25,21.756304,75.15633700000001,ChIJHd37w1Wl2DsRrS2AOkqPidQ,True
431,Madhya Pradesh,69,Khambara,Km 71.050,Nagpur - Saoner - Betul ( Km 3.00 to Km 59.300 and Km 137.00 Km 257.400 ),418,21.6937131,78.3900441,ChIJu8V4LdG71TsRyPOkW3GGGYM,False
432,Madhya Pradesh,NH 44,Khawasa FP,MOHGAON TO KHAWASA MPMH BORDER,Km 624.480 To Km 653.225,5700,21.7034654,79.4422593,ChIJ_RGjQnHSKjoRZV3bmrQeVpk,True
433,Madhya Pradesh,New NH 30 (Old NH 7),Kherwasani,At Km 325.400,Maihar to Sleemnabad,4591,24.122453,80.5992648,ChIJywUPXE3vgzkRk7AbctrN9d4,True
434,Madhya Pradesh,Old NH12 (New NH45),Khiriya,At Km. 165.150,Sindorr River Bareli Bypass,5892,23.0877491,78.48667069999999,ChIJt-RAZp77fjkRe51HbTFQweM,True
435,Madhya Pradesh,7,Koshta (MoRTH),Km 650,Rewa by Pass,352,22.9734229,78.6568942,ChIJBepa04FzZjkRHhxwTg1rEOA,True
436,Madhya Pradesh,NH 46 (Old NH 69),Kundi Fee Plaza,Kundi Ch. 100.280,Itarsi to Betul Section,6839,22.9734229,78.6568942,ChIJBepa04FzZjkRHhxwTg1rEOA,True
437,Madhya Pradesh,39,Luharali,Km 34.88,Jhansi Khajuraho Section of NH 39 from km 0.00 to 76.603,5880,22.9734229,78.6568942,ChIJBepa04FzZjkRHhxwTg1rEOA,True
438,Madhya Pradesh,7,Madai,Km 549.200,Lakh0don Mahagaon (Annuity Project),5719,22.5500372,79.6006883,ChIJqxKETNkQgDkRLHJLIW17_FI,False
439,Madhya Pradesh,NH 78 (New NH 43),Majhgawan,16.58,Katni to Umariya,4594,23.8169158,80.5109537,ChIJH8TPMQBfgTkRPP8eC5ajSLw,False
440,Madhya Pradesh,26,Malthone,Km 142.319,Lalitpur - Lakhnadon,88,24.3221187,78.52624170000001,ChIJe5xIK_8EeTkRqq9VCSWxdfY,False
441,Madhya Pradesh,347B,Mandwara,at 30.150 Km,Km 0.000 to Km 34.560,5784,22.0508621,75.1192214,ChIJiQO9JPMFYjkRrPT7ddh5TSQ,False
442,Madhya Pradesh,NH347 C,Mangaon Toll Plaza,Mengaon,Mengaon fee plaza at Km 47.800 of Khalghat to Sarwardewla Road section from Km 0.000 to Km. 81.600 of NH347C in the State of Madhya Pradesh,6770,21.9010125,75.6044531,ChIJG9-yJQCD2DsRYo0xWEEnHlw,True
443,Madhya Pradesh,7,Mansar (Kamptee - Kanhan Bypass)/ Tekadi,Km 690.600,MP/Maharashtra Border - Nagpur Section,194,22.9734229,78.6568942,ChIJBepa04FzZjkRHhxwTg1rEOA,True
444,Madhya Pradesh,39,Mauhari,at 147.705 Km,From Km 57.160 to 155.000,5777,24.5776967,80.6908133,ChIJt3BzyUGDgzkRRQhwOn_v_H0,True
445,Madhya Pradesh,NH 47,Methwada,Km 34.45,From KM 9.500 to 171.00,4600,22.6731635,75.54579989999999,ChIJuwCin7RTYjkR6FOzV_9Q1FI,False
446,Madhya Pradesh,69,Milanpur,Km 14.700,Nagpur - saoner - Betul (Km 3.000 to Km 59.300 and Km 137.000 Km 257.401),417,21.8637989,77.9571339,ChIJy5bI273h1TsRycGx7NRsoVc,False
447,Madhya Pradesh,7 (New 30),Mohtara,VillageMohtara TehsilSihora Distt. Jabalpur,Four laning of RewaKatniJabalpur section of NH7 (PackageIV),4614,23.4336862,80.08752779999999,ChIJEUk4Eh2hgTkRXfdWrGJaeww,False
448,Madhya Pradesh,NH46 (OLDNH3),Mudkheda,Km. 81.400,Four laning of GwaliorShivpuri section of NH3 from km 15.600 of NH75 (End of Gwalior bypass) to km 236.00 of NH3 in the state of Madhya Pradesh on BOT (Toll) on DBFOT Pattern under NHDP PhaseIV,4570,25.6814588,77.7290671,ChIJ-wvU0-XFcDkR9W1Kld1M07M,True
449,Madhya Pradesh,27,Mundiyar,Km 525.725,Baran-Shivpuri-Jhansi,72,22.9734229,78.6568942,ChIJBepa04FzZjkRHhxwTg1rEOA,True
450,Madhya Pradesh,34,Mungwari,At Km. 180.260,Sagar Chhatarpur Road,5882,24.6440789,79.3360888,ChIJd-wa56J5eDkRPRrVftSVsNM,True
451,Madhya Pradesh,NE 4,Nayapura (Entry Exit ) Toll Plaza,Km 586.420 (Interchange MP04 Fee plaza ) on (Jaora Ujjain Road) Bhuteda village in Ratlam District),DelhiVadodaraMumbai Expressway Greenfield Alignment (NE4) from (Km. 452.420 to Km 696.920) (Length 244.500 Km) in the state of Madhya Pradesh. Pkg17 to 25,6722,23.19609,75.7731228,ChIJR0ATcyV0YzkRLvcs9QutpOI,True
452,Madhya Pradesh,NE 4,Neemthur (Entry Exit )Toll Plaza,Km 464.220 (Interchange MP01 Fee plaza ) on (Bhanpura Jhalawar Road Neemthur village in Mandsaur District),DelhiVadodaraMumbai Expressway Greenfield Alignment (NE.4) from (Km. 452.420 to Km 696.920) (Length 244.500 Km) in the state of Madhya Pradesh. Pkg.17 to 25,6717,24.5421896,75.7923778,ChIJDTHO3IsLZTkRMLmRJKKhSFw,True
453,Madhya Pradesh,NH 752B,Newli,At Km. 51.100,Biaora Maksudangarh Sironj,5893,24.0756132,77.3758644,ChIJ39SqFkyjezkRUFnxg1iLALM,True
454,Madhya Pradesh,552 G,Nipaniya Toll Plaza,10.200,UjjainJhalawar,6755,24.1802124,79.2310172,ChIJuW5PdgCZeDkRES0Iju_chVo,True
455,Madhya Pradesh,New NH 30 (Old NH 7),Odhaki Paipkhar,At chainage design Km 262.100 (existing km 262.000) of NH7 (New NH30) near village Odhaki Paipkhar near town Amarpatan in Satna district of Madhya Pradesh.,Rewa to Maihar,4615,24.4048889,81.0789305,ChIJ70XBaz9phDkRepPzDRaHD4E,True
456,Madhya Pradesh,39,Pachwara,Km 91.302,Jhansi Khajuraho Section of NH 39 from km 76.603 to km 124.732,5769,25.1341228,79.3766096,ChIJXc-TZpcHeDkR9qdnjiRWh8c,True
457,Madhya Pradesh,NH46(Old NH3),Pagara,113.278 KM,93.5KM,4538,24.5073773,77.1861776,ChIJxVk6Znr4ejkROr-5i3V8zJs,True
458,Madhya Pradesh,552 G,Pagariya (Semalkhedi )Toll Plaza,68.239,Ujjain to Jhalawar,6757,24.1694728,77.6707924,ChIJ2-y3UczFezkRfk2tWqBXDtk,True
459,Madhya Pradesh,NH135B,Palhan Toll Plaza,REWA TO SIRMAUR,REWA TO SIRMAUR,6666,24.7707638,81.4008738,ChIJYcPLiP37hDkR7-M7q5CAtY8,True
460,Madhya Pradesh,NH 752 D,Palkhanda Toll Plaza,15.420,4Laning DewasUjjain,6691,23.4204767,76.18706809999999,ChIJLbkMkvtbYzkRidFMiktDLIg,True
461,Madhya Pradesh,New NH 30,Pandutala,Village Pandutala Distt Mandla,Mandla Chilpi,4579,22.364493,80.8156324,ChIJ32GWI1BVhzkRiZw9V22P5Jk,True
462,Madhya Pradesh,NH46 (OLDNH3),Panihaar,Km. 136.00,Four laning of GwaliorShivpuri section of NH3 from km 15.600 of NH75 (End of Gwalior bypass) to km 236.00 of NH3 in the state of Madhya Pradesh on BOT (Toll) on DBFOT Pattern under NHDP PhaseIV,4571,26.0977432,78.0158435,ChIJp1oKMgLSdjkRG4cB2b3MJRA,True
463,Madhya Pradesh,148D,Para,Km 34.500,Bheem - Gulabpura - Parasoli ByPass,470,26.6731785,78.72984840000001,ChIJVzABAgB_djkRwxYU4VYnwDc,True
464,Madhya Pradesh,12,Parvati Bridge (MoRTH),Km 359.10,Parvati Bridge,347,23.7102241,77.1830955,ChIJS-Ez2LF4ezkRV5ezT6gGQ5w,True
465,Madhya Pradesh,69,Patansawangi,Km 25.700,Nagpur - Saoner - Betul (Km 3.000 to Km 59.300 and Km 137.000 Km 257.402),419,22.9734229,78.6568942,ChIJBepa04FzZjkRHhxwTg1rEOA,True
466,Madhya Pradesh,NH 752C,Patariya Goyal,At Km. 72.500,Shujalpur Ashta,5765,23.1318889,76.6903708,ChIJ3bqW80LHfDkRulvDSpr11gE,True
467,Madhya Pradesh,135 BG,Patharahata,Satna,34.350 Km,6816,24.358153,80.8156324,ChIJyRhVexd2hDkRNY1_xzCY-Io,True
468,Madhya Pradesh,NH 78 (New NH 43),Pathroundi,221.57,Shahdol to Anuppur (upto MPCG Border),4595,22.9734229,78.6568942,ChIJBepa04FzZjkRHhxwTg1rEOA,True
469,Madhya Pradesh,NH46(Old3),Purankhedi,Km 22.930,Km 236.00 to 319.700 (Stage1),4544,25.1653588,77.60378279999999,ChIJaa7NxBKhcDkRTJ1AU7tQEKU,True
470,Madhya Pradesh,27,Raksha,Km 84.650,Amola - Jhansi Bypass,73,22.9734229,78.6568942,ChIJBepa04FzZjkRHhxwTg1rEOA,True
471,Madhya Pradesh,27,Ramnagar,Km 589.370,Raj/MP Boarder-Amola Vill (Shivpuri Bypass),74,25.279019,77.61580909999999,ChIJQ4H4RL-jcDkRgJGQ7d_nbzU,False
472,Madhya Pradesh,NH 552 Extn.,Rati Rampura Toll Plaza,Morena,Engagementof user fee collection agency on the basis of Competitive bidding (on equotation basis) at Rati Rampura Fee Plaza at km 267.400 of Morena to Ambah to Porsa section from design kilo meter 2,6675,26.6310223,78.1438742,ChIJ95DjOj2ndjkRS9NI2xc2wkU,True
473,Madhya Pradesh,NH3(old) NH52(New),Rojwas(TP II),291.55,Biaora to Dewas 141.459 Kms,4598,23.3155322,76.18706809999999,ChIJ0ztjzKZEYzkRMzcyaUD9XPA,True
474,Madhya Pradesh,7 (New NH30),Saliwada,13.44,Jabalpur Mandla Chilpi Section of NH 12A (New NH30),4609,23.1050292,80.03025389999999,ChIJpymKJnOrgTkRgS5XmOAdtMg,True
475,Madhya Pradesh,NH 12,Sarasdol,101.600,Hiran River to Sindoor River,6624,23.110444,79.0560311,ChIJScylfnpzfzkR_jfyAZe-e_0,True
476,Madhya Pradesh,Old NH86 (Extn.) New NH146,Sehatganj,At Ch.km 13.280 NH 86 (Extn.) Village Sehatganj Near Som Distilleries District Raisen (M.P.),Bhopal Sanchi,5629,23.257836,77.6381682,ChIJn2DLP7Q_fDkRRJGO44l0xvE,True
477,Madhya Pradesh,6,Sendurwafa,Km 449.260,Chattisgarh/Maharashtra Border - Wainganga Bridge,146,22.9734229,78.6568942,ChIJBepa04FzZjkRHhxwTg1rEOA,True
478,Madhya Pradesh,NH 78 (New NH 43),Shahdol (Dhuwar ),146.42,Shahdol to Anuppur (upto MPCG Border),4596,23.300232,81.3568619,ChIJZ1uSZLf6hjkRMnaJHxEHc8A,True
479,Madhya Pradesh,12 (New 45),Shahpura,Km. 25.180,Jabalpur Hiran River Section,5923,22.9734229,78.6568942,ChIJBepa04FzZjkRHhxwTg1rEOA,True
480,Madhya Pradesh,Old NH12 New NH46,Sonkacch,At Ch.km 335.200 NH12 Village Sonkacch,Bhopal to Biaora,5669,23.3596378,77.221111,ChIJZX4mDYFjfDkRxKYcuJx---o,False
481,Madhya Pradesh,39 (Old 75E),Sonvarsaa,58.800,Rewa to Sidhi,4500,24.3957307,81.8031278,ChIJMXwZx5--hTkRACLAQGzqcyk,False
482,Madhya Pradesh,3,Sonvay (Indore - Khalghat),KM 4.000,Indore - Khalghat,475,22.6235804,75.7676728,ChIJxxhKTRj5YjkRivogzNA2kFw,True
483,Madhya Pradesh,752C,Talen (Mirzapur),At Km. 14.600 NH752C VillageTalen (Mirzapur) DistrictRajgarh (MP) Pincode465680,Pachore Shujalpur,5931,25.1336987,82.5644344,ChIJtc_YCsrBjzkREW6YsoiFIdA,True
484,Madhya Pradesh,NE 4,Timarwani (Entry Exit ) Toll Plaza,Km 674.720 (Interchange MP07 Fee plaza ) on (Thandla Kushalgarh Road ) Timarwani village in Jhabua District),DelhiVadodaraMumbai Expressway Greenfield Alignment (NE4) from (Km. 452.420 to Km 696.920) (Length 244.500 Km) in the state of Madhya Pradesh. Pkg17 to 25,6724,23.0929137,74.54046939999999,ChIJv_CfnCs5YTkRNj4GF0fKw5k,True
485,Madhya Pradesh,26,Titarpani,Km 295.000,Lalitpur - Lakhnadon,90,23.2133573,79.0416846,ChIJc6SC4T9tfzkRmnQCnSlHTZQ,False
486,Madhya Pradesh,34,Ujara,At Km. 180.260,Sagar Chhatarpur Road,5883,25.0854994,79.708581,ChIJqR4aVRy5gjkRdgtOKzafEQE,False
487,Madhya Pradesh,12,Vishankheda,At Km. 283.600,Goharganj Bhopal,5792,23.0238014,77.56966740000001,ChIJgYkxnwY3fDkRVcJX3dGP7tU,False
488,Maharashtra,4,Anewadi,Km 748.600,Pune - Satara,56,17.8121205,73.9701927,ChIJqfiWJOVGwjsR6NqHjTbtVnc,False
489,Maharashtra,NH 166,Ankadhal Toll Plaza,274.80,Sangli Solapur,6615,17.3601579,75.0806865,ChIJUU19u5WuxjsRPbShcTIW7-I,False
490,Maharashtra,3,Arjunali,Km 532.690,Vadape - Gonde,193,19.3614007,73.1658917,ChIJKZBza-yZ5zsRrN2SQ1oDHto,False
491,Maharashtra,NH 361,Ashiv,35.200 Km,Tuljapur To Ausa (67.428 KM),5637,18.1278951,76.3582491,ChIJHXHMf5yFxTsRSzwT4PSa8vc,True
492,Maharashtra,361,Ashta Toll Plaza,at Ch. 96.965,Four laning of Ausa to Chakur section of NH 361,6767,18.469501,76.751685,ChIJNbZbezOZzzsROU6l6N3we6o,False
493,Maharashtra,61,Badewadi,290.65,NH 222,5708,19.173165,75.34243099999999,ChIJwUdklwc42zsRGFLNmfNfrec,False
494,Maharashtra,3,Baswant (Pimplegaon),Km 390.450,Pimplegaon Nashik Gonde,145,20.1654012,73.9879323,ChIJxfsOj9Da3TsRCTxNxbAxgc4,True
495,Maharashtra,NH 361,Bhamb,Km 382.920,MahagaonYavatmal section of NH 361 from Km 320.580 to Km 400.575,5676,17.7978223,74.78746679999999,ChIJjZoM35jywzsRfHbcRKVMx_Y,True
496,Maharashtra,NH211 (New NH52),Bhokarwadi Malewadi,Km. 254.550,189.023 Km,4605,17.5480966,73.5100837,ChIJYfCUWmIIwjsR21NSyKEvNtE,True
497,Maharashtra,166,Borgaon,222.200,Four Laning of Sangli Solapur (Pkg I) Sangli Borgaon km 182.556 km 224.00,6668,16.9998891,74.7843181,ChIJxVX3MEg3wTsR0bSzXhtbcXw,False
498,Maharashtra,NH 52 (Old NH 211),Borvihir Toll Plaza,Borvihir,46 laning of Bodhre to Dhule section from Km. 390.000 to Km. 457.231 (Design Chainage) of NH211 (New NH52) (Design Length 67.231 Km.) n the State of Maharashtra,6856,20.7767512,74.8321362,ChIJd0oYagC33jsRQjm3AHGSppM,False
499,Maharashtra,848,Chachadgaon,"Near Village Chachadgaon, Tal. Dindori, Dist. Nashik",Rehabilitation and Augmentation of Nashik Peth to state border section of NH848 to two lane with paved shoulder Km 11.600 to 65.600 (Length53.515 Km) in the state of Maharashtra,5985,20.2224829,73.67311959999999,ChIJNW5eFV_j3TsRecLjJ-hCswc,True
500,Maharashtra,50,Chalakwadi,Km 91.106,Khed - Sinnar (Km 42.000 - Km 177.000),476,19.1722336,74.0770347,ChIJoZ_4hcQj3TsRE2wtmYDM_gY,False
501,Maharashtra,353 D,Champa,Champa at Ch.27.225,41.100 K.m.,6769,20.9673447,79.2045553,ChIJ6dfJsfmx1DsR2xfSakj2FuU,True
502,Maharashtra,50,Chandloi/ Rajgurunagar (MoRTH),Km 41.800,Pune Nashik Road NH-50 (Km 12.190 to 42.000),348,18.8556627,73.887552,ChIJpdAVBgU13TsRqGC0VXu4s1I,True
503,Maharashtra,3,Chandwad,Km 356.700,Pimpalgoan - Dhule,143,20.3251297,74.210726,ChIJVylalC7V3TsRTHxqQQcRT2I,False
504,Maharashtra,8,Charoti,Km 420.340,Surat Dahisar,289,19.8905644,72.9427231,ChIJqcCOg3Y95zsRfYg5DibRIy0,True
505,Maharashtra,53,Dasarkhed Toll Plaza,Malkapur,Nandura to Chikhali,6740,20.9727189,76.1796363,ChIJB7WMuB_D2TsR6GYjPlXqlvU,False
506,Maharashtra,NH 222 (New 61),Dhoki,178.1,Malshej Ghat to Ane Ghat (Km 161.212 to Km 211.000 ) two lane section in Ahmed0gar District in the state of Maharashtra,4593,19.1560236,74.4110134,ChIJE7xsf_jF3DsRLFOu1q1-Fzc,False
507,Maharashtra,161,Dhumka Tondgaon,Tondgaon Tq. Dist. Washim,Medshi Washim Sawarkheda(Hingoli),5932,20.0113153,77.1402555,ChIJw-TA6Qf90DsRYL_L9gsfC1s,True
508,Maharashtra,NH 222 (New 61),Dumberwadi,125.7,km 125.700 for Malshej Ghat To Ghet section (km 101.00 to 161.212 ) of national Highway 222 (New NH 61) of two lane section in the state of maharashtra.,5585,19.2425761,74.0079781,ChIJkSwSJ-cX3TsR7yNxq-LprYs,True
509,Maharashtra,6,Fekri (MoRTH),Km 399.00,Surat - Dhula - Nagpur Section( Km 398.000 to Km 400.000),344,19.7514798,75.7138884,ChIJ-dacnB7EzzsRtk_gS5IiLxs,True
510,Maharashtra,3,Ghoti,Km 455.485,Vadape - Gonde,139,19.7090716,73.6153468,ChIJPc-GZgKF3TsRVBNdK2_QeJc,True
511,Maharashtra,53,Gondkhairi ( Kondhali ),Km 20.612,Nagpur Kondhali,148,21.1369546,78.89650999999999,ChIJbfC5wejs1DsRjqkuz44sLKs,False
512,Maharashtra,361,Haladgaon,Km. 510.865,Wardha Butibori,5641,20.8581833,78.8764853,ChIJ-W5TWxeb1DsRw1ATCTIQruk,False
513,Maharashtra,NH52 (Old NH211),Hatnoor,Ch.359100 at Village Hatnoor Tal. Kannad Dist. Aurangabad,FourSix laning of Karodi (Km. 320.640) to Telwadi (Km. 375.000) road section NH211 (New NH No. 52) (Existing length 54.896 km Design length 55.610 km) in the State of Maharashtra under NHDP Phase,5864,20.1928695,75.13306709999999,ChIJs9YWfQDx2zsRBf8OxV3zgW4,False
514,Maharashtra,NH 930,Hirapur Toll Plaza,213.350 KM,GadchiroliMul section of NH 930,6752,20.0934269,79.8380778,ChIJvTrjx9HjLDoRixmXgslqxW4,True
515,Maharashtra,60 (Old 50),Hivargaon Pavsa,Km 138.749,Khed - Sinnar (Km 42.000 - Km 177.000),477,19.5109738,74.21499779999999,ChIJKadWnHQC3TsR-524y8sn9hI,True
516,Maharashtra,361,Husnapur,443.042,Yavatmal Wardha,5630,20.5437937,78.3074027,ChIJA_lSDiSN0zsRDqfB11ufhuw,True
517,Maharashtra,166,Ichgaon,343.510,Mangalwedha Solapur,6608,17.592448,75.5910059,ChIJqYPWvtgpxDsRCrN61E49WkI,False
518,Maharashtra,53,Karanja (Ghadge),Km 76.130,Kondhali - Talegaon,158,21.1576735,78.38799999999999,ChIJMalDz_xD1DsRb4ZLHxIPV0s,False
519,Maharashtra,6,Kardha (MoRTH),Km 489.360,Construction of Bridge and its approaches a/c Wainganga River in Km. 419/00 on Nh-6,353,21.1422593,79.67406629999999,ChIJW9GvK5ZAKzoROrZL_Rswqos,True
520,Maharashtra,NH 6 (NH 53),Kardha Toll Plaza ( Bhnadara ),at Chainage 489.400 on NH 6,Ch.485.00 to 498.00 Nagpur Raipur Section on NH 6 at Bhandara,6749,21.1395057,79.6755881,ChIJbbj6w6lBKzoRLpPH2sgMyJ4,True
521,Maharashtra,52 (Old NH211),Karodi,Km. 320.100 at Village Karodi,Four Six Laning of Aurangabad (km 290200) to Karodi (km 320104) road section of NH211(new NH No. 52)( Existing Length 29904km Design Length 30215km)in the state of Maharashtra under NHDP Pha,5806,19.89115,75.205495,ChIJdwTW9IGb2zsRGhL1Hes7aGE,False
522,Maharashtra,9,Kasurdi (MoRTH),Km 39.800,Pune Solapur Road NH-9 (Km 14.000 to 40.000),351,18.3410596,73.8713099,ChIJBcECsR7twjsRAbonIm1PbZw,True
523,Maharashtra,9,Kawdipath (MoRTH),Km 14.050,Pune Solapur Road NH-9 in stretch Km 14/00 to 40/00 (total 26 Km.),350,19.7514798,75.7138884,ChIJ-dacnB7EzzsRtk_gS5IiLxs,True
524,Maharashtra,7,Kelapur,Km 150.000,Deodhari - Kelapur (Km. 123.000 to Km. 153.600),70,20.0193237,78.5402198,ChIJGWJOAUOs0zsRDWpEI8gD9xg,False
525,Maharashtra,353 I ( 53 ),Khadka Plaza,Hingana Khadaka,4 Lane Stand Alone Ring Road Bypasses for Nagpur City Package I from Km 0.500 to Km 34.000,6859,19.7514798,75.7138884,ChIJ-dacnB7EzzsRtk_gS5IiLxs,True
526,Maharashtra,8,Khaniwade,Km 470.000,Surat Dahisar,290,19.5190124,72.9169769,ChIJ9Y62txYI5zsRths2nUkTClw,False
527,Maharashtra,353D,Kharbi,at Ch. 113km near town Bramhapuri,Upgradation to 2lane with paved shoulder from km 97.487 to km 137.250 of 0gbhid Armori Section (PackageIII) of NH353D in the State of Maharashtra.,5696,21.1348064,79.1401289,ChIJKTYZOmHH1DsRCi4-p3jHgKY,True
528,Maharashtra,3,Kharegaon (MoRTH),Kharegaon,Km 539.500 (Vadape) to Km 563.000 ( Majiwade-Thane),345,19.2050447,72.9994986,ChIJo6y14c6-5zsRQNhubrQIeug,True
529,Maharashtra,66 (Old 17),Kharpada (MoRTH),Km 16.40,Kharpada Bridge,340,18.831546,73.0929132,ChIJrRZTM4fg5zsRdHbvZtN_Gs4,True
530,Maharashtra,4,Khedshivapur,Km 819.240,Pune - Satara,144,18.3315965,73.8528714,ChIJA_rDZTDtwjsRnbHE8frr2z8,False
531,Maharashtra,4,Kini,Km 634.500,Satara - Kagal,257,16.8766472,74.2984148,ChIJ12rwy7oIwTsR5ueYoSrDecw,False
532,Maharashtra,53,Kurankhed,Kurankhed Village,Amravati Chikhali,6777,20.6956785,77.2633836,ChIJS5QkwDfV1jsRSL-pW1t8gDw,True
533,Maharashtra,3,Laling (Dhule),Km 268.632,Pimpalgoan - Dhule,197,20.8329146,74.75428029999999,ChIJZcoG4ErG3jsRuT9tcpa63IY,False
534,Maharashtra,361,Malegaon Toll Plaza,at Ch. 156.468,Four laning of Chakur to Loha section of NH 361,6763,18.829867,77.01360199999999,ChIJpcdM12vPzzsRuBHMrTC87gg,True
535,Maharashtra,NH 52 (Old NH 211),Maliwadi Bhokarwadi Toll Plaza,km.254.550 at Village Maliwadi Tal. Ambad Dist. Jalna,Four laning for Rehabilitation and Upgradation of Yedshi (Km.100000) to Aurangabad (Km.290200) section of NH52 (old NH211) under NHDP Phase IV B in the State of Maharashtra,6628,17.5480966,73.5100837,ChIJYfCUWmIIwjsR21NSyKEvNtE,True
536,Maharashtra,6,Mathani,Km 523.400,Km. 498.000 to Km. 544.200(Nagpur-Wainganga),441,21.1400414,79.3651625,ChIJc6z6ZqfK1DsRHEiS5gQOIPY,False
537,Maharashtra,161,Medshi Sawarkhda,At km.41.374,Akola Medshi Medshi Washim,6815,20.3272405,76.9427006,ChIJVQUpXW7E0DsRSZsvsn_e0oE,True
538,Maharashtra,NH 565,Millampalli,Km 163.250,Davulapalli to Markapuram section of,5732,19.7514798,75.7138884,ChIJ-dacnB7EzzsRtk_gS5IiLxs,True
539,Maharashtra,50,Moshi (MoRTH),Km 24.0,Pune Nashik Road Nh-50 (Km 12.190 to 42.000),346,18.6793699,73.8491808,ChIJ39hbUADIwjsRUN8zALVxw8U,True
540,Maharashtra,13 (New 52),Nandani Toll Plaza,Ch. 32.100,Solapur to Vijayapura,6609,17.4732182,75.85520609999999,ChIJ7d1k3YZ5xjsRWBRnYSSiAck,True
541,Maharashtra,53,Nandgaon Peth,Km 142.800,Talegaon - Amravati,71,20.9509835,77.788341,ChIJM4y-nHej1jsRRU6KETKKWQ8,False
542,Maharashtra,3,Nardana (MoRTH),Km 225/200,Km 219.700 to 233.00,357,21.1879926,74.82585619999999,ChIJDTfdikoo3zsRT6s0UYVhrP0,True
543,Maharashtra,60,Nashik Sinnar Tollways Ltd,Shinde village Nashik,Sinnar Nashik,6750,19.9117027,73.9031799,ChIJJzk6VOS-3TsRzgvL83LTRUk,True
544,Maharashtra,53,Nashirabad,At Km 415.980 near Nashirabad Village Jalgaon,Chikhali to Tarsod Section of NH53(Old NH6),5785,21.013481,75.6704693,ChIJpScH-VYI2TsRuxU1mZqL63c,False
545,Maharashtra,6,Nashirabad (MoRTH),Km 415.800,Nashirabad ROB ( Km. 414.000 to 419.000 of NH-6),343,21.0017391,75.6582067,ChIJb6KtGQIJ2TsRDRPDTYqcaMA,True
546,Maharashtra,NH211 (New NH52),Padalshingi,Km. 194.00,189.023 Km,4604,19.1529474,75.75567099999999,ChIJbWvrn6vX2jsRvhLkoeitEIA,True
547,Maharashtra,NH211 (New NH52),Pargaon,Km. 134.00,189.023 Km,4603,18.6643472,75.69709259999999,ChIJr1kFRJHfxDsR4jfpm6GbY58,True
548,Maharashtra,9,Patas,Km 65.000,Pune - Solapur Pkg. I (km 40 - 144.400),64,18.4245759,74.46618649999999,ChIJ7Y-e_zwRwzsRBoOQsTZfKKQ,False
549,Maharashtra,353J,Pawangaon Plaza,Pawangaon Plaza Near Vill.Pawangaon Kalumana 440035,Ring road Bypasses for Nagpur City Package2 from km 34.000 to km 62.035,6860,21.1684744,79.183422,ChIJs4VVss7H1DsR50S3o0C3JEA,True
550,Maharashtra,965,Penur Toll Palza,Km 13.000,4Laning of existing 2laning stretch from Mohol at km. 0.000 to Wakhri at km. 44.700 (Pkg1) on Mohol Alandi section (design length 44.700 km) of NH965 in the state of Maharashtra on EPC Mode 4LA,6787,17.7783555,75.5242315,ChIJ4dfnNAA7xDsRtYjDJFxY78Y,True
551,Maharashtra,NH 65,Phulwadi,At km 280.300,Four laning Solapur MaharasthtraKar0taka border section of NH65 from Km 249000 to 348800,5627,17.8000284,76.1936278,ChIJHTqOgzLvxTsRj_yJRVWZoOc,False
552,Maharashtra,NH-160,Pimparwadi Toll Plaza,Pimparwadi,Sinnar Shirdi section of NH160 from Km. 0000 to Km. 50943 in the state of Maharashtra.,5986,19.8110534,74.2756899,ChIJodSyQgpT3DsR9Y9BaNNF8ZA,False
553,Maharashtra,NH161,Salva Jaroda,At Km. 155.117 (Salva Jaroda),Pangare to Warangaphata,5584,19.5987422,77.3919617,ChIJb694awC50TsRNB-irtet09g,True
554,Maharashtra,9,Sardewadi / Indapur,Km 140.100,Pune - Solapur Pkg. I (km 40 - 144.400),208,18.1186943,75.0234074,ChIJgx6mIi55xDsRaXfvPkIqXTA,True
555,Maharashtra,66 (Old 17),Savitri (MoRTH),Km 129.400,Savitri Bridge,342,19.7514798,75.7138884,ChIJ-dacnB7EzzsRtk_gS5IiLxs,True
556,Maharashtra,9,Sawaleshwar,Km 229.350,Pune - Solapur Pkg. II (km 144.400 - km 249.000),264,17.7647032,75.7559323,ChIJV8jrSvnMxTsRdttwbgOHAGc,False
557,Maharashtra,548B,Selu Ambu,Selu Ambu at Km 39.250,Lokhandi Sawargaon to Re0purLatur road Km 32.225 Km 66.688 and Ambajogai Bypass from Km 0.000Km 3.815Others,5663,19.4532003,76.4389549,ChIJF1u8rZKf2jsR9KpvymbHfno,True
558,Maharashtra,547 E,Selu Toll Plaza,Ketapar,28.300,6613,18.6760359,76.39191009999999,ChIJtzmQY59hxTsREuy7QIDxWAo,True
559,Maharashtra,NH930,Shembal Toll Plaza,318 850,Warora Wani,6584,20.1803019,78.9942154,ChIJXduofosX0zsRzrdtXBIFlSg,True
560,Maharashtra,3,Songir,Km 244.500,MP/Maharashtra Border - Dhule,298,21.0511255,74.7851412,ChIJha74v6bQ3jsR9MEBf9wGVVY,True
561,Maharashtra,53,Subgavhan Kh,At Km.500.580 near village Subgavhan Tal. Parola Dist. Jalgaon,Fagne to Tarsod Section of NH 53 (Old NH 06),6779,20.8687015,74.9734805,ChIJ8VRKNcw02TsRvsHxyNbHOtc,True
562,Maharashtra,NH 65,Talmod,At Km 343.850,Four laning Solapur MaharasthtraKar0taka border section of NH65 from Km 249000 to 348800,5626,17.8259947,76.7402171,ChIJNYJwWcxHzzsRDMqPbCYFYxg,False
563,Maharashtra,211,Tamalwadi,19.300,na,4520,17.8521195,75.9655465,ChIJZ5hAIOnGxTsRPUp6_e1rwGE,True
564,Maharashtra,53,Taroda Kasba Toll Plaza,Taroda Kasba Toll Plaza,NH 53,6598,20.6657677,76.72008749999999,ChIJTyPkgWZN1zsRzT4uQ5ifbtY,False
565,Maharashtra,4,Tasawade,Km 694.150,Satara - Kagal,256,17.371022,74.1328046,ChIJUa1uVM6AwTsRfii4IbS_ToA,True
566,Maharashtra,13 (New NH52),Tidgundi,Km 85.950,From Km 39000 to Km 110542,5941,19.7514798,75.7138884,ChIJ-dacnB7EzzsRtk_gS5IiLxs,True
567,Maharashtra,6,Tiwasa (MoRTH),Km 114.209,Pinglai River in Km. 114.209,354,20.3550992,77.98314409999999,ChIJj7g8ZgXh0zsRM3-PBkvQ9Rs,True
568,Maharashtra,965 G,Undewadi (Supe) Toll Palza,(Km 18.585),Upgradation to Four Lane configuration with Palkhi Marg of the highway starting from Junction with NH 65 near Patas Vasunde Phata Baramati (NH965G) and Partly Baramati Bypass in the State of Mahar,6768,18.9330714,74.49294979999999,ChIJ8-o905jM3DsRxs9NWo42h94,True
569,Maharashtra,548CC,Undri Toll Plaza,Undari,Chikhali Khamgaon Section,6599,20.4375134,76.45789409999999,ChIJzeatoFyp0DsRrcIwJzd8EbE,False
570,Maharashtra,548 D (Old SH 56),Vaidyakinhi Toll Plaza,km.154.400 at Village Vaidyakinhi Tal. Patoda Dist. Beed,Manjarsumbha (design km.137300 existing km.45877 of old SH56) to ChumbhaliPhata (design km.169467 existing km.13689 of old SH56) of NH548D (old SH56),6610,18.7898486,75.5784702,ChIJd50RdP7bxDsRaaVDn845rJI,False
571,Maharashtra,NH 150E,Valsang Toll Plaza,Ch. 119.350,Akkalkot Solapur,6614,17.5898796,76.0745723,ChIJUbG4fxPfxTsRtZofoTslK8o,False
572,Maharashtra,9,Varwade,Km 178.572,Pune - Solapur Pkg. II (km 144.400 - km 249.000),261,17.9575996,75.3310602,ChIJE61lmAJqxDsReLh2B9KFTnQ,False
573,Maharashtra,13,Wadakbal (MoRTH),Wadakbal,"Hattur,Bridge Km. 14.200,& Wadakbal bridge Km. 16.500",359,19.7514798,75.7138884,ChIJ-dacnB7EzzsRtk_gS5IiLxs,True
574,Maharashtra,NH361 B,Wadgaon ( Umred ),FP 1 Wadgaon and FP 2 Umred,Kalamb Ralegaon Wadki section of NH361 B,6791,20.8474101,79.32469309999999,ChIJyThBW4ir1DsRYF9ZbvPBbVE,True
575,Maharashtra,211,Yedashi,77.40,0,4515,18.3076432,75.9892526,ChIJUchL5vQJxTsRSrMlERE69x4,True
576,Meghalaya,44,Deingpasoh,Km 24.700,Shilong bypass,303,25.6488705,92.0476424,ChIJe6OWWfWdWjcRHYnuQeSfQTg,True
577,Meghalaya,NH44 (New NH6),Lomshinong,Lomshinong Village,Rehabilitation and Upgradation of Existing Road to 2lane with Paved Shoulders Configuration in JowaiMeghalayal AssamBorderSection of NH44 from km 69.200 to km 173.2 (104 km) in the State of Meghalaya,4577,25.1693522,92.3936157,ChIJtcckyeonUDcRHF2-UVuL_6U,False
578,Meghalaya,40,Pahammawlein,Km 13.550,Jorabat - Shillong (Barapani) (Km 0.000 to Km 61.840,454,25.9926799,91.86045299999999,ChIJ9Si69--KWjcRzcb7pQVhDdg,False
579,Meghalaya,NH44 (New NH6),Pasyih,Pasyih Village,Rehabilitation and Upgradation of Existing Road to 2lane with Paved Shoulders Configuration in JowaiMeghalayal AssamBorderSection of NH44 from km 69.200 to km 173.2 (104 km) in the State of Meghalaya,4576,25.4807624,92.2888961,ChIJEdx3YJMPUDcRRlSkHub6tH4,True
580,Odisha,NH49(NH6),Badeibadkudar,Km. 439.515,Binjhabahal to Telebani,5730,21.5057669,85.05814389999999,ChIJdVfI7zJlHzoRYPe68QWr8sU,True
581,Odisha,143,Balani toll Plaza,KM 331.200,RajamundaBarkote,6848,21.625915,84.9621773,ChIJAeMRIgB9HzoR9uTH_97mlX8,True
582,Odisha,NH 6,Balibhasa,Km 43.350,Chichira to Kharagpur,5665,20.2375561,84.2700179,ChIJ_Tuv6exqIjoRH6jOqcolNhM,True
583,Odisha,215,Banajodi (Padmapur),134.380,Panikholi to Rimuli,4498,21.712419,85.58290099999999,ChIJg-RNvO0BHzoRJdHLykKYcmM,True
584,Odisha,16,Bandalo (Old Manguli) Toll Plaza,Km 34.624,Bhubaneshwar - Chetia,172,20.565808,86.01097990000001,ChIJqylZgPFsGToRITWuOw8iMeE,True
585,Odisha,6,Bargarh (Barhaguda),Km 41.00,Sambalpur-Baragarh-Orisha,411,21.3548765,83.6765272,ChIJxWR8XeBJIToRMOt9oO5B8f4,True
586,Odisha,16,Bhagada Narayanpur Toll,102.500,Chandikhole Bhadrak Section of NH 16,6674,20.9437602,86.3262831,ChIJGTlo23z9GzoR0k4I8ThNfSk,True
587,Odisha,57,Bolangir Toll Plaza,BOLANGIR,Bolangir Khurda,6618,20.7407941,83.63107959999999,ChIJ9xTSJAD3IzoRUbrBKwF8O-8,True
588,Odisha,143,Darjing,Darjing,Brahmani By Pass to Rajamunda,6619,21.9313659,84.8928018,ChIJq7WErvApIDoRIDfJwSy8SJ8,True
589,Odisha,NH 49,Govindpur ( Brajarajnagar ),Govindpur,JhrarsugudaKanaktora,6696,21.8614076,83.9348274,ChIJ7Tly_l7nIDoREDpYisRJ_Ds,True
590,Odisha,16,Gudipada (Old Gangapada),Km 323.600,Sunakhala - Bhubaneshwar (Km 362.000 to Km 286.010),169,20.2035223,85.66861089999999,ChIJA9CKLeqrGToRj16tsbfP4z4,True
591,Odisha,16,Gurapalli,Km 389.609,Sunakhala - Puintola (Km 362.000 to Km 419.600),166,19.6381988,85.1400299,ChIJswNm8QQbGDoRrKWe48t-ALk,False
592,Odisha,215,Hasanpur (Sainkul),32.900,Panikoili-Rimuli Section of NH 20,4496,21.1169327,86.13574229999999,ChIJ5U6eckusHjoRYzMFgZ3QU2s,True
593,Odisha,Old NH 6 (New NH 49),Jansanpur,Km 401.800,Singhara to Binjhabahal,5858,21.4483189,85.3733809,ChIJbQ7ca_8XHzoRDJ6BuNTvPaM,True
594,Odisha,NH 520,Jhamudihi Toll Plaza,Jhamudihi 22.9535,KoidaRajamunda,6697,20.2375561,84.2700179,ChIJ_Tuv6exqIjoRH6jOqcolNhM,True
595,Odisha,NH 49,Jharpokhria Toll,216.36,Baharagora Singhara Section of NH49,6597,22.1803875,86.6473133,ChIJjaVfFRO-HToR3OjbgkZr_VA,True
596,Odisha,NH 153 (B),Kadaligarh Toll PLaza,Kadaligarh,Naktideuli to Boudh,6753,20.9594534,84.3136549,ChIJX5JYSgArIjoRhcjVmjraMmU,False
597,Odisha,NH215 (New NH520),Kandra,Km. 176.060,Rimuli to Koida Section,5877,22.0520821,85.4943653,ChIJ9SrGED2xHzoR17Y2K1RcorM,True
598,Odisha,149,Khamar,Km.25.855,Pallahara to Pitiri section of NH149 (Km.0.000 to Km.68.280),5704,21.2498112,85.19299029999999,ChIJj-b97BxHHzoRQ1MuTKhaaQs,True
599,Odisha,215,Khantaghar (Dhenkikote),91.900,Panikholi to Rimuli,4497,21.5085424,85.82606679999999,ChIJx5bRzmvpHjoR3LMzpCCdtmQ,True
600,Odisha,Old NH 6 (New NH 49),Khereitangiri,Km 339.500,Singhara to Binjhabahal,5857,20.2375561,84.2700179,ChIJ_Tuv6exqIjoRH6jOqcolNhM,True
601,Odisha,NH 26,Nunmath Toll Plaza,Nunmath,Amath to Bhawanipatna,6765,20.2829389,83.29609719999999,ChIJJXZdBWJhJDoRd91z7_0b1Jo,True
602,Odisha,316,Paat Sahanipur (Pipli),Km 21.00,Bhubaneswar - Puri,445,20.137081,85.8393056,ChIJyeufxIekGToR2erNwT-YGZA,True
603,Odisha,18,Padmanavpur,Km 73.425,Jharpokhria Baripada Baleshwar,5780,21.6230733,86.92494830000001,ChIJb48Ymab3HDoRwMsRbz-yR-0,False
604,Odisha,16,Panikholi,Km 191.698,Chandikhole - Bhadrak [Km 62.000 to Km 136.500 (New Chainage Km 218.000 to Km 143.500)],171,20.897931,86.21636579999999,ChIJn8XtGqhXGToRaqTEw5JtYLg,False
605,Odisha,NH 53 ( Old NH06 ),Pudapada Nildungri Toll Plaza,Pudapada Nildungri ( 551.800 ),Teleibani Sambalpur,6617,21.4457181,84.1151359,ChIJmfJ5WQANIToRStNF9-D88vU,True
606,Odisha,57,Rangamatia Toll Plaza,RANGAMATIA DASPALLA,ADENIGADA TO MAICHHELI,6616,20.3659625,84.7937031,ChIJxfjuNYN7IjoREkRay_R0Xv4,False
607,Odisha,16,Sergarh,Km 97.960,Bhadrak - Balasore (Km 136.500 to Km199.141 (New Chainage Km 143.635 to Km 80.994)),170,21.429975,86.8368474,ChIJzTEEgbtgHDoR1dHzRrmEWAQ,False
608,Odisha,5A,Srirampur,Km 3.588,Chandikhol - Paradip (Km 0.000 to Km 76.588),168,20.6788195,86.165641,ChIJ17HJY_pdGToRdWDzFnr9wKE,False
609,Odisha,18,Sukhuapada,Km 12.900,Jharpokhria Baripada Baleshwar,5781,22.0741445,86.64363379999999,ChIJVd3EEUy5HToRvbH3MefwOIE,False
610,Punjab,NH 09,Abul Khurana Toll Plaza,11.150,Malout Mandi Dabwali Section,6794,30.1395861,74.5375693,ChIJTZw4WOQZFzkRP95uDbi5LUE,True
611,Punjab,NH 7,Azizpur,9.120 Km,0.00 Km to 50.00 Km,4563,30.5929747,76.7593309,ChIJvVa9pSrrDzkRjALxXBTp9bA,False
612,Punjab,NH 344A,Bachhuan,Bacchuan Km 70.240,Ropar to Phagwara,5657,31.1471305,75.34121789999999,ChIJVXOeVqpkGTkRYYijAzEmvY8,True
613,Punjab,7 (Old 64),Badbar,139.720,Patiala Sangrur Barnala Bathinda,4506,30.24781279999999,75.640495,ChIJl4hAY5f5EDkR7Tawp7K8gCM,True
614,Punjab,7,Balluana,12.3,,5915,30.2275106,74.763814,ChIJh_Q0PHQ7FzkRVgy7BWjdNZs,False
615,Punjab,344A,Behram,Behram at Km 15.300,Ropar Phagwara,5658,31.2042664,75.87707019999999,ChIJH5yoq26NGjkREOLmxS4WokA,True
616,Punjab,NH 703 B,Bhagupur Toll Plaza,"Tarn Taran , 143416 Punjab",57.800,5984,31.2499858,74.82757939999999,ChIJe6kjj8KPGTkR3PQbQS21KFA,False
617,Punjab,Linking NH 95 with NH 1,Chahar,Km 12.200,17.041 Km,5859,31.1471305,75.34121789999999,ChIJVXOeVqpkGTkRYYijAzEmvY8,True
618,Punjab,703,Chak Bamniya,at 50.835,at Km. 50.835 from Km 12.000 to 77.200 on LambraShahkotMogaBar0la section of NH71 (New NH703) in the State of Punjab,5748,31.0174349,75.29991849999999,ChIJx1Pz5DITGjkRTnUh0TSOqv4,False
619,Punjab,5,Chandimandir,Km 51.400,Zirakpur Parwanoo,149,31.1471305,75.34121789999999,ChIJVXOeVqpkGTkRYYijAzEmvY8,True
620,Punjab,54,Chhotian,Chhotian,Km 244.540 to Km 287.548,6786,29.7205185,75.3372095,ChIJU5CRGQA_ETkRKxJM7hTkHjs,True
621,Punjab,1,Chiddan,Km 479.868,Amritsar - Wagah Border (Km 456.100 - Km 492.030),130,31.6171776,74.6923924,ChIJmyL1AQZuGTkRQcXud6ARcjk,False
622,Punjab,44,Chollang,Km 34.500,Jalandhar - Pathankot ( Km 4.23 to Km 70.00),375,31.6249853,75.64022039999999,ChIJAzssEOGrGzkR6bqTuUvFC-o,False
623,Punjab,152,Dappar,Km 23.080,Ambala Zirakpur,131,30.5274377,76.81323379999999,ChIJa2wlkpDADzkR3ylR-k9_j4M,False
624,Punjab,NH05,Darapur Toll Plaza,164.00,Ludhiana to Talwandi,5990,30.8401266,74.9772849,ChIJAyoPxxwCGjkRUyPqRcOyGwg,True
625,Punjab,NH 7,Dhareri jattan,42.600,0.00 km to 50 km,4562,30.3946857,76.4989603,ChIJq0SYpzXYDzkRzORUIwB5Ekw,True
626,Punjab,1,Dhilwan,Km 410.180,Jalandhar Amritsar,151,31.4992207,75.3230032,ChIJ7T0gjks1GjkRC4wBOufzrOU,False
627,Punjab,NH95 (New NH05),Ferozeshah,183.73,Talwandi Bhai to Ferozepur,5869,30.8696012,74.77315569999999,ChIJtWPxv67lGTkRz5dD0Wh0JsI,False
628,Punjab,05 (Old 95),Gurhe (Chowkiman ),104.58,78 Km,5703,30.8103194,75.5661251,ChIJsY1KSoKCEDkRh07azvXlDbE,True
629,Punjab,54,Harsa Mansar,Harsa Mansar,Jalandhar - Pathankot - Lakhanpur,191,32.0615746,75.6142164,ChIJiWazt1CbGzkR2Ym679LUluQ,False
630,Punjab,354 E,Kala Tibba,Kala Tibba,2 Lane from Km 0.00 to Km 50.885,5914,30.1043537,74.26151,ChIJfzfvqBoHFzkRz6orI-10pdc,True
631,Punjab,7 (Old 64),Kalajhar,Km 85.950,Patiala Sangrur Barnala Bathinda,4505,30.2708322,76.15083849999999,ChIJGYyXGus2EDkRzj_m39a4vgA,True
632,Punjab,703 B,Karahewala,Km 25+300,Moga to Makhu,5989,31.0513835,75.06195389999999,ChIJv52WZ08ZGjkR4Umh2ooZIss,True
633,Punjab,NH 10,Khuian Malkan,Km. 302.250,43.925 km,4575,29.8651627,74.7790565,ChIJhcVCSoDaFjkRbtMCCI057m8,True
634,Punjab,54,Kot Karor,at 205.00,at km. 205.00 of Harike Zira Faridkot from km. 166.925 to Km. 221.380 on NH15 (New NH54) in the state of Punjab.,5749,30.8214172,74.9143691,ChIJOedMT9H-GTkRkjGsUSW-BC4,False
635,Punjab,205,Kurali (Behrampur),Km 35.000,Kurali - Kiratpur,133,30.9081357,76.545346,ChIJ_dOWok3_DzkR7_OP_iGPHQM,False
636,Punjab,44(Old NH 01),Ladhowal,Km 328.050,Panipat - Jalandhar,157,30.9890472,75.79047059999999,ChIJSQg-BGyGGjkRn3l5QXzlDCA,False
637,Punjab,54,Ladpalwan,Km 16.000,Pathankot-Amritsar,413,32.1980664,75.5338113,ChIJt-n2fNOHGzkReymyjROw8XI,False
638,Punjab,NH 7(Old NH 64),Lehrabega Toll Plaza,Km 191.929,KM 10.00 to KM 41.405,4560,30.2330182,75.1019522,ChIJ-ddPIjLOEDkRUwIroHMOiSo,False
639,Punjab,703,Mallian Toll Plaza,Mallian at km. 127.400,TallewalBarnala section of NH 703,6813,30.4465307,75.43006129999999,ChIJt4-7awCVEDkRk0NpzxVrg4c,True
640,Punjab,354,Manan,Manan,48.823 Km.,5929,31.5164872,74.8004516,ChIJP5F9xNl5GTkRcm3SPGYj1n8,False
641,Punjab,NH73,Milk Majra,98.750 Km,Yamunanagar Panchkula,4555,31.1471305,75.34121789999999,ChIJVXOeVqpkGTkRYYijAzEmvY8,True
642,Punjab,Old NH01 (New NH03),Nijjarpura,Km 442.800,69 KM,153,31.5777034,74.99727030000001,ChIJc8vUI0LWGzkR2G0yHaHxPA8,False
643,Punjab,71(New NH 52),Paind,KM 227.138,KM 181.805 to KM 238.695,4561,29.8886506,76.1015173,ChIJNYpvEgDHETkRTwubUU0_Prs,True
644,Punjab,54,Usma,at Km 138.140,Km 112.575 to Km 166.925,5750,31.3700354,74.9547638,ChIJ8SVrS02HGTkRtY2VPTH7xB8,True
645,Punjab,54,Waryam Nangal,Km 88.500,Pathankot-Amritsar,414,31.7326748,75.0424508,ChIJ1yuw6EvZGzkRqZ27jbEk2dE,False
646,Punjab,54 (Old NH 15),Zidda,Km 267.488,KM 221.380 to KM 287.215,4559,31.1471305,75.34121789999999,ChIJVXOeVqpkGTkRYYijAzEmvY8,True
647,Rajasthan,52,Akhepura,Km 324.638,Reengus - Sikar (Km 298.075 to Km 341.047),416,27.5081438,75.34436769999999,ChIJW5nEXqzqbDkR7WzP9tCvGmE,False
648,Rajasthan,11,Amoli,Km 98.500,Bharatpur - Mahua (Km 63.000 to Km 120.000),181,27.1014078,77.0908951,ChIJez6HHAlPcjkRsPT4zMdNWJI,False
649,Rajasthan,76,Aroli,Km 294.469,Chittorgarh - Kota,14,25.0910946,75.19899509999999,ChIJp_7dmddabzkR_ZPdQ5lS7iU,False
650,Rajasthan,NE 4,Bad ka pada Fee plaza,At Ch. 228.748,DVE PKG08 from Ch. 214.260 to Ch. 247.310,6664,27.2957223,77.1456402,ChIJeeBFyKdVcjkRfvmKTAbhhBs,True
651,Rajasthan,NH 62,Badhera Toll Plaza,SURATGARH BIKANER TOLL ROAD COMPANY PVT LTD Badhera Toll (B2) Lunkaransar Bikaner Rajasthan India 334603,60 km (km 60.785 to 120.785),6738,27.0238036,74.21793260000001,ChIJNw7j9_o-ajkR5YjABkWbK7U,True
652,Rajasthan,89,Badighati,Thanwla,Ajmer 0gaur Section,5678,26.5473211,74.5065979,ChIJ-aPEPXnDazkRtSGUcbyLQd4,False
653,Rajasthan,8,Bagaliya,Km 84,Bewar to Gomti (Km 58.245 to Km 134),338,25.8844681,74.16076439999999,ChIJ2at0wLChaTkR9_gJsLWLfQ4,False
654,Rajasthan,8,Baggad,BAGGAR (Ch. 136 to 137),Beawar Gomti Section of NH8,6601,25.590622,73.9029597,ChIJESvMojm0aTkRtLQNI5VlYyg,False
655,Rajasthan,8,Baggad (MoRTH),Km 134,Bewar to Gomti (Km 58.245 to Km 177.050),333,27.0238036,74.21793260000001,ChIJNw7j9_o-ajkR5YjABkWbK7U,True
656,Rajasthan,NH-248A,Bahala Toll Plaza,Bahala,ALWAR TO NUH SECTION,5978,27.5273666,76.717188,ChIJx6giwKGRcjkRK_805K-iN4k,True
657,Rajasthan,325,Balana,Km. 149.200,Balotra Sandrao Section of NH325,5905,25.300801,73.0575961,ChIJkQBGcRTzQjkR8bnKzvFnQ7E,True
658,Rajasthan,NE 4,Balapura ( Entry Exit ),Ch. 417.810,80Km,6855,27.0238036,74.21793260000001,ChIJNw7j9_o-ajkR5YjABkWbK7U,True
659,Rajasthan,NE 4,Balapura ( Entry Exit ),Ch. 398.241,80Km,6854,27.0238036,74.21793260000001,ChIJNw7j9_o-ajkR5YjABkWbK7U,True
660,Rajasthan,458,Banthadi,34.000,Nimbijodha Degna Merta City (0.000 139.900),1476,27.2740862,74.3528822,ChIJe-5EIaobazkRPEyQQkYZ7Rg,True
661,Rajasthan,52,Barkheda (Chandlai),Km 30.500,Jaipur - Deoli,183,26.6881731,75.9047215,ChIJOYMHsnzFbTkRW95jhK6J8s0,True
662,Rajasthan,911 911A,Barsalpur,Km. 81.700,212.107 kms,5735,28.0479447,72.3497016,ChIJwbctGgAXPzkR8YkeNoy4PFI,False
663,Rajasthan,76,Bassi,Km 237.629,Chittorgarh - Kota,13,25.0340349,74.8175881,ChIJNcaCMLevaDkR7thPL6tEmdk,False
664,Rajasthan,NH12 (New NH52),Beer Mandi,Km. 27.700,Construction of 4lane Road on NH12 (New NH52) from Km 299.000 to 346.540 (Design Chai0ge From 9.860 to 58.740) (DarahJhalawarTeendhar section) in the State of Rajasthan under NHDP PhaseIII on H,5921,24.6614671,76.0232338,ChIJxZW4uQ9rZTkReofhw5DIjww,True
665,Rajasthan,NE 4,Bhandaraj Fee Plaza,At Ch. 182.000,DVE PKG06 from Ch. 151840 to Ch. 183000,6662,27.0238036,74.21793260000001,ChIJNw7j9_o-ajkR5YjABkWbK7U,True
666,Rajasthan,25 (Old NH 112),Binawas,Km. 81.090,Bar Bilara Jodhpur,5906,26.278853,73.3943297,ChIJS1ck6bj_QTkRerirUh_LoTc,False
667,Rajasthan,14,Birami,Km 154.00,Beawar-Pali-Pindwara,438,25.3711282,73.2014554,ChIJRYKKuWuJQjkRet_gDzlV9J4,False
668,Rajasthan,25 (OldNH112),Biratiya Kalan,Km. 8.442,Bar Bilara Jodhpur,5907,26.121953,74.06214100000001,ChIJBbU9Zx2FaTkRsmoNqmR-NFA,True
669,Rajasthan,15 (New 68),Bor Charnan,238.800,Barmer SanchoreGujarat Border (upto Gandhav Bridge) Section of NH15 from Km 153.00 to 259.300 (length 106.300Km),4549,25.1275788,71.5664607,ChIJu7WnZU_zRDkRNw2JIKw1V8c,True
670,Rajasthan,754A,Bungri,Bungri,Amritsar Jamnagar Economic Corridor,6706,27.35,73.1,ChIJjXw_L1gTQDkRfgJqICmfmNw,True
671,Rajasthan,89,Butati (Kuchera),Butati (Kuchera) Ch. 111.000,AJMER NAGAUR SECTION of NH89,6602,26.8980929,73.9844722,ChIJBdfsSdNbajkRfObSw4tdMP4,True
672,Rajasthan,11B,Chila Chond,142.350,Karauli - Dholpur (Km 83.960 - Km 184.860),490,26.6129885,77.5154422,ChIJjduYN9NhcTkR8sGNbMDBawU,True
673,Rajasthan,168A,Choti villor,Km. 8.400,Sanchore DhaneraDeesa road section,5904,27.0238036,74.21793260000001,ChIJNw7j9_o-ajkR5YjABkWbK7U,True
674,Rajasthan,48,Dakan Kotra,Dakan Kotra,Six lane Greenfield Proposed Udaipur Bypass (Connection between NH76 at km 118.500 at Debari to NH8 km 287.400 at Kaya village (Udaipur Bypass Length 23.883 km) on Hybrid Annuity Mode packageIV u,6781,24.5003373,73.7207337,ChIJJ2KhTwDvZzkRXnKxPW-Ms-A,True
675,Rajasthan,125 A,Dangiyawas,At Km. 2.550,Four Laning of Dangiawas (km 96.595 of NH112) to Jajiwal (km 283.500 of NH 65 Nagaur Road) section PackageI (Design length 74.619 km) of Jodhpur Ring Road Section of NH125A in the State of Rajasth,6807,26.2669377,73.2318636,ChIJ33rAerbxQTkRFCIK7Ux1mbE,False
676,Rajasthan,8,Daulatpura,Km 241.000,Gurgaon Kotputli Jaipur,215,27.0868362,75.8344465,ChIJM8c5nsGubTkRZxYTwsOfEvM,True
677,Rajasthan,754A,Deogarh,Deogarh,Amritsar Jamnagar Economic Corridor,6711,26.3067119,72.5872969,ChIJnwKaZgBxQTkR3LNgLdBS2tk,True
678,Rajasthan,New 754 A (Old 754 K),Deshnok,Deshnok,6lane access controlled Greenfield highway from Sangariya (near Chautala) to Rasisar (near Bikaner) section of NH754K (New 754A) as a part of AmritsarJamnagar Economic Corridor in the State of Raj,6802,27.7594489,73.3598401,ChIJ0UCDQAD7PzkRhL8BSJY5P6M,True
679,Rajasthan,52 (Old 65),Dhadhar,69.000,Rajasthan Border Fatehpur Salasar section,4482,28.3459157,75.0703851,ChIJm0g08npkEzkRcTcheV2d7qo,True
680,Rajasthan,76,Dhaneshwar,Km 340.979,Chittorgarh - Kota,15,25.0726518,75.5984845,ChIJh8aREMB7bzkRPW6EIXThafg,False
681,Rajasthan,158,Dhulepura,102.200,Asind Bhilwara,6774,25.5321409,74.5199773,ChIJsfC8i5zhaDkRXRaQkHxsTHg,True
682,Rajasthan,112,Doli,Km 174.875,Jodhpur Pachpadra Section,4510,26.0627757,72.6733019,ChIJe2GAZR3VQzkR53fmX-LZ2e8,False
683,Rajasthan,NE 4,Dungarpur Fee Plaza,At Ch. 210.972,DVE PKG07 from Ch. 183000 to Ch. 214260,6663,23.8518813,73.72043049999999,ChIJWchBUyduZzkR65yBHnlYN1I,True
684,Rajasthan,76,Fatehpur,Km 461.290,Kota - Baran Section,16,25.1217357,76.57311109999999,ChIJ89wEmpUGcDkRz-chgsxXOcg,True
685,Rajasthan,NH 65 (New NH 62),Gajangarh Toll Plaza,Gajangarh Toll Plaza Near Kharda Village at Km 365.500,Jodhpur To Pali Section,6734,25.8356689,73.2234557,ChIJFRqqFyYTQjkRcOBNbe1c6OI,True
686,Rajasthan,911 911A,Gangajali,19.52,212.107 kms,5734,28.4760758,72.6202397,ChIJpTIeMwv3PjkRlVQ9UgSvAW4,True
687,Rajasthan,8,Gegal,Km 378.800,Kishangarh-Ajmer-Beawar,420,26.5515557,74.78138770000001,ChIJhbms7h3wazkRMIi1DMKjrtA,False
688,Rajasthan,NH 62,Gogela fee Plaza,176.355 KM,161.000 Km To 215.130,6684,27.0238036,74.21793260000001,ChIJNw7j9_o-ajkR5YjABkWbK7U,True
689,Rajasthan,76,Gogunda (Jaswantgarh),Km 64.200,Jaswantgarh - Debari,132,24.7660984,73.5240278,ChIJYZprAPIAaDkRaPBb8x_3WmE,False
690,Rajasthan,NH 116,Gumanpura,At Km.24.350 design chainage near Village Gumanpura,Tonk to Sawaimadhopur,5729,25.9926,75.93854759999999,ChIJbQJJjMxFbjkR2QHNOmvcXGI,False
691,Rajasthan,NH58,Harimma,Km. 258.555,Salasar Nagaur Section,4550,27.261048,73.8497476,ChIJKXDh9GHrajkRP2ZR212247E,True
692,Rajasthan,15 (New 68),Hathitala,175.680,Barmer Sanchore Gujarat Border (upto Gandhav Bridge) Section of NH15 from Km 153.00 to 259.300 (length 106.300Km),4548,25.5609358,71.4071575,ChIJw0b-zQNHRDkRW8m1TbQ7ZMg,False
693,Rajasthan,NH 62,Hindor Toll Plaza,SURATGARH BIKANER TOLL ROAD COMPANY PVT LTD Hindor Toll (H3) Rajiyasar SuratgarhGanganagar Rajasthan India 335804,52.384 km (km 120.785 to 173.169),6739,29.1012213,73.853973,ChIJPzLM-nzfFTkR4E1fbrixV5Y,True
694,Rajasthan,148 C,Hingonia,Km 30.77,Agra Road to Tonk Road,5674,26.851073,75.9250824,ChIJnfwTfgS5bTkRgVcXPGbXh_8,False
695,Rajasthan,14,Indranagar,Km 93.750,Beawar-Pali-Pindwara,434,25.8297092,73.4598455,ChIJCemDD1R1QjkRkcwshtgUJdw,False
696,Rajasthan,New 754 A (Old 754K),Jaitpur (Jaipur),Jaitpur,6lane access controlled Greenfield highway from Sangariya (near Chautala) to Rasisar (near Bikaner) section of NH754K (New 754A) as a part of AmritsarJamnagar Economic Corridor in the State of Raj,6798,28.5082271,77.33079719999999,ChIJIduS5vbmDDkRWdnnDjBQPw8,True
697,Rajasthan,114,Jasnathnagar,33.189,Jodhpur to Pokaran,4490,26.7738202,72.8590653,ChIJDeCa8tatQTkRO4lPZAcapsU,True
698,Rajasthan,158,Jaswantpura,39.675,Rehabilition and Upgradation to Two Lane with paved shoulder configuration of Beawar to Asind Section (Km. 30.050 to Km. 74.000) of NH158 in the state of Rajasthan under Green National Highway Corrid,6783,24.8243427,72.4590951,ChIJKekQRgA7QzkRLQmD2QhGnTU,True
699,Rajasthan,754A,Jathon Ki Dhani ( Hanuman Sagar ),Jathon Ki Dhani ( Hanuman Sagar ) Fhalodi (Raj),Amritsar Jamnagar Economic Corridor,6708,26.9527372,72.9063357,ChIJDzwvfwBNQDkRx10b0NG4dTs,True
700,Rajasthan,79,Jojro Ka Khera,Km 184.20,Bhilwara - Chittorgarh (Km 81.000 to Km 163.900),134,25.0828675,74.62444280000001,ChIJy0ljMQm9aDkR0bMKZOaM6bg,False
701,Rajasthan,NH 148D,Kadisahena,Km 69.267 Km 282.936,GulabpuraUniara PhaseIV,5649,25.6536557,74.99064589999999,ChIJ8wOB40HVbjkRS4JhubG9Dbg,True
702,Rajasthan,15 (New 68),Kair Fakir ki Dhani,44.16,Jaisalmer Barmer Section of NH15 to TwoFour Lane with paved shoulders from km 0.00 to Km 122.880 Km 144.500 to Km 153.034,4621,26.6252397,71.2033907,ChIJj0euRbz_RjkRqvV0b-4tnFw,True
703,Rajasthan,NE 4,Karadiya ( Entry Exit ),Ch. 385.797,80Km,6853,27.0238036,74.21793260000001,ChIJNw7j9_o-ajkR5YjABkWbK7U,True
704,Rajasthan,58 E,Karel toll plaza,Karel,Upgradation to two lane with paved shoulder from Jhadol to Ambabhelly (section of NH58E) from km. 43.900 to km. 91.000 in the state of Rajasthan,5991,24.2127734,73.3524169,ChIJoVyMWLZlXTkRKgdMpXpB3p0,True
705,Rajasthan,NH758,Khachrol,Km 142.260,Bhilwara Ladpura,5731,25.22741,75.06604089999999,ChIJ-azbi4FJbzkR2UocL5MVGjc,True
706,Rajasthan,8,Khandi Obari,Km 348.450,Kherwara - Ratanpur (Km 348.000 to Km 388.180),136,23.9945706,73.6295469,ChIJP45t04x5ZzkRNvk8whb3DyA,True
707,Rajasthan,NH 62,Khara,SURATGARH BIKANER TOLL ROAD COMPANY PVT LTD Khara Toll (K1) Jamsar Bikaner Rajasthan India 334601,60 km (km 0.000 to km 60.785),6732,28.2334354,73.3898552,ChIJeYbCWgfXPzkR_u-mWmGqB64,False
708,Rajasthan,(Old NH 79A 79 New NH 48,Khedi,61.02,Kishangarh (km 0.000) to Gulabpura (km 90.000) section of NH 79A and NH 79,135,26.1031269,74.6849573,ChIJK5vCN4dDaTkRLAOcuBxWzpI,True
709,Rajasthan,11,Kheerwa,Km 141.830,Bikaner to Phalodi,4574,27.2832573,72.32321499999999,ChIJKQo8nS-9QDkRv8oguU3bRY4,False
710,Rajasthan,754A,Khudiyala,Khudiyala,Amritsar Jamnagar Economic Corridor,6710,27.143906,70.3883177,ChIJY73NciUHSDkRI811saZ21wk,True
711,Rajasthan,8,Kishangarh (Badgaon),Km 360.700,Jaipur - Kishangarh,124,26.5866303,74.8541759,ChIJjSby4djwazkRie8WkwaEAtg,True
712,Rajasthan,52,Kishorepura,Km 180.00,Deoli - Kota,456,25.6205,75.4734,ChIJN3QPblwcbzkRdI3QHBpWOhg,True
713,Rajasthan,11B,Kondar,91.800,Karauli Dholpur (Km 83.960 Km 184.860),489,26.5372449,77.0860142,ChIJ86loOieHcTkRCyk_qLlKw3I,False
714,Rajasthan,21,Korai,Km 30.090,Agra - Bharatpur,120,27.0238036,74.21793260000001,ChIJNw7j9_o-ajkR5YjABkWbK7U,True
715,Rajasthan,NE 4,Laban ( Entry Exit Toll ),Ch. 337.171,80 Km,6850,25.5489065,76.2261852,ChIJw0wehZjFbzkReGGdL4c5Hyk,True
716,Rajasthan,NH 11,Lakhasar,SIKAR BIKANER HIGHWAY LTD. Lakhasar Toll Plaza Vill.LakhasarVPO TehsilSridunergarh Dist.Bikaner( Rajasthan) Pin Code331811,340.188 to 557.775,6729,28.0937343,73.876392,ChIJN_OkxG8VFTkR5acrToOXiQM,False
717,Rajasthan,NH 148D,Lal Ka Khera,Km 69.267 Km 282.936,Gulabpura to Uniara PhaseIV,5650,25.4881237,75.3134279,ChIJ4aDvYJEjbzkR5P5ltX2XMZg,True
718,Rajasthan,79,Lambiya Kalan,Km 121.20,Gulabpura Chittorgarh (Km 100.750 to Km 121.20),185,25.5871417,74.5950599,ChIJuTYe3P3faDkR7NvoVYB9LxI,True
719,Rajasthan,52 (Old 65),Lasedi,8.700,Rajasthan Border Fatehpur Salasar section,4481,28.7088387,75.4814672,ChIJ20GYrGKmEzkRhYi93StRmJs,True
720,Rajasthan,NH15 (New NH11),LATHI,PHALODI JAISALMER SEC NH15 TO TWO FOUR LANE WITH PAVED SHULDER,PHALODI JAISALMER SEC NH15 TO TWO FOUR LANE WITH PAVED SHULDER,4569,27.0299896,71.44633449999999,ChIJYxK_hkYTRzkRxmRvLnXOO4Q,True
721,Rajasthan,754A,Laxmannagar,Laxmannagar (jodhpur),Amritsar Jamnagar Economic Corridor,6707,27.0238036,74.21793260000001,ChIJNw7j9_o-ajkR5YjABkWbK7U,True
722,Rajasthan,458,Lilamba,Km 216.327,Lambia - Raipur,472,26.0838927,74.0035709,ChIJu9UyrN-PaTkRlMgYJyJamlE,True
723,Rajasthan,11,Ludhawai,Km 64.570,Bharatpur - Mahua ((Km 62.295 to Km 119.600),110,27.1785143,77.416743,ChIJc_mVfzmlczkRqc6NQ94f5y8,False
724,Rajasthan,76,Malera,Km 11.200,Pindwara - Jaswantgarh,138,24.7123978,73.0938815,ChIJoXveTGe1QjkR4-Fdvc1OfY0,False
725,Rajasthan,New 754A (Old 754K),Malkisar,Malkisar,6lane access controlled Greenfield highway from Sangariya (near Chautala) to Rasisar (near Bikaner) section of NH754K (New 754A) as a part of AmritsarJamnagar Economic Corridor in the State of Raj,6799,28.6696495,73.9065883,ChIJJ7sH5He7FTkRsK-Rvr-eyRQ,True
726,Rajasthan,125 A,Manaklavo,At Km. 2.550,Four Laning of Dangiawas (km 96.595 of NH112) to Jajiwal (km 283.500 of NH 65 Nagaur Road) section PackageI (Design length 74.619 km) of Jodhpur Ring Road Section of NH125A in the State of Rajasth,6808,27.0238036,74.21793260000001,ChIJNw7j9_o-ajkR5YjABkWbK7U,True
727,Rajasthan,NH52 (Old NH12),Mandana,Km. 273.654 near MandanaVillage KotaDistrict,Kota (Km 256550) to Darah (Km. 290880) of NH52 (Old NH12),4620,27.0238036,74.21793260000001,ChIJNw7j9_o-ajkR5YjABkWbK7U,True
728,Rajasthan,8,Mandawada (Gomati),Km 187.244,Gomti Churaha - Udaipur,457,25.2014743,73.8161057,ChIJq3rBcRM_aDkRuo9nkFaaomI,False
729,Rajasthan,NE 4,Mandawara ( Entry Exit ),Ch. 358.695,80Km,6851,27.0519919,74.8536372,ChIJO8GIF0qCazkRDVVOK5K3Jeg,True
730,Rajasthan,8,Manoharpur,Km 211.000,Gurgaon - Kotputli - Jaipur,214,27.3056232,75.9535664,ChIJpcXBnYQPbTkRGkAKiRTLV3Y,True
731,Rajasthan,754A,Meghawas,Meghawas,Amritsar Jamnagar Economic Corridor,6712,26.166356,72.4818261,ChIJmRsrWABjQTkRqGAWpzSQOX0,True
732,Rajasthan,52,Methoon,Km 376.180,Jhalawar-Rajasthan/M.P.Border (Km 346.540 to Km Km 408.700),446,24.4200677,76.5038842,ChIJE__6RqfTejkRhW1iZqWXXR4,False
733,Rajasthan,754A,Moothli,Moothli,Amritsar Jamnagar Economic Corridor,6716,25.6953154,72.28078959999999,ChIJaUGsoSvrQzkRSlzymYkDwXk,True
734,Rajasthan,114,Morani (Pokaran),165.401,Jodhpur to Pokaran,4492,26.9207919,71.92243549999999,ChIJPVtx-X4tRzkRgJvhNtAjvHA,True
735,Rajasthan,114,Motisar (Kanori),98.809,Jodhpur To Pokaran,4491,27.0238036,74.21793260000001,ChIJNw7j9_o-ajkR5YjABkWbK7U,True
736,Rajasthan,758,Mujras,78.000,Rajsamand Bhilwara,1479,25.2681692,74.4965215,ChIJGT29qHnsaDkRV2wKRiFhcAs,True
737,Rajasthan,76,Narayanpura,Km 261.770,Udaipur Chittorgarh (Km 214 to Km 308),137,24.613577,74.2317099,ChIJ39RJ17syZjkRAo2GYJqzipY,True
738,Rajasthan,NH 325,Narsana,Km 80.000,Balotara Sanderao Section of NH 325 from Km 16.200 to Km 91.600,5727,25.4862425,72.5696243,ChIJRQ9jRlmvQzkRdZ0sIv6hCXo,False
739,Rajasthan,NH 113,Narshinghgarh Toll Plaza,TP 10,72.915 KMS,6737,24.5523485,74.6664414,ChIJh8OcB2kUZjkRdkjrRvxzH8I,True
740,Rajasthan,NH27,Nayagaon(RHS) (Staggered),4.870,Kota Bypass Cable Stayed Bridge,4540,27.0238036,74.21793260000001,ChIJNw7j9_o-ajkR5YjABkWbK7U,True
741,Rajasthan,8,Negadiya,Km 238.170,Gomti Churaha - Udaipur,458,24.7997827,73.7609253,ChIJNb5zFTAKaDkRDnGY1mhkyhs,False
742,Rajasthan,148,Nekawala,CH 11.750,MANOHARPUR TO DAUSA,5908,27.2421675,76.06431719999999,ChIJw1JomRgLbTkRXWe36rdRu-Q,False
743,Rajasthan,62,Netra,Km. 267.800,From Km 250.00 to Km 296.070,5867,26.5787314,73.1531612,ChIJIRbsbxnBQTkREkG-uy1hlNk,True
744,Rajasthan,NH 79,Nimbahera Toll Plaza,TP 221,44.082 KMS,6736,24.6239992,74.6892525,ChIJGQItadQPZjkRcTfNR1qPguI,True
745,Rajasthan,NH 65 (New NH 62),Nimbali Toll Plaza,Nimbali Toll Plaza Near Nimabli Village at Km 338.200,Jodhpur To Pali Section,6733,26.0185675,73.0888646,ChIJt1AAlH8YQjkRy0pVWKazO7s,False
746,Rajasthan,25,Nimbaniya Ki Dhani (Bayatu),Km 300.300,Bagundi - Barmer (km 254.800 to km 328.900),478,25.8970237,71.7665209,ChIJl-7Aua0ERDkRCD3xPFTIbu8,True
747,Rajasthan,NH 15(New 68),Nimbasar,Km 104.893,Jaisalmer to Barmer,5726,26.1511904,71.2804404,ChIJ043DBE2JRjkRtxBtWOlhvW0,True
748,Rajasthan,NH58,Nimbi Jodha,Km. 199.985,Salasar Nagaur Section,4551,27.5148809,74.32093259999999,ChIJsTJ7FNMlazkRvPYTyRyNFPA,True
749,Rajasthan,11,Nokhra,Km 84.400,Bikaner to Phalodi,4573,27.6686778,72.6754879,ChIJ8fznSZZ5PzkRFTOYjGL7JDo,False
750,Rajasthan,New 754 A (Old 754 K ),Norangdesar,Norangdesar,6lane access controlled Greenfield highway from Sangariya (near Chautala) to Rasisar (near Bikaner) section of NH754K (New 754A) as a part of AmritsarJamnagar Economic Corridor in the State of Raj,6801,28.0690864,73.5625876,ChIJn1A24SFnFTkRv7tNgdgGA8c,False
751,Rajasthan,NH 79 old,Ochadi toll plaza,TP 189,44.082 KM,6735,24.825842,74.628798,ChIJ6c_nhrAfZjkRSdYrzw9XdAU,False
752,Rajasthan,NH 148D,Pallai,Km 69.267 Km 282.936,Gulabpura to Uniara Phase,5651,25.88409,75.9585299,ChIJO_o1y89PbjkRjxXNlpQyMQA,False
753,Rajasthan,754A,Panchu,Panchu (Bikaner),Amritsar Jamnagar Economic Corridor,6703,27.0238036,74.21793260000001,ChIJNw7j9_o-ajkR5YjABkWbK7U,True
754,Rajasthan,62 (new NH 89),Parwa,NEAR BY DESHNOKH,NAGAUR TO BIKANER,6797,27.693883,73.3755911,ChIJ981Z9Bb_PzkR81Drjwt_-ZE,False
755,Rajasthan,754A,Patau,Patau,Amritsar Jamnagar Economic Corridor,6713,25.9565073,72.391785,ChIJmdGXFkzcQzkRmB1hjoTvq0g,True
756,Rajasthan,911,Patrauda,Km. 163.500,162.460 Km,5875,29.0585782,73.0956218,ChIJARkPgocLPjkR2MEjBDPxgvI,True
757,Rajasthan,8,Piplaz,Km 44.800,Kishangarh-Ajmer-Beawar,421,26.1586519,74.3715307,ChIJX_RoPeV6aTkRLsQmkaTf9zE,False
758,Rajasthan,11A,Rabawata,at km 78.500 (at km. 77.872 existing chainage),83.453,5909,27.0238036,74.21793260000001,ChIJNw7j9_o-ajkR5YjABkWbK7U,True
759,Rajasthan,14,Raipur,Km 27.50,Beawar-Pali-Pindwara,433,26.0636352,74.0594266,ChIJAZ8E-OmaaTkRd1qILzfIPTA,True
760,Rajasthan,21,Rajadhok,Km 204.700,Mahua - Jaipur (Km 120.000 to Km 228.000),180,26.8589972,76.1040524,ChIJJTgJQkuVbTkRue9zEgy8laE,False
761,Rajasthan,123,Rajora Khurd,Rajora Khurd,Uncha 0gla To Dhoulpur,5862,26.8379008,77.71373059999999,ChIJJcOzi5DvczkRK-FykH42M_0,True
762,Rajasthan,NH15 (New NH11),Ramdevra,km 209.500,PhalodiJaisalmer Section of NH15,4568,27.0083843,71.92219899999999,ChIJq6mRK500RzkRUnPprs5wkF0,True
763,Rajasthan,NH 52,Rashidpura,SIKAR BIKANER HIGHWAY LTD. Rashidpura Toll Plaza VPOKhuri Bari TehsilLaxmangarh Sikar( Rajasthan) Pin Code 332315,340.188 to 557.775,6727,27.725794,75.0761981,ChIJl5qWnzevbDkRTTF8VidYaDY,False
764,Rajasthan,NH-911,Riasinghnagar(Thakri) and Patroda Toll Plaza,12 MD and 42NP,102.500 Km to 163.00 Km,5993,27.0238036,74.21793260000001,ChIJNw7j9_o-ajkR5YjABkWbK7U,True
765,Rajasthan,758,Rupa Kheda,Km 18.000,Rajsamand Bhilwara,1478,25.1105677,73.98815499999999,ChIJZTYKSP9oaDkR7EEbrN3dTWI,True
766,Rajasthan,NH27,Sakatpura(LHS)(Staggered),Km. 1055.217 Km. 1059.350,Kota Bypass Cable Stayed Bridge,4539,28.0192124,76.4961038,ChIJf28KACRVDTkRIz5ceTEUaKs,True
767,Rajasthan,11,Salasar,Km 23.950,Bikaner to Phalodi,4572,28.0082235,73.1261091,ChIJ9Wa2T1XBPzkRmKwuJgGyJWA,True
768,Rajasthan,754A,Sangana,Sangana,Amritsar Jamnagar Economic Corridor,6715,25.396298,72.1140526,ChIJo2QvBhSDQzkRYPk5O0kRAH8,False
769,Rajasthan,911 911A,Seora,167.7,212.107 kms,5736,27.5941985,72.35479149999999,ChIJwzkAWMdgPzkRlRfPeasFPoE,True
770,Rajasthan,8,Shahjahanpur,Km 115.000,Gurgaon - Kotputli - Jaipur,213,27.9998994,76.43056709999999,ChIJyThbSsqqEjkRe9vaZ8fVchM,True
771,Rajasthan,58 (Old 65),Shobhasar,144.500,Rajasthan Border Fatehpur Salasar section,4483,27.7752774,74.7217445,ChIJRfJdnPBMazkREaEsCuJT9_g,True
772,Rajasthan,NH 113 old,Sidhpura Toll Plaza,TP 70,72.915 KMS,6731,24.0940171,74.7523623,ChIJn30KtFyIZjkRDAgC-aYqVnw,True
773,Rajasthan,11,Sikandra,Km 156.600,Mahua - Jaipur (Km 120.000 to Km 228.000),179,26.9444738,76.5574986,ChIJCWtup3lzcjkRm_WrbZczakk,False
774,Rajasthan,27,Simliya Toll Plaza,Km 409.680,Kota - Baran Section,17,25.1699842,76.130611,ChIJc52ZyorybzkRK2Ae2uwcyjA,False
775,Rajasthan,754A,Sirmandi,Sirmandi (jodhpur),Amritsar Jamnagar Economic Corridor,6709,26.7869257,72.8197321,ChIJEWb7RwCtQTkRhFf_8C67Vnk,False
776,Rajasthan,148 C,Sitarampura,km 30.520,Tonk Road to Ajmer Road,5675,26.7474211,75.76874250000002,ChIJB6t8NV7LbTkROI4SSZm_hI8,False
777,Rajasthan,62,SixML,229.100,Suratgarh Sriganganagar,4480,29.8106211,73.8755075,ChIJ62Z5sCdLFjkRVFraqL2LQgA,True
778,Rajasthan,52,Sonwa (Sonva),Km 105.000,Jaipur- Deoli (new),184,26.1099054,75.7447351,ChIJ9Z_3vUNgbjkRufWF09xFw7A,False
779,Rajasthan,458,Tamdoli,93.500,Nimbijodha Degna Merta City (0.000 139.900),1477,26.8700893,74.2931218,ChIJQWmJmletazkR8HXtJAliixM,False
780,Rajasthan,62,Tankla,Km 203.966,From Km 180.500 to Km 250.00,5866,27.0132752,73.5004077,ChIJA4JfWJeBajkRHZST-Xq44es,False
781,Rajasthan,52,Tatiyawas,Km 257.00,Jaipur-Reengus,129,27.0897662,75.7415489,ChIJ1z5adIutbTkRlHi7eIJ0fL0,False
782,Rajasthan,8,Thikariya (Jaipur),Km 286.700,Jaipur - Kishangarh,182,26.853538,75.6293796,ChIJJaSqUC5KbDkRlFGug2lwFlw,True
783,Rajasthan,709 Extn.,Thirpali Badi,Km 33.850,Rajgarh Harya0 Border of NH709 Extn.,5911,28.3917236,75.55678209999999,ChIJO_4Qt2QaEzkRJiJMKJok9ME,True
784,Rajasthan,NH 11,Tidiyasar,SIKAR BIKANER HIGHWAY LTD. Tidiyasar Toll Plaza VPOTidiyasar TehsilRatangarh Dist.Churu( Rajasthan) Pin Code331022,340.188 to 557.775,6728,28.0574669,74.747292,ChIJU959aRC7FDkRDUtZk_9snKI,True
785,Rajasthan,11A,Titoli,at km 15.500 (at km. 15.570 existing chainage),83.453,5910,26.7706893,76.3388171,ChIJVWbe-ZLxbTkRhlyN9MOsx_0,True
786,Rajasthan,New 754 A (Old 754 K),Uchharangdesar,Uchharangdesar,6lane access controlled Greenfield highway from Sangariya (near Chautala) to Rasisar (near Bikaner) section of NH754K (New 754A) as a part of AmritsarJamnagar Economic Corridor in the State of Raj,6800,28.0690864,73.5625876,ChIJn1A24SFnFTkRv7tNgdgGA8c,True
787,Rajasthan,NH 89,Udairamsar,SIKAR BIKANER HIGHWAY LTD. Udaisaram Toll PlazaNear Rishi Toyata showroom Jodhpur Bye PassBikaner Dist.Bikaner ( Rajasthan) Pin Code334001,340.188 to 557.775,6730,27.9354618,73.2942267,ChIJRarB7xTmPzkRKdBNklitceM,True
788,Rajasthan,14,Uthamam,Km 202.315,Beawar-Pali-Pindwara,439,27.0238036,74.21793260000001,ChIJNw7j9_o-ajkR5YjABkWbK7U,True
789,Rajasthan,NE 4,Zalimpura ( Entry Exit ),Ch. 372.590,80Km,6852,25.2718167,76.1348944,ChIJhXwMwGbsbzkREpbxKrVo2n8,True
790,Tamil Nadu,45,Athur (Tindivanam),Km 103.500,Tambaram - Tindivanam (Km 74.500 - Km 121.000),75,12.2123655,79.6923047,ChIJPxTM0fdAUzoRiQgdQGU9mc4,True
791,Tamil Nadu,NH 87 (Old NH49),Bogalur,98.129,Madurai Rama0thapuram,4592,9.4183655,78.74743529999999,ChIJa7Y9cQahATsR4WhSr26NCZs,True
792,Tamil Nadu,NH 45 B,Boothakudi,Km 21.020,Trichi Bypass - Tovarankurichi - Madurai,26,10.6412791,78.58133889999999,ChIJm-pXiZtjqjsROFl-LXOhyzk,True
793,Tamil Nadu,83,Chatrapatti Toll Plaza,Chatrapatti,Four laning of OddanchatramMadathukulam section of NH 209 (New NH 83),6782,10.4804498,77.63708009999999,ChIJ5ZTmTgDnqTsR6z8e-c5i6MU,True
794,Tamil Nadu,48,Chennasamudram,Km 104.900,Walajapet - Poomalle,296,12.910856,79.4011921,ChIJCSzbFCDLUjoR9dlkcI2BLKY,False
795,Tamil Nadu,45 B,Chittampatti,Km 113.630,Trichi Bypass - Tovarankurichi - Madurai,27,9.9896056,78.2441253,ChIJXabIucLBADsRgq2jx_JgsI0,False
796,Tamil Nadu,45B,Eliyarpathi,Km 143.580,Madurai Toturian,85,9.783006,78.0945416,ChIJbV1ud7PQADsR6FfEg5dft2w,False
797,Tamil Nadu,234,Enamkariyanandal Toll plaza,Enamkariyanandal Km.138.600,Vellore to Viluppuram,6626,12.2873114,79.0690826,ChIJh792v7_BrDsR6fgOhiIsfPA,True
798,Tamil Nadu,7,Etturvattam,Km 74.930,Madurai - Tirunelveli - Panagudi - kanayakumari,111,9.385372799999999,77.9143524,ChIJuZkteybLBjsRB7psLvjz5lo,False
799,Tamil Nadu,332,Gangarampalayam,Gangarampalayam Village,Villupuram to Puducherry section of NH332 (Old NH45A),6843,11.9163135,79.6136156,ChIJUWzjDv9YUzoR5X-TnMOUQ_Y,True
800,Tamil Nadu,179A,H Pudhupatti,39.760,Salem to Vayembadi Section,6838,11.9674608,78.42556569999999,ChIJA2sdGQBxrDsRpMJO5D0y3zw,False
801,Tamil Nadu,81 Old NH227,Kallakudi,Kallakudi,Four laning of Tiruchirapalli (Km.0.00) to Kallagam (Km.38.700) section of NH227,5942,10.9972787,78.9668508,ChIJMbrGAaDnqjsRPFGjnWY_A2Y,False
802,Tamil Nadu,544,Kaniyur,Km 136.840,Chengapalli - Coimbatore Byepass(Km 102.035 to 144.680),447,11.0951917,77.15139909999999,ChIJ12afH6f_qDsR3KsK_UsuRdw,True
803,Tamil Nadu,7,Kappalur,Km 18.652,Madurai - Tirunelveli - Panagudi - kanayakumari,112,9.8441631,78.0113025,ChIJMd4BFGLTADsREOC0GZSvhbU,True
804,Tamil Nadu,NH66 (Old) NH77 (New),Kariyamangalam Fee Plaza,Km. 139.255,Km. 37.600 to Km. 219.782,6833,12.2870243,78.8304004,ChIJ76UJUHfyrDsRSERobErVzr4,True
805,Tamil Nadu,532,Keezhkuppam,at 97.500,Ma0valanullur to Chin0salem (km 57.800 to km 110.942),5804,11.5768802,78.9360853,ChIJzaGrCLZrqzsRBQYlV4AvmbI,False
806,Tamil Nadu,7,Kodai Road (Kozhinjipatti ),Km 398.500,Dindigul bypass - Samyanallore,109,10.1758793,77.9096036,ChIJiZu7GSNNBzsRTYcevtzAuiE,True
807,Tamil Nadu,Old No.NH210New No.(NH536),Kodikottai,Km 114.550,Karaikudi Rama0thapuram,5878,9.888007799999999,78.84773129999999,ChIJlS4IpiJPADsR06pR7ODwKyc,False
808,Tamil Nadu,32,Kothattai,Kothattai Village at Km.81.000,PoondiyanKuppam to Satanathapuram section of NH 32 (Old NH 45A),6845,11.515904,79.7192125,ChIJQ_IAcQDBVDoRBGufzmpttsc,True
809,Tamil Nadu,44,Krishnagiri,Km 87.500,Hosur - Krishnagiri,103,12.5445665,78.20122099999999,ChIJO_tzhGHNrTsRSXxPyp8OmAA,False
810,Tamil Nadu,New NH 81 (Old NH 227),Kurungudi ( Veerananallur ),Ch. 107.750,31.532 Km,6795,11.2627915,79.5406738,ChIJ-yz5zLnQVDoR-Et6cwsh0pU,True
811,Tamil Nadu,210,Lechchumanapatti,Km 19.000,Trichy - Karaikudi (km 10.000 - Km 54.8000),306,10.6242,78.74759999999999,ChIJzf6tUsuIqjsRbK0QXT1v8l8,False
812,Tamil Nadu,210,Lembalakudi,Km 57.317,Trichy - Karaikudi (Km 54.800 - Km 91.054),310,10.2999267,78.7703961,ChIJHafjU717ADsRawKhp5KIYY4,False
813,Tamil Nadu,81 Old NH227,Managethi,Managethi,Four laning of Kallagam (km.38700) to Karuppur (km.50382),5943,11.1359812,79.2352468,ChIJsWRWLc7XqjsRnvorqX9B5xM,True
814,Tamil Nadu,67,Manavasi,Km 198.500,Trichy - Karur,305,10.9317475,78.2182863,ChIJ0QEBD-I5qjsRTxL09sh__AY,False
815,Tamil Nadu,State Highways ( SH01 SH01A SH56 SH02),Mathur,Km 22.200,Road Connectivity to Chen0i to Ennore Ports Widening Strengthening Improvements to Thiruvottiyur Ponneri Panchetti Road Inner Ring Road Ma0li Oil refinery Road Ennore Expressway,4618,13.176619,80.2449255,ChIJewTRX_J7UjoRBID7V38TGrY,True
816,Tamil Nadu,79,Mettupatti,Km 21.750,Salem - Ulundurpet,57,11.6616774,78.3307124,ChIJNwNmg3CNqzsRbu7RgOXHWk4,True
817,Tamil Nadu,66,Morattandi,Km 6.572,Pondicherry - Tindivanam,106,11.9832045,79.78830169999999,ChIJL_1WjdZmUzoRTBmOYviaN5w,False
818,Tamil Nadu,NH 66 (Old) NH 77 (New),Nagampatti Fee Plaza,Km. 196.650,Km. 37.600 to Km. 219.782,6834,9.0009335,77.9503069,ChIJmZJ3sEJVATsRBIkkBri0BWo,True
819,Tamil Nadu,5,Nallur,Km 21.625,Chennai - Tada,82,13.2176748,80.16931199999999,ChIJByrao2F8UjoRuMm20IIou80,True
820,Tamil Nadu,NH66 (Old) NH77 (New),Nangilikondan Fee Plaza,Km. 60.459,Km. 37.600 to Km. 219.782 182.182 Km,6835,12.2543996,79.4619506,ChIJaXxfEuE1UzoRbes6VTpWxas,True
821,Tamil Nadu,7,Nanguneri,Km 185.387,Moondradaippu - Anjugramam,108,8.5269614,77.6632317,ChIJuSKDJMhuBDsRtgvXvCEuw9Q,False
822,Tamil Nadu,79,Nathakkarai,Km 73.760,Salem - Ulundrupet,19,11.5926141,78.78079280000001,ChIJZQE_LW5xqzsRCA0uoLHvyl8,False
823,Tamil Nadu,48,Nemili (Sriperumbudur),Km 37.800,Walajapet - Poomalle,23,12.9819641,79.9690258,ChIJxwuyhdSMUjoRk836YNNCr9g,True
824,Tamil Nadu,44,Omallur,Km 191.800,Omallur - Namakkal,18,11.7171776,78.0918193,ChIJTVSLktj7qzsREKMPIuUGIQM,True
825,Tamil Nadu,226,Palaya Gandharvakottai,Km 16.095,Thanjavur to Pudukkottai,4511,10.5993614,79.0193594,ChIJ5cgk86iiqjsRLjE537YC52Y,True
826,Tamil Nadu,44,Palayam (Dharmapuri),Km 154.440,Krishnagiri - Thumbipadi,21,12.0062862,78.1027683,ChIJZyxne6warDsRqWJaAG23YyY,True
827,Tamil Nadu,48,Pallikonda,Km 98.520,Krishnagiri - Walajahpet,105,12.9057608,78.95173299999999,ChIJYYi0Ne0UrTsRC50Id1ouLQw,False
828,Tamil Nadu,49(Old 87),Pamban Bridge (MoRTH),Annai Indira Gandhi Bridge (Pamban Bridge,Mandapam - Rameswaram.,324,9.282935499999999,79.19553239999999,ChIJNRza64bvATsRL3U2O5svnYg,True
829,Tamil Nadu,45,Paranur (Chengalpet),Km 52.820,Tambaram - Tindivanam (Km 28.000 - Km 74.500),80,12.709536,79.9777,ChIJh-jDU4j7UjoR3uMczkKyDYU,True
830,Tamil Nadu,205,Pattaraiperumbudur (temporary TP),Km 31.800,Tirupati-Tiruthani-Chennai,444,13.1545905,79.8254722,ChIJgb5DyFWXUjoRHg9lK_3QdkY,True
831,Tamil Nadu,45,Ponnambalapatti,Km 382.850,Trichy - Dindigul,239,10.5364447,78.2569443,ChIJGfee7QINqjsRiX310fJ8SBk,False
832,Tamil Nadu,45B,Pudhurpandiyapuram,Km 254.940,Madurai Tuticorin,86,8.8627966,78.1171992,ChIJVVWleinlAzsRUU3KUhJFiJc,True
833,Tamil Nadu,785,Pudur,Km 21020,Four laning of Madurai Chettikulam Natham Thuvarankurichi section from km. 0.000 to km. 61.115 of NH785 on EPC mode under Bhartmala Pariyojna phaseI in the state of Tamil Nadu,6758,10.1285773,78.1718415,ChIJgYMH8Vm5ADsRTXTBdanwqys,True
834,Tamil Nadu,44,Rasampalayan,Km 259.500,Nammakal - Karur,22,11.1938493,78.1032086,ChIJxVAibgLSqzsRhgwuLJOp1a0,True
835,Tamil Nadu,205,S V Puram,Km 305.800,Tirupati-Tiruthani-Chennai,443,11.1271225,78.6568942,ChIJM5YYsYLFADsR8GEzRsx1lFU,True
836,Tamil Nadu,7,Salaipudhur,Km 125.350,Madurai - Tirunelveli - Panagudi - Kanyakumari,113,8.975704,77.7746226,ChIJAQAAAOQCBDsROgWuwGDJcig,False
837,Tamil Nadu,45,Samayapuram,Km 307.241,Padalur - Trichy,118,10.9293741,78.74399939999999,ChIJ9QEBkDX3qjsRH8MNkfaNh6Y,True
838,Tamil Nadu,45,Sengurichi,Km 192.750,Ulundurpet - Padalur,119,11.7063331,79.3224548,ChIJyWIWt2hSqzsRb5kdH5rvjDc,False
839,Tamil Nadu,226,Shenbagampettai,92.957,Thirumayam to Manamadurai,4489,10.1586866,78.65115019999999,ChIJBRTAivuJADsRkuuM0h94JPc,False
840,Tamil Nadu,45,Surapattu (Chennai Bypass II),Km 28.600,Chennai Bypass,79,13.1365088,80.1816901,ChIJN3BEpmRjUjoR-H3otq8K-2c,False
841,Tamil Nadu,234,Thennamadevi Toll plaza,Thennamadevi Km.198.600,Vellore to Viluppuram,6627,11.9829029,79.48349309999999,ChIJ6830vFxRUzoRu3rEd8vPUo0,True
842,Tamil Nadu,45,Thirumandurai,Km 244.000,Ulundurpet - Padalur,59,11.3968776,78.9935508,ChIJb9Dajm0WqzsRGQV6K4tvk14,True
843,Tamil Nadu,944,Thirupathisaram Toll plaza,2.420,Nagercoil Kavalkinaru,6676,8.2061709,77.4606031,ChIJ3zTXPDz3BDsRIyXZ_h4bb4g,False
844,Tamil Nadu,NH 87 (Old NH49),Thiruppachethi,Km. 30.188,Madurai Ramanathapuram,4580,9.780661799999999,78.3352416,ChIJKVn2Y7rhADsROonDxe2tA64,False
845,Tamil Nadu,81,Thirupparaithurai,Km 157.500,Trichy - Karur,304,10.8859062,78.55724409999999,ChIJ9Q4CDNtbqjsRwgvSmS7X7Xs,False
846,Tamil Nadu,Old NH No.67 New NH No.83,Thuvakudi,Km. 111.255,Trichy Bypass from Km.110.016 to Km.135.930,6764,10.7444343,78.83401479999999,ChIJi3pVtXyNqjsRYjeQKmQKQRM,False
847,Tamil Nadu,NH 532,U.Ponnalagaram,45/2,Cuddalore to Virudhachalam section from Km 0.800 to Km 51.000,5999,11.1271225,78.6568942,ChIJM5YYsYLFADsR8GEzRsx1lFU,True
848,Tamil Nadu,NH183 ( Old NH 220 ),Upparpatti,83.943,Two laning with paved shoulder of TheniKumili section,6861,9.9426296,77.4195805,ChIJR6bSQM8TBzsRBz6lRP8sghU,False
849,Tamil Nadu,138 (Old 7A ),Vagaikulam ( Pudukottai ),Km 17.000,Tirunelveli - Tuticorin (Km 0.000 - Km 47.250),117,8.740163599999999,77.8167146,ChIJpcXRWbwOBDsRfOupN3K7t10,True
850,Tamil Nadu,544,Vaigundam,Km 27.697,Salem Kumarapalayam,96,11.513488,77.92365509999999,ChIJh_yybFFfqTsRBQrI2K4GiUo,True
851,Tamil Nadu,67,Valavanthankottai,Km 120.900,Thanjavur - Trichy,115,10.7443982,78.8339731,ChIJq6patXyNqjsRwiojJuGrj9I,False
852,Tamil Nadu,234,Vallam Toll plaza,Vallam Km.80.600,Vellore to Viluppuram,6625,10.7140158,79.0701548,ChIJ27-wrmG-qjsRJx7T1JK4tMA,True
853,Tamil Nadu,45,Vanagaram (Chennai Bypass),Km 16.500,Chennai Bypass,76,13.055372,80.1572161,EjhDaGVubmFpIEJ5cGFzcyBSZCwgVmFuYWdhcmFtLCBDaGVubmFpLCBUYW1pbCBOYWR1LCBJbmRpYSIuKiwKFAoSCd2-mDrcX1I6EZ3yPRd5vjviEhQKEgl9p6GhFGFSOhFzL-_IDkWqTg,True
854,Tamil Nadu,48,Vaniyambadi,Km 46.800,Krishnagiri - Walajahpet,107,12.6484731,78.5835341,ChIJi8DMjuGrrTsRO9ZOM4tYU8g,True
855,Tamil Nadu,79,Veeracholapuram (West),Km 105.000,Salem - Ulundrupet,20,11.7363842,79.0095807,ChIJZQ63o2VnqzsRmgKNV0WaZvw,False
856,Tamil Nadu,381,Velampatti Toll Plaza,Avinashipalayam,Commencement of Toll Operation at Velampatti Toll Plaza at Km 28.815 in the Project of AvinashiTiruppur Avinashipalayam section (from Km 00 to 31.800) of NH381 in the State of,6773,10.9935149,77.4181102,ChIJVUWNVAClqTsR6Gd0ycBFj3o,True
857,Tamil Nadu,44,Velanchettiyur,Km 338.000,Karur Bypass - Dindigul bypass,102,10.6989333,77.93285809999999,ChIJU2slTSseqjsRMcm3jan6gA4,False
858,Tamil Nadu,Old No.NH210New No.(NH536),Vennathur,Km 154.960,Karaikudi Rama0thapuram,5879,9.542681499999999,78.8635372,ChIJdza2ef-7ATsRXXufkBVawiY,False
859,Tamil Nadu,544,Vijaymangalmam,Km 88.287,Kumarapalayam - Chengalpalli,98,11.2456599,77.5197036,ChIJFXI8HHcNqTsR3pP3SaCbvvA,True
860,Tamil Nadu,45,Vikravandi(Villupuram),Km 150.400,Tindivanam - Ulundurpet,104,12.0204252,79.5353713,ChIJZwO3AF1QUzoRIBBadEwp8kg,False
861,Telangana,7,Bhiknoor,Km 392.600,Adloor Yellaready - Chegunta (Km 368.255 to Km 419.793),460,18.2047596,78.39848409999999,ChIJEZnMYzBEzDsRPrziVAp65AU,False
862,Telangana,365,Chinthapally,99.750,Tannamcherla - Jamandlapally (km 72.600 - km 121.000),484,17.4715859,79.9803967,ChIJca08eVuMNDoRxxRVmqcUp-I,False
863,Telangana,163,Chitlapalli,Km.115.580,Manneguda (Km.59500) Ravulapalli (Km.132300) section,5797,17.0995932,77.5676735,ChIJtz-vn1ZtyTsRzrsxWVwottM,True
864,Telangana,161,Dharmaram,Km 96.035,Four laning of NH161 from Mangloor (Design Km 86.788 Existing Km 91.350) to Telanga0 Maharashtra Border (Design Km 135.751 Existing Km 140.500) (Design Length 48.963 Km) in the Telanga0,5856,18.2658952,77.787632,ChIJq6dzTeqFzjsRK3y40bJWpuo,False
865,Telangana,NH61 (Old No. 222),Dilawarpur,654,Rehabilitation and Up gradation of NH222 (New NH61) from Km.615000 to Km.668600 (Kalyan to Nirmal section) to two lane with paved shoulder in the State of Telanga0 under NHDPIV through Engineer,4619,19.0990341,78.2134023,ChIJJx_iyr_1zTsRqdeGC6ZmNqs,True
866,Telangana,44,Gamjal,Km 281.320,Kadhal - Armur (Km 278.00 to Km 308.00),176,19.0266552,78.3626903,ChIJA_H-XuuNzTsRJ8FNThppgIk,False
867,Telangana,NH 221,Gowraram,Km. 88.650,Ap Telangana Border To Rudrampur (Km.71.200 To Km. 121.000),5653,17.2679392,80.6794506,ChIJ6Q3CoI0lNDoRAXkADKvcH2o,False
868,Telangana,163,Gudur (Hyd-Yadgiri),Km 38.100,Hyderabad Yadgiri Section,218,18.1124372,79.01929969999999,ChIJQ-0plNtQMzoRWUBZQad772M,True
869,Telangana,765D,Gummadidala,Km.115.580,Hyderabad Outer Ring Road (Km.0000) Medak (Km.62920) section,5799,18.1124372,79.01929969999999,ChIJQ-0plNtQMzoRWUBZQad772M,True
870,Telangana,44,Indalwai,Km 342.700,Nagpur - Hyderabad (Km 308.000 to Km 367.000),207,18.5380586,78.24021290000002,ChIJt0RVFhnJzTsRL8QjzFO62mU,True
871,Telangana,163,Jawahar Nagar,199.052,Widening Strengthening of existing 2lane to 2 lane with paved shoulders from Km.1590 1654 18602150 of NH163 in the State of Telanga0 under EPC mode,5854,18.2121077,80.0285695,ChIJZfg4aQALMzoROy0rEhCMPoE,True
872,Telangana,765,Kadthal,45.710,Hyderabad - Dindi (km 23.000 - km 78.000),482,16.9703587,78.50775929999999,ChIJJWXDkjGtyzsRzs19rOj0PxY,False
873,Telangana,NH 163,Komalla,Km.100.550,Yadgiri Warangal,5680,17.7774163,79.2835625,ChIJS8X3bLKpzDsRn6CLPq2UG2k,False
874,Telangana,NH 163,Komatipalli,Km.137.330,Yadgiri Warangal,5681,18.0217374,79.49992499999999,ChIJC8RGDjRPMzoRxZrd6_X-__I,False
875,Telangana,765,Konetipuram,101.450,Hyderabad - Dindi (km 23.000 - km 78.000),483,16.6120211,78.6758205,ChIJpQyR7Mj1yjsRN15APrZ5yJM,True
876,Telangana,65,Korlaphadu,Km 118.250,Hyderabad - Vijayawada,377,17.1596639,79.4748511,ChIJdZyJ_4DRNDoR-Cre0NiwZOU,True
877,Telangana,365,Kothagudem,42.950 Km,Nakrekal toTanamcherla,5855,17.406428,79.6421309,ChIJ2XPAxKG5NDoR-QfEFxrFRLw,True
878,Telangana,44,Manoharabad,Km 443.713,Nagpur Hyderabad Section (Chegunta To Bowenpally ) (Km 419.793 to Km 481.331),175,17.8010886,78.471757,ChIJ4X8kIatwzDsR9t1M-R4JNi0,False
879,Telangana,353 C,Medipally Toll Plaza,Medipally village,Widening Strengthening of Existing 2 Lane to 2 Lane with paved shoulders from Km.(25)(59.2)(Mahadevpur to Bhupalpalli) of NH353C (old NH363) in the State of Telangana,6836,17.4077808,78.60227669999999,ChIJsyPNUfKeyzsRDOJu5r8Ij8M,True
880,Telangana,167,Munnanur,Km. 33.260,Jadcherla (Design Km.15525) Kalwakuthy (Design Km.62880) section,5798,16.7452363,78.284967,ChIJF8jNPa45yjsRXI9wI3h7XLU,False
881,Telangana,NH365,Muthojipet,Muthojipet,Mangalwarpet to Mallampally,4601,17.9740602,79.9141619,ChIJr2vv-FVlMzoRRedIn-QsO5g,True
882,Telangana,65,Panthangi,Km 60.650,Hyderabad - Vijayawada,222,17.2329048,78.9605157,ChIJDbdjcOUWyzsRzmLs5RphwqU,False
883,Telangana,44,Pippalwada,Km 180.330,Nagpur Hyderabad Section (Maharashtra Telangana Border To Islamnagar)( Km 175.000 to Km 230.000),177,19.7809141,78.5657746,ChIJCxapKa1Q0jsRk_5QwmZnuzQ,False
884,Telangana,44,Raikal,Km 54.290,Thondapali - Jedcherla(Km 22.300 to Km 80.306),216,17.0059277,78.19433699999999,ChIJfQE273DMyzsR4bx80bxXM48,False
885,Telangana,44,Rolmamda,Km 245.400,(Maharashtra Telangana Border To Islamnagar) (Km 230.00 to 278.00),174,19.2800574,78.40935019999999,ChIJ___Lzsd20jsRXhZqTY5ID1A,False
886,Telangana,365 B,Singarajupally,Singarajupally,Jangaon Thirumalgiri,5740,17.5914923,79.2648481,ChIJFVEFKbxRyzsR-jMiv_St_mA,True
887,Telangana,NH161,Taddanpally Toll Plaza,"Taddanpally Village, Sangareddy District",Four laning of NH161 from Kandi (Design Km 0.000) (Km 498.250 of NH 65) to Nizampet (Design Km 66.400) (design Length 66.400 Km) in the State of Telangana under Bharatmala Pariyojana on Hybrid Ann,5974,17.6965948,78.0954136,ChIJlQXtRV8HzDsRfe0C6SSpMtk,True
888,Telangana,NH365B,Yerkaram,Km 72.215,Tirumalagiri To Suryapet,5673,17.2301687,79.57076769999999,ChIJaSvVzGTFNDoRmmPmXlXEvhs,True
889,Uttar Pradesh,28C,Aaini,Km 63.450,Km 42.546 to Km 93.037(Jarwal to Bahraich ByPass),473,27.2970411,81.54384189999999,ChIJEVR80CagmTkRe1RsZHFuMek,False
890,Uttar Pradesh,34,Aashpur,KM 231.00,Aligarh Kanpur Section (Bhadwas to Kalyanpur Pkg II),5766,27.4866364,78.792226,ChIJaSqmbJ8HdTkRJDF136Lg7ZI,True
891,Uttar Pradesh,28,Ahamadpur,Km 53.000,Kanpur - Ayodhaya,210,26.8583842,81.422452,ChIJYZWQioPWmzkRPAocQipYceA,True
892,Uttar Pradesh,NH232,Aihar,At km. 172.890,133.285 Km.,4553,26.1919471,81.02577629999999,ChIJR9gCfAKdmzkRamN32eCS-eA,True
893,Uttar Pradesh,NH232 2nd,Aindhi,Km. 113.255,155.9,4623,26.3594516,80.8516173,ChIJ83HvcFaImzkRziUfmQx1nQM,True
894,Uttar Pradesh,25,Ait,Km 187.500,Poonch - Orai (Km 155.00 to Km 220.00),200,25.8799384,79.2103295,ChIJFyqTHdLRdzkRpmvtk6vtq14,False
895,Uttar Pradesh,NH233,Akshda,Km. 108.025,Rehabilitation and Upgradation of Rudhauli to Basti side Approach of Ghaghra Bridge Section (Km. 65.870 to Km. 122.270) of NH233 on EPC Basis under NHDP PhaseIV,4611,26.7023535,82.67457499999999,ChIJpXQaq3rFkDkRQCVhpdQ_O0A,False
896,Uttar Pradesh,31,Akwabad,UNNAO DIST.,UnnaoLalganj Section (From Km 0.00 to Km 70.00),6778,26.3309349,80.7106168,ChIJ3_MgDcJwnDkRw2y4j4H0W9g,True
897,Uttar Pradesh,86,Aliyapur,Km 43.500,Kanpur - kabrai,409,26.0697968,80.1629834,ChIJD4E0Zmj_nDkRDBhkpJGpjEk,False
898,Uttar Pradesh,28 (Old NH233),Amdi,164.75,Ghaghra Bridge to Vara0si section of NH233 PkgI from km. 121.800 to 180.420,4602,26.368239,82.8866242,ChIJaSBM4A39kDkRZPwxYOsqfEc,False
899,Uttar Pradesh,old 233 new NH 28,Amora Moiddinpur,Amora Moiddinpur,4 Lane Ghaghra Bridge to Varanasi of NH 233,6780,25.9789642,83.0566661,ChIJyz99SNWxkTkRxxxuhYHv7pY,True
900,Uttar Pradesh,19,Anantram,Km 353.000,Etawah Chakeri (Kanpur),44,26.5952333,79.2684644,ChIJC7bOo7gEdjkRIrVOTSRrijY,True
901,Uttar Pradesh,NH30 (24B),Andhiyari,Km. 85.195,RaebareliPrayagraj Section,5897,25.6140852,81.6405137,ChIJB4Bi93jamjkRaG7qtSceuzw,True
902,Uttar Pradesh,New NH 731 Old NH 56,Asroga,127.37,127.425 KM.,4590,26.3043895,81.94073639999999,ChIJf17Uq8VnmjkRV1EWAX0w3g0,True
903,Uttar Pradesh,Old NH 07 (New NH 135),Atraila Shiv Ghulam,At Km 109450 of NH7 at Village Atraila Shiv Ghulam No 3 TehsilLalganj District Mirzapur,4 laning of Vara0si to Hanuma0 section of NH7,5860,24.9945639,81.7869042,ChIJ19uxKcEehTkRg6wDL72VaZ0,True
904,Uttar Pradesh,25 and 26,Babina,km 32.100,Jhansi - Lalitpur (Km 0.000 to km 49.700),394,25.2169726,78.4644047,ChIJ5eUpZK9idzkRKoUcZNK-Z2s,False
905,Uttar Pradesh,NH 730,Badagawn,Tulsipur Badagawn,Badagawn,6680,27.5056676,82.37449620000001,ChIJHUK9iYJllzkRb1HTeaxj9-I,True
906,Uttar Pradesh,2,Badauri,Km 527.275,Chakeri - Usrania (Km 483.687 to Km 564.897),275,26.0650253,80.6584211,ChIJ_____0qGnDkRzNDtLGLLQFM,False
907,Uttar Pradesh,NH 731,Baiti Kala Toll Plaza,175.050 Km.,68.56 Km.,6699,26.0544377,82.33940419999999,ChIJo06LP2N7kDkRvydoeE6uHss,True
908,Uttar Pradesh,334 B,Baleni,Atnear Amipur Bakharpur Baleni,Meerut to Haryana Border via Baghpat,6806,28.9594345,77.44331489999999,ChIJyeq8qC1bDDkR0_seSVyKk84,True
909,Uttar Pradesh,NH 76 (New NH 339),Bamhori Kurmin,Km. 104.600,HarpalpurSugira section from design Km. 92.025 to Km. 133.500 (existing Km. 89.600 to Km. 133.520) on NH76 in the State of Uttar Pradesh.,6660,25.9515842,79.8324755,ChIJt555PKEOnTkRm1rbGWxvzRE,True
910,Uttar Pradesh,New NH 731 Old NH 56,Bara,51.160 km,127.425 KM.,4589,26.6298197,81.3331651,ChIJN6NaHQLFmzkRlJpJc-F19_E,True
911,Uttar Pradesh,19,Barajore (Bara),Km 438.000,Etawah - Chakeri,47,26.3850793,80.0192294,ChIJi2eVJji1nTkRAb5arl6wYIw,True
912,Uttar Pradesh,93,Baros,Km 14.950,Agra Aligarh (Km 0.000 to Km 81.400),381,27.3355,78.0311,ChIJOYZmiBd8dDkReclxacutNbU,False
913,Uttar Pradesh,(Old 91) New NH 34,Basheerapur Toll Plaza,LOCATED AT KM 350.709 ON ALIGARH KANPUR SECTION OF NH 34,Naviganj to Mitrasenpur from km.(289.00)New Ch_302108 to Km. (356.00) New Ch_373085,6690,27.0735547,79.8432637,ChIJo64VunlvnjkRSb0WWV41Dfw,True
914,Uttar Pradesh,NH 233,Belgada,Km. 53.630,Km. 0.000 Km. 65.870,5881,27.11917,82.8958979,ChIJb89F3wgplzkR3uHce2bBFy4,True
915,Uttar Pradesh,NH 93 (new NH 509),Belon,Km. 136.965 (existing ch. 136.500),Aligarh Moradabad Section,4585,27.5705886,80.0981869,ChIJ0wlKe59OmTkRnSQXNm1HpfY,True
916,Uttar Pradesh,34 (Old 119 ),Bhaneda Toll Plaza,Km. 98.000,Km. 79.500 to Km. 10.5700,6842,29.5362357,78.2518863,ChIJB6XmmynnCzkRenl4IBOiQXQ,True
917,Uttar Pradesh,NH 330 (old96),Bharatkund,Bharatkund Km 12.800,Prayagraj to Ayodhya,5648,26.6407292,82.1345206,ChIJ_eKHT-0LmjkRsWvKRSBr5gc,False
918,Uttar Pradesh,NE 3,Bhojpur,Km 45.706,DME Pkg.IV Greenfield DelhiMeerut Expressway from Dasna to Meerut (Km. 27.740 to Km 59.777) in UP on EPC Mode,5925,28.7988571,77.6181692,ChIJWfJ_vMiLDDkRZuO89h_xVIk,True
919,Uttar Pradesh,709 A,Bhuni,At Design Km 13.950 of NH709A near Bhuni Village of Meerut district of Uttar Pradesh.,4L PS of Meerut to after Bridge over River Yamuna Haryana via Shamlifrom km. 0.00 to km. 88.476 of NH709ARCW,6810,29.1258537,77.5768118,ChIJ1dTg7cprDDkR_CtbKRcIefQ,False
920,Uttar Pradesh,NE II,Bilakbarpur (Dundahera )(EPE),Km 72.724,From Km 71.000 to 93.000,5763,28.6351015,77.43922049999999,ChIJKfFGpDvuDDkRx7n8Tietg8I,True
921,Uttar Pradesh,24,Brijghat,Km 80.500,Hapur Moradabad,31,28.7667277,78.11182740000001,ChIJfYGwQ7VxCzkRXTNvT2yscqs,False
922,Uttar Pradesh,30,Cable Stayed Naini Bridge,Km 1.600,Km 0.00 (211.700 on NH-2) - to km 5.410(New Aligment of NH-27),12,25.4163096,81.8609808,ChIJcWb9fl41hTkRP_9hm8BG98E,False
923,Uttar Pradesh,NH 24,Chapwa,Km. 11.070,Rehabilitation and Up gradation of So0uli to Gorakhpur Section (Km.0000 to 80.000) of NH 29E (New NH24) in Uttar Pradesh to two lane with paved shoulder on EPC mode under NHDP PhaseIV,4612,27.4033059,83.4071809,ChIJfznfDqWXljkR7VizJqKsaHg,False
924,Uttar Pradesh,28,Chaukadi,Km 163.000,Ayodhya - Gorakhpur,164,26.7813861,82.4169606,ChIJ9S307J26kDkRxZ_rGJnne-4,False
925,Uttar Pradesh,NH09 (Old NH24),Chhajarsi,Km. 39.730 of NH09 near Chhajarsi Village,From Km. 0.000 to Km. 50.934 DelhiHapur Section (Part of DelhiMeerut Expressway Project),4588,28.7012259,77.6209698,ChIJ_XauxwSNDDkRvMxGUgwFuK4,False
926,Uttar Pradesh,NH 34 (Old NH 119),Chota Mawana Toll Plaza,Km. 27.900,Km. 11.500 to Km. 39.250,6841,29.0915877,77.859747,ChIJn_8TfQB3DDkRdDHgpMElJ8M,True
927,Uttar Pradesh,19,Daffi,Km 800.430,Varanasi - Aurangabad Section,40,25.2482943,82.99404229999999,ChIJ2UxNTH0xjjkREAu43OjcI4A,False
928,Uttar Pradesh,24B (Old 30 ),Dakhina Sekhpur,Km 42.550,Luckanow - Raebarilly (Km 12.700 to Km 82.700 ),405,26.524562,81.0661944,ChIJXZ4xT67smzkRwsZRCrg-CXU,False
929,Uttar Pradesh,9,Dasna EPE,Km 29.300,Ghaziabad - Hapur & Hapur Bypass ( Km 27.643 to Km 48.638 & ByPass of Km 11.250),36,28.6866301,77.5264126,ChIJUePMnCHzDDkRTuA7O0lTSfs,True
930,Uttar Pradesh,NE II,Dasna(EPE),Km 52.192,From Km 46.500 to 71.000,5762,28.6866301,77.5264126,ChIJUePMnCHzDDkRTuA7O0lTSfs,True
931,Uttar Pradesh,NE II,Duhai(EPE),Km 44.512,From Km 22.000 to 46.500,5761,28.7304168,77.4758542,ChIJU0PGfPvzDDkRn7o-HJja7wA,True
932,Uttar Pradesh,730,Dularpur,265.865,Bahraich Km.248.400 to Shrawasti Km.310.000,5702,27.5789597,81.6334354,ChIJT_OCAF2tmTkRkh04DiKrxMg,False
933,Uttar Pradesh,NH30 (24B),Etaura Bujurg,Etora Bujurg,Raebarel iPrayagraj Section,5918,26.485778,83.3161387,ChIJudH96cdtkTkR5ScbU6L-HaQ,True
934,Uttar Pradesh,24 (New 30),Faridpur,Bareilly(Distt).,BareillySitapur,6621,28.2349471,79.5244872,ChIJSWk5y0n5nzkR5u9dnVeM3Ew,False
935,Uttar Pradesh,NE II,Fatehpur Rampur(EPE),Km 83.005,From Km 71.000 to 93.000,5764,28.443616,77.5884481,ChIJR3p0Uby_DDkR9DOAw0bQ6QU,True
936,Uttar Pradesh,NH 730,Golhaura Fee Plaza,Barhani Katya Chawk near shohratgarh,35.576 Km,6592,27.232686,82.8253514,ChIJcQ65E4QmlzkRxAFCVWBpbnw,True
937,Uttar Pradesh,NH 76 E (New NH 35),Gopalpur Toll Plaza,VillageGopalpur at Design Km 477.450,PrayagrajMirzapur Section km 450.150 to km 486.970,6670,25.1660947,82.48007729999999,ChIJ72U-wITrjzkR_Td5D0Y4v8w,False
938,Uttar Pradesh,28C,Gulalpurva,Km 125.200,Km 99.00 to Km 152.847(Bahraich ByPass to Rupadih),474,27.8268415,81.5265507,ChIJ-WqoNd1XmDkRfF21HnROZF0,False
939,Uttar Pradesh,730,Gulhaura,407.75,384.874 to 420.450,5776,27.4438537,82.9238472,ChIJUzKk1cjhljkRldbQimYW6Fs,True
940,Uttar Pradesh,2,Gurau (Semra Atikabad),Km 285.000,Shikohabad - Etawah (Km 250.000 to Km 321.100),92,26.9786729,78.7858712,ChIJk93Ao-bOdTkR6ZGarJNYoKc,True
941,Uttar Pradesh,730,Hadawa,466.3,Widening and Strengthening from Km. 454000 to Km. 470900 Km. 474000 to Km. 484000 of NH730 in the State of Uttar PradeshTwo lane with paved shoulder on EPC mode.,4586,27.0830717,83.23256239999999,ChIJSQBXk0nLljkR8f9qlP6hEV4,True
942,Uttar Pradesh,30,Handia,Km 239.950,Allahabad Bypass (Km 158.000 - Km 0242.708),42,25.3788318,82.1563602,ChIJeURGFzlUhTkRXNmDP2AP20g,True
943,Uttar Pradesh,NH 27,Harro,Km 38.200,Allahabad UP to MP Border,5723,25.1197479,81.755546,ChIJdeRlgGI9hTkR-IiM4CP3LKk,True
944,Uttar Pradesh,56 ( New NH 31),Hauj,237.565,4Laning of Sultanpur to Varanasi Section of NH56 (PackageII) from Ch 205000 to 263000 in the state of Uttar Pradesh under NHDP PhaseIV on EPC Mode.,6623,25.6729473,82.7270537,ChIJPSK65As7kDkRdVbFwtaKZFg,True
945,Uttar Pradesh,730,Hitouta,69.700 Km.,Work of Rehabilitation of Upgradation of PilibhitPuranpur Section (km 38.00 to km 82.00) at km. 69.700 of NH730 to two lane with paved shoulder under EPC mode in state of Uttar Pradesh.,5900,28.2640625,80.2507656,ChIJZeilwEh9nzkRAjrl02vaB7s,False
946,Uttar Pradesh,30,Itaunja (Barabhari),Km 467.00,Lucknow Sitapur (413.200 488.270),209,27.0808218,80.89588429999999,ChIJtaQmceFNmTkRQP66NIFEauY,True
947,Uttar Pradesh,NH 709 AD PKG II,Jagahedi,71.100,Shamli to Muzaffarnagar,6776,29.4677968,77.61204289999999,ChIJ6xQxs7sZDDkRkxBFDRR2BI0,True
948,Uttar Pradesh,(NE II),Jakhauli(EPE),Km 5.5,From Km 1.000 to 22.000,5757,27.5705886,80.0981869,ChIJ0wlKe59OmTkRnSQXNm1HpfY,True
949,Uttar Pradesh,NH232,Jindpur,At km. 229.006,133.285 Km,4552,25.8656802,80.69050310000002,ChIJf3rziWybnDkRu0O-soIBlvM,True
950,Uttar Pradesh,709B,Jiwana,Km 34.500,EPE Crossing to Start of Shamli Bypass,5743,29.1651271,77.2762194,ChIJPdbOSB1LDDkR1QJyTSVFz6o,False
951,Uttar Pradesh,NH 76,Jorwara,320.635,Rehabilitation and upgradation from Km 285.000 to 326.000 (KalupurLalata Road) of NH76 to two lane with paved shoulder on EPC Mode in the State of Uttar Pradesh,6595,25.2477941,81.27665979999999,ChIJ72XuAhTPhDkRRHsNt5QFsCg,True
952,Uttar Pradesh,24,Joya,Km 121.975,Garhmukteshwar - Moradabad (Km 93.00 to Km 149.250),24,28.836153,78.4207677,ChIJg0nofSUJCzkRByaXYc1Z1Ag,False
953,Uttar Pradesh,29,Kaithi,Km 28.585,Vara0si Ghazipur,5790,25.4947721,83.1475363,ChIJZ7fVeIonjjkRQ3b-dqRh5ec,False
954,Uttar Pradesh,NE 3,Kashi,Km 58.230,DME Pkg.IV Greenfield DelhiMeerut Expressway from Dasna to Meerut (Km. 27.740 to Km 59.777) in UP on EPC Mode,5924,28.8969004,77.64521429999999,ChIJl277BOJhDDkRxPwfzYA1pjE,True
955,Uttar Pradesh,2,Katoghan,Km 120.500,Rampur - Thariwan - Khokharaj (km 94.145 to km 158),165,25.7495002,81.17042169999999,ChIJBWApS_M_mzkRY8ErnD5cGWw,False
956,Uttar Pradesh,30,Khairabad (Karondi),Km 420.00,Lucknow Sitapur (413.200 488.270),384,27.5284275,80.7491563,ChIJ95fiynnUnjkRrzbsLL46qfQ,True
957,Uttar Pradesh,86,Khanna,km 105.500,Kanpur-kabrai,410,25.5432513,80.06019169999999,ChIJAQAAAKQnnTkR36IIEef307I,False
958,Uttar Pradesh,30,Khokhraj,Km 161.850,Allahabad Bypass (Km 158.000 - Km 0242.708),42,27.5705886,80.0981869,ChIJ0wlKe59OmTkRnSQXNm1HpfY,True
959,Uttar Pradesh,34,Kiratpur Toll Plaza,167.328,AligarhKanpur Section (Aligarh to Bhadwas PkgI),6603,27.7915931,78.28642909999999,ChIJc7inWt2VdDkRT00CwJcZDOc,True
960,Uttar Pradesh,231,Kunwarpur,Km 132.400,Raibarelly- Jaunpur (Km 86.00 to Km 166.400),461,25.6729368,82.3159526,ChIJRWche0cPkDkRuNyPziK8c6A,False
961,Uttar Pradesh,334,Kurana,47.9,Meerut Bulandsahar,5706,28.628072,77.7848887,ChIJLyvBmqibDDkRFUugfpGl69U,False
962,Uttar Pradesh,NH 74(New NH 30),Labhera Toll plaza,321.680,74.46 KM,6678,25.7318762,79.10404319999999,ChIJf5KICK_GdzkRs6hK2P3xqJ8,True
963,Uttar Pradesh,30,Lalanagar,Km 279.120,Allahabad - Handia - Varanasi (Km 245.00 to Km 317.389,161,25.2681247,82.48585279999999,ChIJhz8L3hzljzkRAKt3OcnTD_8,True
964,Uttar Pradesh,60,Laxmannath,Km 52.000,Baleshwar - Kharagpur,260,27.5705886,80.0981869,ChIJ0wlKe59OmTkRnSQXNm1HpfY,True
965,Uttar Pradesh,91,Luharli,Km 47.500,Ghaziabad-Aligarh section ch. 23.600 to 149.900,429,28.4993635,77.6272638,ChIJVVWFpJWVDDkRdZsfbKl6IZU,False
966,Uttar Pradesh,93,Madrak,Km 71.820,Agra Aligarh Section,380,27.8039966,78.0870771,ChIJi2crRJWidDkR0P2sYfyrQqA,False
967,Uttar Pradesh,2,Mahuvan,Km 164.000,Delhi - Agra,160,27.3372128,77.73750700000001,ChIJAQCwuimdczkRTFxWXDiOaLk,False
968,Uttar Pradesh,30,Maigalganj,372.167,340.800 to 419.590,6726,27.7391202,80.2959851,ChIJkatCwJAbnzkRGLMCZ6-qHSE,False
969,Uttar Pradesh,28,Mandawnagar,Km 198.000,Ayodhaya - Gorakhpur,77,26.8107045,82.73146890000001,ChIJt_JVakrPkDkRBjwX-jyDSGo,False
970,Uttar Pradesh,(NE II),Maujpur (EPE),Km 108.570,From Km 93.000 to 114.00,5758,27.5705886,80.0981869,ChIJ0wlKe59OmTkRnSQXNm1HpfY,True
971,Uttar Pradesh,NE II,Mawikalan(EPE),Km 15.36,From Km 1.000 to 22.000,5760,29.0259073,77.4443807,ChIJiSc5PcZEDDkRPaEsHOYjkqE,True
972,Uttar Pradesh,NH29,Mirzapur ( Kyampur ) fee plaza,NH-29,84.160 KM To 149.540 KM,5970,25.6812762,83.5403324,ChIJ9RoU3bn5kTkRXVPYIWe2WAw,True
973,Uttar Pradesh,93,Mohammad Ibrahimpur,Moradabad,AgraMoradabad,6771,28.572242,78.8014505,ChIJHT2rOGXdCjkRB18KT494hYo,True
974,Uttar Pradesh,OLD 76E(NEW NH 35),Mungari,417.25,Prayagraj to Mirjapur,5724,25.2987784,81.9478508,ChIJAZcHYPVJhTkRQ_rtJuUUAM0,False
975,Uttar Pradesh,28,Muzaina Hetim,Km 313.372,Gorakhpur - Kasiya,163,26.73393,83.807436,ChIJn_oWGQ7pkzkR6W41jY48y3U,True
976,Uttar Pradesh,NH24,Nainsar,Km. 75.915,Rehabilitation and Up gradation of So0uli to Gorakhpur Section (Km.0000 to 80.000) of NH 29E (New NH24) in Uttar Pradesh to two lane with paved shoulder on EPC mode under NHDP PhaseIV,4613,26.9082273,83.30195979999999,ChIJ8zjTenBJkTkR3LToNqJpOQo,False
977,Uttar Pradesh,30,Nawabganj,Km 185.544,Allahabad Bypass (Km 158.000 - Km 0242.708),42,25.5649557,81.7458712,ChIJcdI2vkbPmjkRZ6ey5WdVmc0,True
978,Uttar Pradesh,25,Nawabganj,Km 39.000,Kanpur - Ayodhaya,212,25.5649557,81.7458712,ChIJcdI2vkbPmjkRZ6ey5WdVmc0,True
979,Uttar Pradesh,24,Niyamatpur Ekrotiya,Km 172.698,Moradabad - Bareilly Road Section (Km 148 To Km 262),396,28.8143139,78.9023043,ChIJG1qlBSjxCjkR0BC-a0sG2-Y,True
980,Uttar Pradesh,231,Nuruddinpur,Km 40.000,Raibarelly- Jaunpur (Km 0.000 to Km 86.000),462,25.9846791,81.5571818,ChIJ-8i72Sr9mjkR9TQZJVhd170,False
981,Uttar Pradesh,709 A,Patni Pratapur,At Design Km 76.440 of NH709A near Patnipartapur Village of Shamli district of Uttar Pradesh.,4L PS of Meerut to after Bridge over River Yamuna Haryana via Shamlifrom km. 0.00 to km. 88.476 of NH709ARCW,6811,27.5705886,80.0981869,ChIJ0wlKe59OmTkRnSQXNm1HpfY,True
982,Uttar Pradesh,NH232 1st,Pidhi,Km 51.150,155.9,4622,26.3486189,82.247095,ChIJ9yW1H6uDkDkRhmUJQg2x5dQ,False
983,Uttar Pradesh,2,Plaza 1,Km 18.70,Badarpur Elevated Highways (Km 18.70 And Km 20.200),89,27.5705886,80.0981869,ChIJ0wlKe59OmTkRnSQXNm1HpfY,True
984,Uttar Pradesh,2,Plaza 2,Km 20.200,Badarpur Elevated Highways (Km 18.70 And Km 20.200),89,27.5705886,80.0981869,ChIJ0wlKe59OmTkRnSQXNm1HpfY,True
985,Uttar Pradesh,NH 7,Pratappur Toll Plaza,Pratappur Fee Plaza in Mirzapur District at Km 27.275,VaranasiDagmagpur section and DagmagpurLalganj section of NH7 From Km 15.100 to Km 80.000,6689,25.1773595,82.97347690000001,ChIJpQXGvhc1jjkRpd5b4g_Ap38,True
986,Uttar Pradesh,2 and 3,Raibha,Km 10.800,Agra Bypass (Km 0.000 - Km 32.800 ),491,27.1776747,77.8067301,ChIJF7ApbACPczkRL0r9MwZj6ik,True
987,Uttar Pradesh,NH96 New NH330,Ramnagar Gansiyari,KM. 118.430,100.800 to 135.500,5717,25.7263759,81.9257368,ChIJrcEjEOu_mjkRqaKQY9oq3ZY,True
988,Uttar Pradesh,60,Rampura,Km 103.500,Baleshwar - Kharagpur,224,27.5705886,80.0981869,ChIJ0wlKe59OmTkRnSQXNm1HpfY,True
989,Uttar Pradesh,330 A,Rasulpur Mu Mithegaon,Village Mithegaon,Jagdishpur Ayodhya,6775,26.6571732,82.00528829999999,ChIJvYiSCS8SmjkRMhFb5ZLK0iw,True
990,Uttar Pradesh,28,Raunahi,Km 107.000,Kanpur - Ayodhaya,211,26.7679154,81.94956189999999,ChIJp81f3vkZmjkR2tsXucq0P5E,False
991,Uttar Pradesh,NH730A,Sabli,Sabli Powayan Shahjahanpur,Km. 61.500,4626,28.1525737,80.0996394,ChIJh718q555nzkRjKGBXNZFYCo,True
992,Uttar Pradesh,30,Sahson,Km 216.815,Allahabad Bypass (Km 158.000 - Km 0242.708),42,25.4909854,81.9959682,ChIJ8ZZj0gmzmjkRYS_QHYZQJn0,False
993,Uttar Pradesh,28,Salemgarh,Km 361.902,UP/ Bihar Border - Kasia,162,26.6316714,84.2382935,ChIJa90nIPigkzkRlcdgfO-Ltg8,False
994,Uttar Pradesh,730,Sarai Sundar,Km. 9.840,Work of Rehabilitation of Upgradation of PilibhitPuranpur Section (km 0.00 to km 38.00) at km. 9.840 of NH730 to two lane with paved shoulder under EPC mode in state of Uttar Pradesh.,5901,27.1441916,79.5336477,ChIJjfUk320YnjkRhuY68foD3AY,True
995,Uttar Pradesh,730,Semraraja,Km. 515.200,PARATWAL MAHARAJGANJ SECTION,5789,27.0661272,83.6106693,ChIJ3fLt3m0BlDkRrVg9vNLnLCg,True
996,Uttar Pradesh,NH27,Semri,km 140.400 on NH27 (Old NH25),JhansiOrai section of NH25 (New NH27) from Km. 90.300 to Km. 225.713 (length 135.413 km),4546,25.636776,78.8750865,ChIJgSEhHnO9dzkRGZ3VbnoUq0s,False
997,Uttar Pradesh,NH28C (New927),Shahabpur,5.925 Km,Barabanki Jarwal,5739,26.9492537,81.25644690000001,ChIJdbkKs9RjmTkRnJ6W4lnBCV4,False
998,Uttar Pradesh,NH 24,Sherpur Chamaraha,5.6,17.66,5693,26.8217088,83.29434719999999,ChIJhxKc_lJHkTkRQLZHszWqeFQ,True
999,Uttar Pradesh,76,Shrishikalan,Km. 193.600,Rehabilitation and up gradation from Km 178.000 to Km 215.000 (KabariBanda Section) of NH76 to 2lane with paved shoulder on EPC mode,5895,27.5705886,80.0981869,ChIJ0wlKe59OmTkRnSQXNm1HpfY,True
1000,Uttar Pradesh,58,Siwaya,Km 75.990,Meerut - Muzaffarnagar,39,29.0955776,77.71099099999999,ChIJF2CpIgBvDDkRbuX3VkBAuqU,True
1001,Uttar Pradesh,91,Somna (Gabana),Km 113.30,Ghaziabad-Aligarh section ch. 23.600 to 149.900,430,28.0627431,77.9460746,ChIJXS_T0USrdDkR1wcAyLpQSqw,True
1002,Uttar Pradesh,30,Soraon,Km 196.605,Allahabad Bypass (Km 158.000 - Km 0242.708),42,25.6070169,81.8497567,ChIJkxsbBBPImjkRRUXGmEJK2Sc,True
1003,Uttar Pradesh,NH 709AD,Tamsabad,Tamsabad,Panipat to Shamli (PKG I),4581,27.5705886,80.0981869,ChIJ0wlKe59OmTkRnSQXNm1HpfY,True
1004,Uttar Pradesh,34,Tarwa Dewa,Km 299.507,4 Laning of AligarhKanpur Section of NH91 Pkg3 Kalyanpur0viganj,5863,27.1930926,79.37330639999999,ChIJ-Y7ucH6KdTkRQK4nFAa2S6M,True
1005,Uttar Pradesh,28,Tendua (Gorakhpur Bypass),Km 256.500,Gorakhpur Bypass,45,26.7241116,83.27447459999999,ChIJyT8spMlAkTkRaXU5akVTiog,True
1006,Uttar Pradesh,24,Thiriyakhetal,km 228.885,Moradabad - Bareilly Road Section (Km 148 To Km 262),397,28.4671457,79.281759,ChIJE070ndmlCjkRHYfm55qkrX0,True
1007,Uttar Pradesh,2,Tundla,Km 224.950,Tundla - Makhanpur (Km 199.660 to Km 250.533),10,27.2182642,78.2724906,ChIJ5ZaNxT9odDkRRtr0sPN7TXA,False
1008,Uttar Pradesh,25,Ukasa ( Chamari),Km 229.913,Orai Barah,34,27.5705886,80.0981869,ChIJ0wlKe59OmTkRnSQXNm1HpfY,True
1009,Uttar Pradesh,76(New NH 35),Umapur,KM 377.550,Mau to Jasra,5725,25.2719025,81.7429386,ChIJPSB_kFYxhTkRD5xlFGNDYy4,False
1010,Uttar Pradesh,26,Vighakhet,Km 85.280,Jhansi - Lalitpur (Km 49.700 to Km 99.005),201,24.7896466,78.4487648,ChIJC0rO1Ky5eTkRfRfDNVlg7q0,False
1011,Uttarakhand,NH58 (new NH334),Bahadrabad,Ch. 187.370 (near Bongla Bypass),Muzaffar0gar Haridwar Section of NH58. Package 2 Start of Roorkee Bypass to End of Roorkee Bypass Design Km. 167.200 to Km. 180.300 Package 3 End of Roorkee Bypass,5714,29.9121447,78.0217132,ChIJBRulObVJCTkR9IQ7z4g7sPs,False
1012,Uttarakhand,NH 125,Banushi,Khatima,52.200,4547,28.9322986,79.9293422,ChIJ0bVaIKVQoDkRb996kMVSVXU,True
1013,Uttarakhand,NH73 (new NH344),Bhagwanpur,Ch. 15.945 (near Bhagwanpur),ChutmalpurGaneshpur of NH72A from Km.0.000,5716,29.930875,77.82016089999999,ChIJRa2V6Aa3DjkRDraOrsiSlpg,False
1014,Uttarakhand,NH58 (new NH334),Chhapar,Ch. 138.552 (near Vill. Chhapar),Muzaffar0gar to Haridwar,5713,30.066753,79.01929969999999,ChIJCZwnAsLcCTkRBcCcaGM7xAc,True
1015,Uttarakhand,NH 74,Deoria,Km 222.270,Kashipur Sitarganj Section,4536,28.9211268,79.4844499,ChIJ7_vEtxp8oDkR4afiewQAi9k,True
1016,Uttarakhand,74,Jagatpur Patti,Ch. 145.054,0gi0 Kashipur (98.793 Km),5795,29.2437027,78.8857878,ChIJ_ebnN0VHCjkRr_md4A2N58Q,True
1017,Uttarakhand,NH 9( Old NH 87),Koyla,Km 11.270,43.446,5861,29.6582017,79.5645585,ChIJYWhEWQGyoDkR4xu_3N0SOCo,True
1018,Uttarakhand,NH 72 (New NH 7 34),Lacchhiwala,Lacchhiwala,37.148 KM,5652,30.2095059,78.1255398,ChIJaZn7GGglCTkRQZdXSRaDwCI,True
1019,Uttarakhand,74,Puraini,Puraini Distt Bijnor UP,,5752,30.066753,79.01929969999999,ChIJCZwnAsLcCTkRBcCcaGM7xAc,True
1020,Uttarakhand,74 (Old 734),Rawason Bridge (MoRTH),Km 20,Bridge of Rawason river in Km. 19,364,30.066753,79.01929969999999,ChIJCZwnAsLcCTkRBcCcaGM7xAc,True
1021,Uttarakhand,NH73 (new NH344),Sarsawa,Ch. 81.155 (near Sarsawa),4Laning of GagalheriSaharanpurYamu00gar (UPHarya0 Border) Section of NH73 from Km.33.000 (Design Ch.35.400) to Km.71.640 (Design Ch.86.855) in the State of Uttar Pradesh under NHDPIV on HAM,5715,30.066753,79.01929969999999,ChIJCZwnAsLcCTkRBcCcaGM7xAc,True
1022,Uttarakhand,NH73 (new NH344),Sayed Mazera,Ch. 32.435 (near Chamarikheda),NH73 from Km. 0.000 (Km. 33.000 of NH73) to Km. 35.400 (Km. 71.640 of NH73,5712,30.066753,79.01929969999999,ChIJCZwnAsLcCTkRBcCcaGM7xAc,True
1023,West Bengal,12,Ayespur Toll Plaza,Km. 54.390,4laning of BarasatKrishnagar section of NH12 (Old NH34) from Km. 48.553 to Km. 115.272,6847,22.9856152,88.54444749999999,ChIJAV9zTFq_-DkR98oB-jElqAE,True
1024,West Bengal,2,Banskopa,Km.507.085,Barwa Adda to Panagarh including Panagarh Bypass Km.398.240 Km.521.121,4545,23.4911364,87.37662019999999,ChIJf-v8sYRw9zkRJ4iSzNX-uOw,False
1025,West Bengal,NH 12 ( Old NH 34 ),Barai Toll Plaza,411.850,Raiganj Dalkhola,6669,25.6709905,88.0801211,ChIJn7vcwFwt5TkRfWPbDx0yVuI,True
1026,West Bengal,2,Beliyad,Km 438.500,Barwa Adda - Panagarh,282,22.9867569,87.8549755,ChIJh-iXE_8W-jkRCqLnwz06VHE,True
1027,West Bengal,34,Chakseherdi (Gazole) Bagsarai,Km 351.440,Farakka - Raiganj (km 295.000 - km 398.000),486,25.2249179,88.1985145,ChIJ4xZazVIe-zkReMvoO_evn00,True
1028,West Bengal,2,Dankuni,Km 646.005,Palsit - Dhankuni (Km 587.853 - Km 651.602),279,22.6988382,88.288859,ChIJtZYPQXmD-DkRAJNFDRxD-LQ,False
1029,West Bengal,16,Debra,Km 112.245,Dhankuni - Kharagpur,231,22.3969038,87.52285119999999,ChIJT6bWIkNNHToRwyZcmuA7YSE,True
1030,West Bengal,NH 31 (new17),Ghogarkuthi,at Ch. 801.120,Pundibari to Bakshirhat,5659,26.3230195,89.6404628,ChIJl_HBcfbz4jkRC22xpQxHJpw,True
1031,West Bengal,34,Gopgram (Shibpur),Km 206.562,Baharampore - Farakka (Km 191.416 to Km 294.684),389,24.1506338,88.1864109,ChIJR3hAIkLV-zkR5xhe2VR8Svc,False
1032,West Bengal,31C,Guabari,Km 243.00,Salsalabari - Assam Bengal Border (Km 228.000 - Km 254.500),398,26.4766256,89.7565537,ChIJFV6VNQ1h4jkR9ZH7_g3fACk,False
1033,West Bengal,31D,Husludanga,Km. 77.830,Km. 0.000 to Km. 83.785 (GhoshpukurSalsalabari Section) of NH31D,5774,26.5603733,88.91928999999999,ChIJ9eAleWaF4zkR0ENg53QKLSg,True
1034,West Bengal,16,Jaladhulagori (Dhulagarh),Km 35.250,Dhankuni - kharagpur,280,22.5731795,88.18176489999999,ChIJy7ciXc9_AjoRZ25RkJY0PCc,False
1035,West Bengal,NH60A (new NH314),Kalapathar,Kalapathar,Bankura to Purulia,5699,23.2179345,86.93636180000001,ChIJxdXRyPus9zkR9XqwkBALNJI,True
1036,West Bengal,34,Kishorpur (Chandermore),Km 260.850,Baharampore - Farakka (Km 191.416 to Km 294.684),388,23.8902923,88.54444749999999,ChIJw3V69JpD-TkRrtYNiklXjJg,True
1037,West Bengal,Old 34 New 12,Lakshmipur (Eighteen Mile ),Km 297.867,Farakka - Raiganj (km 295.000 - km 398.000),485,24.801475,87.96778280000001,ChIJO2Pj1HBZ-jkRXQlV-NdVIQM,True
1038,West Bengal,NH 60 (New NH 14),Mejia,Km 267.250,Dhaldanga Mejia,5701,22.9867569,87.8549755,ChIJh-iXE_8W-jkRCqLnwz06VHE,True
1039,West Bengal,NH 117,Namkhna,at Km. 114.430,Km 111.710 to km114.975 of NH117,5638,21.7501184,88.2386071,ChIJ7VZKslepAzoR3rt4tmf3Ang,True
1040,West Bengal,2,Nivedita Setu,Km 654.059,Second Vivekananda Bridge & Approach,278,22.6542257,88.32503179999999,ChIJqedyQCud-DkR0b13AAX-hGI,False
1041,West Bengal,2,Palsit,Km 585.692,Panagarh - Palsit (Km 520.103 - Km 587.853),273,23.1786954,88.0265933,ChIJjbb2Uada-DkRDJc8LMHMrxQ,False
1042,West Bengal,31D,Panikauri,Km. 33.400,Km. 0.000 to Km. 83.785 (GhoshpukurSalsalabari Section) of NH31D,5773,26.5739328,88.5227432,ChIJ0b3ZP29n5DkR4st_P9zIpZ4,True
1043,West Bengal,31,Paschim Madati,Km 547.350,Sonapur - Ghoshpukur (Km 551.000 - Km 507.000),223,26.5688047,88.27554339999999,ChIJ-1ndVrdR5DkR7WzaTQd_wAE,True
1044,West Bengal,19 (OLD NH 02),Rajchandrapur (Howrah),SECOND VIVEKANANDA BRIDGE TOLLWAY COMPANY PVT. LTD.,6 LANNING,6612,22.653594,88.32724999999999,ChIJ2aG_jSud-DkRDdwGmGBV-4Q,True
1045,West Bengal,AH48,Rangalibazna,Km. 74.900,May0guri Changrabandha to Jargaon Hasimara Dhupguri,5662,26.6848934,89.2307723,ChIJuTv66la74zkROB1fM_EHQOc,True
1046,West Bengal,NH34 (Old) NH12 (New),Sali Bamandanga,141.14,Krish0garBaharampore section of NH34 from Km 115.342 to Km 191.700 (76.358 Km),5634,23.6293256,88.3602026,ChIJPzTGuckR-TkRKQq1DNA9tD8,True
1047,West Bengal,31C,Satbhaiya,Km. 23.400,Satbhaiya,5686,26.6707618,88.2193381,ChIJd31jym5M5DkR1eu8qsUHxNk,True
1048,West Bengal,41,Sonapetya,Gobindopur Tamluk Purba Medinipur West Bengal 721627,Kolaghat Haldia Km 0.000 to Km.53.472 of NH116,232,22.3354481,87.86950259999999,ChIJ-5DNfBGWAjoRy3FsTTJO-ug,False
1049,West Bengal,31 (new17),Sulkhapara,Km. 117.050,Mongpong to ChalsaTelipara,5664,26.85739,88.90785269999999,ChIJJ-aLsrTz4zkRWs64obc3jzA,True
1050,West Bengal,31,Surjapur,Km 451.00,Dalkhola - Islampur (Km 447.00 - Km 498.970),281,25.9335323,87.8431469,ChIJn-gY-bJA5TkRZ2Ia-0B_q9g,False
